{"type":"Topology","arcs":[[[5688,1126],[60,4],[2,35],[52,12],[19,109]],[[5821,1286],[5,25]],[[5826,1311],[20,28],[48,-33],[13,43],[-85,48],[-1,43],[79,-45],[-45,83],[48,-25],[-3,72]],[[5900,1525],[19,11]],[[5919,1536],[22,-14]],[[5941,1522],[73,67]],[[6014,1589],[118,108],[-13,-60],[37,-38],[10,88],[59,46],[46,-2],[58,41],[21,-17],[58,69],[69,-22],[6,35],[115,-21],[51,-75],[0,61],[32,11],[49,-44],[24,41],[75,-57],[-17,-41]],[[6812,1712],[-55,-123],[-100,-120],[-36,-9],[11,-93],[-128,-139],[1,-54],[-38,-11],[43,-78],[-44,-70],[57,36],[47,-88],[-11,-72],[-35,-77],[-54,-58],[-12,-77],[50,-68],[-27,-11],[47,-73],[20,-99],[-35,-113],[-39,-60],[-28,47],[-61,39],[-9,98],[-20,-62],[-15,51],[-47,29],[-29,-49],[19,-71],[-105,36],[-11,-29],[62,5],[51,-65],[104,15],[51,-47],[-83,-47]],[[6353,205],[-62,-8],[-76,43],[-41,10],[-3,37],[-106,5],[17,-41],[-62,37],[11,-81],[-30,-23],[50,-54],[-5,45],[63,-65],[-28,-49],[-24,49],[-41,6],[-47,-34],[43,-64]],[[6012,18],[-23,21],[-118,-39],[-1099,0],[-4,4]],[[4768,4],[59,22],[-42,27],[-89,-53],[-63,0],[48,60],[-32,20],[-54,-22],[-67,86],[59,68],[-43,15],[-13,132],[94,47],[11,68],[-38,11],[-44,78],[-42,26],[25,54],[49,-11],[87,42],[-48,62],[92,3],[-17,39],[58,32],[47,-12],[34,-61],[119,-44],[51,3],[44,53],[82,27],[124,145],[131,79],[-28,6],[35,66],[56,31],[31,-20],[7,-74],[195,74],[-55,29],[-101,0],[20,47],[121,-13]],[[5671,1146],[17,-20]],[[5371,3827],[45,-1],[118,-58],[77,22],[17,55],[96,6],[4,55]],[[5728,3906],[52,-11],[19,-52],[87,-99],[-2,-62],[120,-31],[46,-69],[52,-42],[79,59]],[[6181,3599],[141,-89],[87,-17],[-1,-20],[217,-107],[39,-172],[38,-3],[62,-62],[24,-125],[-84,-118],[-156,-21]],[[6548,2865],[-45,39],[-67,154],[-6,-72],[72,-93],[-24,3],[55,-76],[-64,-3],[-50,36],[-18,-31],[-91,56],[-23,-63],[-76,5],[-33,-53]],[[6178,2767],[-39,-14],[9,-60],[-34,-5],[-38,-64],[-37,9],[-69,-49],[-8,36],[-69,-117],[-38,1],[-54,-92],[-26,10],[-13,100],[29,19],[-1,76],[-59,114],[-97,-47],[-42,69],[-36,6],[55,-93],[-58,-4],[-9,-72],[-28,-9],[-33,-125],[-113,36],[-25,-49],[-22,29],[-39,-32],[-40,30],[-8,-58],[-55,-17],[-22,37],[-158,22],[-26,70],[27,49],[38,1],[-33,83],[29,2],[35,91],[24,-3],[-15,80],[-46,52],[29,61],[88,13],[34,36],[59,111],[17,95],[-57,125],[-86,87],[78,93],[-16,45],[75,110],[-21,88],[44,62]],[[5278,3805],[51,-12],[42,34]],[[2814,2608],[-17,29],[-81,8],[-28,114],[-102,106]],[[2586,2865],[5,39],[51,27],[-5,58],[43,26],[-48,120],[-82,39],[-29,-6]],[[2521,3168],[22,69],[-59,69],[8,93],[-85,72],[-46,17],[-107,-190],[-33,-18]],[[2221,3280],[-39,54],[-27,184],[-27,38],[-11,152],[11,97],[48,111],[-14,107]],[[2162,4023],[88,66],[70,-72],[74,98]],[[2394,4115],[20,30],[86,0],[75,42],[34,85],[114,-5],[23,65],[-9,50],[23,64],[-27,52],[-47,-4],[-60,103],[190,100]],[[2816,4697],[35,-61],[47,-15],[8,130],[19,48],[107,20]],[[3032,4819],[53,-42],[108,22]],[[3193,4799],[14,-35],[63,-12],[26,31],[52,-6]],[[3348,4777],[6,-53],[134,-32]],[[3488,4692],[-78,-119],[0,-93],[-20,-52],[102,-56]],[[3492,4372],[-29,-52],[-84,8],[-78,-22]],[[3301,4306],[-14,85],[-63,56],[-76,26]],[[3148,4473],[22,76],[-48,37],[16,55],[-42,69],[-59,-47],[-42,-5],[-2,-54]],[[2993,4604],[-103,5],[6,-134],[49,-56],[153,15]],[[3098,4434],[43,-22],[52,-104]],[[3193,4308],[10,-113],[-89,-36],[13,-99],[43,-62],[62,-49],[-21,-69],[102,-143],[72,-28]],[[3385,3709],[-92,-19],[-78,83],[-118,-89],[-2,-40],[-105,-85],[29,-59],[-37,-50],[8,-40],[-76,-14],[-15,-42],[44,-132]],[[2943,3222],[-84,-17],[-72,-93],[6,-47],[-102,-55],[25,-43],[65,-28],[62,17],[121,-20],[41,-50],[71,41]],[[3076,2927],[22,-103],[-50,-65],[-29,-77],[14,-38]],[[3033,2644],[-162,4],[-57,-40]],[[3076,2927],[15,26]],[[3091,2953],[16,3],[89,-89],[26,30],[82,9],[75,33]],[[3379,2939],[63,-56],[104,-16],[34,22]],[[3580,2889],[109,-17],[63,-27]],[[3752,2845],[24,-60],[-37,-55],[0,-50],[-60,-45],[17,-52],[-27,-59],[56,-69],[-32,-98],[-54,-70],[-70,-27],[-83,-79],[-19,-124]],[[3467,2057],[-30,-59],[19,-36],[-74,-91],[-49,25],[-100,-2],[-82,-61],[0,-52],[76,-5],[-55,-85],[-65,11],[-45,-74],[-38,-17],[-65,-89],[-49,-11],[-57,29],[9,-79],[-66,60],[-14,-42],[3,-134],[-29,59],[-91,2],[-64,27],[-22,-25],[96,-22],[3,-41],[-52,0],[-93,33],[-44,-8]],[[2489,1370],[-37,22],[-74,109],[17,90],[57,0],[29,50],[-14,54],[37,99],[-42,72],[-77,-11],[-65,53],[-115,11],[-51,-23],[-150,67],[-19,36],[-81,7]],[[1904,2006],[41,78],[-57,63],[11,93]],[[1899,2240],[84,3],[22,30],[69,-7],[22,53]],[[2096,2319],[78,-21],[64,-47],[0,-40],[63,-61],[15,-126],[77,3],[44,-74],[90,-3],[51,70],[-14,44],[16,94],[-11,100],[-37,56],[11,43],[67,64]],[[2610,2421],[93,113],[76,3]],[[2779,2537],[80,77],[49,-22],[1,-34],[92,-28],[-38,-93],[55,25],[23,48],[61,5],[64,-59],[46,0],[107,49],[-142,-35],[51,39],[-97,22],[-64,67],[-46,0],[12,46]],[[2766,1863],[194,11],[-91,72],[64,28],[60,-3],[-54,61],[-76,-28],[22,59],[-132,36],[86,-58],[-24,-45],[-78,72],[-65,-47],[86,-25],[19,-72],[-11,-61]],[[2656,1874],[86,22],[-97,-2],[11,-20]],[[1904,2006],[-107,-169],[30,-61],[61,-43],[-15,-51],[26,-117],[-47,-40],[0,-179],[-53,-80],[35,-36],[19,-70],[-11,-47],[62,-32],[17,-151],[55,-54]],[[1976,876],[31,-107],[-35,-41],[24,-47],[-57,2],[38,-40],[-20,-30],[-86,16],[-58,-43],[-109,-23],[-38,-28],[-156,17],[-65,-79],[-79,7],[2,129],[-64,133],[-10,97]],[[1294,839],[29,36],[-44,26],[-18,83],[-37,3],[-89,53],[-62,-9],[-99,53],[-51,-8],[-87,52],[-32,-5],[-78,44]],[[726,1167],[-66,11]],[[660,1178],[-25,39],[-77,54],[-22,65],[32,18]],[[568,1354],[42,-12],[10,62],[44,93],[65,11],[-157,64],[-4,17]],[[568,1589],[111,-6],[19,19],[157,-19],[27,-28],[202,-11],[64,-44],[149,0],[98,53],[16,59],[60,69],[133,22],[-26,71],[-5,121],[14,80],[62,46],[0,60],[29,30],[0,67],[41,87],[44,-3],[52,36]],[[1815,2298],[41,-5],[43,-53]],[[3752,2845],[45,-3],[48,-61],[35,3]],[[3880,2784],[4,-66],[-21,-85],[20,-24]],[[3883,2609],[29,-14],[4,-71],[33,-50],[69,-4],[14,-43],[-33,-48],[264,61],[28,28],[32,-63],[61,-23],[55,-118],[-12,-35],[-92,11],[-55,-50],[26,-16],[84,49],[54,-11],[33,-98]],[[4477,2114],[122,-26],[91,-154],[-30,-71],[-73,-51],[41,-8],[16,-50],[-76,-93],[-145,23],[40,57],[-24,63],[-5,91],[-42,21],[44,48],[-45,57],[-33,-90],[-56,-36],[35,-86],[-68,-51],[-17,125],[-20,-66],[-41,-47],[22,-30]],[[4213,1740],[-31,-35],[-15,38],[-31,-74],[31,-29],[-67,-92],[-33,-87],[-40,6],[-30,45],[-37,115],[2,52],[103,69],[-117,-18],[-54,-53],[-23,99],[-35,23],[51,82],[-3,56]],[[3884,1937],[-106,23],[-97,-66],[-54,0],[-31,-88],[-36,-21],[-122,37],[11,55],[76,-25]],[[3525,1852],[-61,82],[24,86],[-21,37]],[[3884,1937],[46,43],[-7,30],[-39,-73]],[[3981,2049],[33,-39],[-49,-6],[30,-58],[21,-100],[-30,-69],[17,-28],[72,103],[-29,72],[-32,-14],[-14,72],[38,28],[-18,58],[-39,-19]],[[1709,4436],[-11,-19],[-74,115],[-22,92]],[[1602,4624],[-5,52],[-67,116],[27,70],[-24,94],[60,173],[-12,43],[22,86],[29,11],[-32,47],[8,50],[70,109],[-5,123],[93,52],[126,119],[60,94],[-10,24],[24,145],[33,105],[8,107]],[[2007,6244],[147,5]],[[2154,6249],[-2,-168]],[[2152,6081],[0,-41],[65,-75],[-8,-61],[67,-100],[-30,-75],[8,-156]],[[2254,5573],[-9,-3]],[[2245,5570],[-74,8],[-15,-87]],[[2156,5491],[-23,-18],[11,-125]],[[2144,5348],[-43,-28],[0,-52],[-76,-44]],[[2025,5224],[-7,-42]],[[2018,5182],[-25,-78],[-41,-14],[-38,-113],[60,14],[66,-73],[26,0]],[[2066,4918],[3,-115],[51,-48],[67,-20],[2,-33]],[[2189,4702],[-35,-61],[-53,28],[-149,8],[-53,24],[19,-111],[-61,-54],[-128,-11],[-20,-89]],[[5371,3827],[-55,54],[-76,0],[-70,39],[-56,-27],[-72,9],[-173,-131],[-157,2],[-76,-27],[0,-54],[-35,-64],[-74,-65],[-83,-16]],[[4444,3547],[-2,57],[54,61],[-11,110],[105,29],[-5,46],[-76,113],[60,89]],[[4569,4052],[40,14],[8,89]],[[4617,4155],[3,61]],[[4620,4216],[160,9],[31,71],[81,33],[40,39],[-5,51],[31,50]],[[4958,4469],[137,11],[184,-9]],[[5279,4471],[69,-54],[69,-14],[42,30],[22,-99],[35,-45],[141,-71],[-5,-101],[42,-101],[35,-22],[-1,-88]],[[4348,1411],[61,77],[-72,-56],[-22,-133],[41,-108],[-87,9],[-39,47],[-31,85],[-8,81],[19,84],[86,10],[-59,14],[8,36],[66,62],[59,-12],[30,59],[119,-22],[83,14],[-35,-42],[94,9],[45,-56],[140,74],[-43,30],[13,54],[67,-57],[132,77],[36,95],[-19,31],[83,10],[4,-59],[28,40],[55,-22],[1,49],[-50,29],[-116,-37],[-32,102],[62,51],[-126,52],[-28,-6],[-38,107],[25,53],[71,12],[7,-23],[97,-56],[66,32],[36,-21],[73,22],[9,60],[72,30],[58,-25],[10,34],[225,22],[-43,-104],[-149,-32],[13,-50],[97,43],[40,-35],[58,48],[8,-54],[-39,-27],[-2,-44]],[[5607,2074],[-92,-61],[-1,-25],[-73,-10],[-90,-40],[-67,-67],[40,-47],[106,6],[20,55],[92,20],[31,-15],[-48,-75],[57,15],[-17,-45],[-79,-52],[59,-8],[12,-68],[-62,-27],[-3,35],[-107,8],[-69,-87],[-57,81],[0,-51],[-114,0],[-1,-69],[60,-17],[-39,-30],[-61,26],[22,-58],[-42,-54],[-19,47],[-55,4],[49,-52],[-120,-38],[-39,40],[-7,-76],[-71,28],[-33,-25],[-17,50],[-31,-100],[-107,-14],[-29,14],[-16,78],[-66,-63],[-62,-119],[-61,4],[-52,65],[-6,84],[38,33],[-32,37]],[[6152,9015],[-8,54],[-61,55]],[[6083,9124],[30,28],[6,61],[1107,0],[1,-269]],[[7227,8944],[-74,-30],[-81,38],[-90,-54],[5,-77],[-89,-59],[-85,5],[-82,-31],[-57,-76],[1,-97],[24,-82],[43,-30]],[[6742,8451],[-13,-60],[41,-26],[47,-77],[-66,-45],[-72,58],[-2,64],[-63,19],[-61,86],[-88,29],[-3,69],[-66,-37],[-69,80],[-8,149],[-70,27],[-35,71],[-54,43],[27,72],[-35,42]],[[2152,6081],[43,52],[65,5],[37,52]],[[2297,6190],[92,-68],[46,8],[22,62]],[[2457,6192],[148,71]],[[2605,6263],[82,-64],[62,34],[46,-6],[33,-64],[108,23]],[[2936,6186],[-12,-26]],[[2924,6160],[-23,-73],[86,-173]],[[2987,5914],[0,-57],[41,-75],[80,-103]],[[3108,5679],[-16,-116]],[[3092,5563],[-97,-43],[-6,-67]],[[2989,5453],[-42,-37],[21,-62]],[[2968,5354],[-31,-22]],[[2937,5332],[-113,49]],[[2824,5381],[-52,43]],[[2772,5424],[-61,55],[-39,4]],[[2672,5483],[-34,54],[-43,5],[-52,46],[-15,73],[-66,-68],[-58,21],[-38,45],[-27,-72]],[[2339,5587],[-21,16],[-64,-30]],[[3385,3709],[63,-2],[97,-78],[98,22]],[[3643,3651],[42,-23],[-7,-46]],[[3678,3582],[-39,-53],[-43,-8],[-24,-86],[52,-22]],[[3624,3413],[11,-22],[107,-5],[9,-70]],[[3751,3316],[82,-79],[-9,-46]],[[3824,3191],[-125,-97]],[[3699,3094],[-11,-33]],[[3688,3061],[-14,-43]],[[3674,3018],[-79,7],[-14,97],[-74,29],[32,-130],[21,43],[25,-43],[61,-21]],[[3646,3000],[-69,-74],[3,-37]],[[3379,2939],[-39,8],[-160,-16],[-83,52]],[[3097,2983],[-25,-3],[-50,146],[-1,63],[-78,33]],[[5278,3805],[-50,-57],[-33,67],[-50,-4],[-6,-39],[-49,-35],[-62,14],[17,-32],[-36,-32],[-43,17],[25,-84],[-17,-82],[-31,-46],[19,-64],[-26,-44],[-194,37],[-39,-43],[-117,-18],[-63,-100],[-126,3],[-51,-47],[-90,22],[-24,-51],[-25,-125],[-76,-12],[-19,48],[-23,-76],[0,-137],[16,-111],[54,-83],[57,-135],[60,-25],[-9,-63],[-120,-45],[-78,-8],[-46,64],[-62,2],[-34,46],[-2,93],[-42,-11]],[[3880,2784],[106,137],[-34,75],[-46,163],[10,45]],[[3916,3204],[30,36]],[[3946,3240],[81,95]],[[4027,3335],[36,10]],[[4063,3345],[49,49],[85,11],[52,55],[76,33],[76,-2],[43,56]],[[4617,4155],[-37,-32],[-39,28]],[[4541,4151],[-18,85],[-107,70],[-110,-17]],[[4306,4289],[-81,-8]],[[4225,4281],[-24,16],[-79,-50]],[[4122,4247],[-42,-8],[50,-122]],[[4130,4117],[-53,-51],[-61,29],[-16,-54]],[[4000,4041],[-30,28]],[[3970,4069],[-45,122],[14,129]],[[3939,4320],[24,56],[5,114],[-57,44],[8,35],[-40,40],[0,61],[-32,34],[-137,26],[-39,57]],[[3671,4787],[-1,1]],[[3670,4788],[58,25]],[[3728,4813],[75,-3],[48,57],[131,-15],[27,-28],[73,-5],[16,41],[81,-14],[103,-99],[149,84],[13,133],[95,81],[-46,83],[-35,8],[8,47]],[[4466,5183],[50,15],[67,-16],[46,-53],[92,-53]],[[4721,5076],[13,-72]],[[4734,5004],[20,-48],[-36,-60]],[[4718,4896],[-51,-52],[-62,11],[-34,-56],[35,-54],[-27,-95],[63,11],[31,-78],[110,-42],[31,19]],[[4814,4560],[74,-48],[55,21],[67,-23],[-52,-41]],[[4958,4469],[-30,17],[-19,-47],[-121,64],[-66,-9]],[[4722,4494],[-152,47],[-51,-50]],[[4519,4491],[-88,21],[7,-37],[-86,44],[-26,-12],[118,-113],[88,-57],[26,-62],[25,20],[37,-79]],[[2489,1370],[21,-60],[-71,10],[-30,41],[-84,-115],[-88,-88],[-17,-70],[-118,-65],[-27,-61],[-36,-14],[-3,-69],[-60,-3]],[[3029,7497],[-59,-25]],[[2970,7472],[1,71],[-54,95],[35,79],[55,74],[118,88],[55,67],[97,39],[64,5],[70,84],[76,11],[140,83],[275,122],[118,-20],[72,-55],[101,14]],[[4193,8229],[135,75],[81,113],[101,72],[61,2]],[[4571,8491],[39,-142]],[[4610,8349],[-28,5],[-38,-85],[-46,-24],[0,-56],[-89,-121],[0,-40],[-154,15],[-25,22],[-94,17],[-118,-61],[-72,-101],[-69,-5],[-39,-40],[-43,-96]],[[3795,7779],[-207,-13],[-115,8],[-29,-33],[-119,14],[-59,-59]],[[3266,7696],[-75,-5],[53,-20]],[[3244,7671],[-59,-102]],[[3185,7569],[-124,-25],[-32,-47]],[[3492,4372],[162,-3],[63,25],[28,39],[68,6],[58,-25],[68,-94]],[[3970,4069],[-16,-25],[8,-125],[-21,8],[-25,-73],[-28,27],[-66,-95],[20,-46],[-55,-24]],[[3787,3716],[-13,0]],[[3774,3716],[-65,5],[-66,-70]],[[3193,4308],[108,-2]],[[3693,3762],[-8,-30],[67,28],[6,163],[-41,-69],[16,-42],[-40,-50]],[[3790,3881],[43,123],[54,74],[-51,14],[3,-39],[-41,-97],[-8,-75]],[[4063,3345],[-65,11]],[[3998,3356],[-63,126]],[[3935,3482],[-48,32]],[[3887,3514],[-1,24]],[[3886,3538],[25,70],[-27,39],[68,228],[48,85],[0,81]],[[4130,4117],[36,89],[-44,41]],[[4225,4281],[38,-22],[43,30]],[[4541,4151],[28,-99]],[[1803,2422],[-28,52]],[[1775,2474],[-35,159],[19,18],[3,120],[-41,43],[10,42],[33,-27]],[[1764,2829],[35,42],[-40,76],[20,25],[63,-89],[-70,140]],[[1772,3023],[-29,-9],[0,88],[-23,-14]],[[1720,3088],[17,74],[60,55],[-38,89],[52,32],[56,-21],[-27,22],[15,30],[-66,15]],[[1789,3384],[-35,100],[70,65],[-33,23],[70,71],[76,12],[-41,28],[31,40]],[[1927,3723],[42,-29],[-46,81],[62,41],[22,83],[-18,105],[-46,54]],[[1943,4058],[30,59]],[[1973,4117],[42,-47],[147,-47]],[[2221,3280],[-26,-110],[-60,-20],[-45,-74],[-70,-55],[-43,-68],[22,-113],[-25,-97],[-68,-70],[-31,-74],[-6,-102],[-51,-90]],[[1818,2407],[-15,15]],[[1764,2829],[-37,39],[49,15],[-12,-54]],[[1789,3384],[45,-47],[-41,7],[-4,40]],[[4610,8349],[59,-62],[74,-21]],[[4743,8266],[42,-18]],[[4785,8248],[30,-28]],[[4815,8220],[60,-151],[-21,-72],[12,-107],[-39,-4],[47,-43],[16,122],[18,-101],[24,-36],[19,-97],[-18,-21],[18,-73],[51,-97],[-17,-40],[-44,11],[-64,-23],[-183,73],[-65,35],[-20,146],[-46,96],[-51,5],[0,60],[-115,-10],[-55,31],[-101,19],[-86,39],[-55,-78],[-58,0],[-86,-52],[1,-41],[-116,-191],[12,-48]],[[3853,7572],[-12,1]],[[3841,7573],[-16,14]],[[3825,7587],[-14,75],[17,51],[-35,3],[2,63]],[[3696,1715],[82,10],[6,-67],[-96,-51],[-41,-72],[27,-31],[-35,-191],[45,-31],[17,-55],[-26,-32],[-122,50],[3,166],[-15,-83],[-41,-64],[-31,4],[14,52],[-70,-2],[29,-42],[-36,-37],[-48,45],[20,-74],[-18,-26],[-45,47],[-56,-21],[81,-36],[-24,-89],[-47,13],[-86,-106],[-99,19],[6,61],[-58,43],[-15,45],[-86,81],[23,12],[16,122],[102,-44],[61,-71],[63,-35],[4,52],[-65,64],[19,51],[105,1],[-112,29],[-20,32],[36,35],[92,36],[54,-6],[78,64],[-99,-28],[-122,3],[-31,26],[50,80],[68,30],[4,103],[190,8],[40,-42],[48,6],[36,-53],[61,82],[54,12],[66,-31],[-5,-50],[-51,-14]],[[2521,3168],[-20,-46],[-124,-47]],[[2377,3075],[-20,90],[-92,23],[-29,-140],[13,-7]],[[2249,3041],[-11,-88],[-45,-20],[26,-110],[41,-30],[37,-161]],[[2297,2632],[-114,-123],[-87,-190]],[[1815,2298],[3,109]],[[3121,6521],[20,29],[-70,32],[-25,43],[5,110],[-15,60],[-123,14]],[[2913,6809],[15,74],[47,64]],[[2975,6947],[93,33],[16,86],[38,18],[3,69],[51,43]],[[3176,7196],[79,-65],[97,-3],[49,-22],[188,-3],[49,-14]],[[3638,7089],[56,-99]],[[3694,6990],[-19,-68]],[[3675,6922],[-20,-84],[-89,-106],[-35,-93],[-90,-104]],[[3441,6535],[-93,-3],[-79,103],[-64,-30],[-84,-84]],[[3108,5679],[79,8]],[[3187,5687],[102,-6]],[[3289,5681],[1,0]],[[3290,5681],[105,-3],[84,-25],[54,-36],[36,47],[101,20],[38,-20],[38,41]],[[3746,5705],[61,-21],[38,-53],[55,-14],[6,-68],[60,-46],[93,-30],[26,-50],[84,-4]],[[4169,5419],[137,-38],[82,89],[65,-10],[55,19],[44,-24]],[[4552,5455],[58,-21]],[[4610,5434],[28,-11],[22,-143],[81,-68]],[[4741,5212],[-20,-136]],[[4466,5183],[-52,7],[-111,92],[-89,25],[-54,-56],[-116,-47]],[[4044,5204],[-33,3]],[[4011,5207],[-16,25]],[[3995,5232],[-21,63],[-90,45],[-2,53],[-37,6],[-91,75],[-173,38],[-56,-59],[-92,42],[-205,44],[-98,-48]],[[3130,5491],[-38,72]],[[3825,7587],[16,-14]],[[3853,7572],[0,-42],[-50,-75]],[[3803,7455],[-98,64],[-96,3],[-48,-104],[22,-28],[29,-139],[54,-79],[-38,-34],[10,-49]],[[3176,7196],[18,65],[-57,103]],[[3137,7364],[71,75],[-23,130]],[[3244,7671],[22,25]],[[5240,5838],[-14,28],[-49,-30],[-79,31]],[[5098,5867],[4,32],[-94,88]],[[5008,5987],[-40,80],[26,76],[-8,51],[-70,11],[-27,29],[-2,82]],[[4887,6316],[106,39],[97,-17],[52,25],[-27,108]],[[5115,6471],[6,22],[76,-30],[46,-53],[139,135],[-10,117],[48,7],[-19,64],[34,65],[30,-12]],[[5465,6786],[58,-36]],[[5523,6750],[93,-23]],[[5616,6727],[23,-29]],[[5639,6698],[7,-4],[-135,-269]],[[5511,6425],[-63,24],[-42,-82],[10,-107],[53,0]],[[5469,6260],[8,-33]],[[5477,6227],[-36,-17],[-16,-70],[36,-105]],[[5461,6035],[-210,-210]],[[5251,5825],[-11,13]],[[568,1589],[-99,-6],[-140,-44],[-77,-53],[-41,25],[-180,-86],[-31,32],[60,47],[57,1],[159,109],[63,11],[-8,39],[109,-14],[130,47],[87,-11],[91,27],[61,-33],[71,17],[6,-72],[42,-11],[46,27],[113,-47],[104,8],[35,35],[-110,-10],[-25,39],[-110,56],[59,41],[133,47],[80,-31],[-7,-49],[85,54],[40,69],[-25,43],[125,138],[56,36],[77,233],[76,121],[-10,-66],[29,3],[20,95],[52,-119],[-26,113],[30,24]],[[4571,8491],[144,57],[119,19],[69,-3],[13,-41],[48,-16],[-48,79],[108,68]],[[5024,8654],[36,-26]],[[5060,8628],[59,-2]],[[5119,8626],[10,3]],[[5129,8629],[32,-9]],[[5161,8620],[139,-9],[82,-28]],[[5382,8583],[38,-3],[-17,-150],[46,-92],[-11,-100],[-119,-73],[-73,-3],[-57,25],[-81,-22],[-105,53],[-76,-20],[-77,50],[-35,-28]],[[4785,8248],[-42,18]],[[5279,4471],[11,36],[111,29]],[[5401,4536],[20,30],[100,9],[65,-16]],[[5586,4559],[52,-97],[94,-45],[11,-74],[71,-62],[54,-11]],[[5868,4270],[58,-82],[58,-49]],[[5984,4139],[90,-267],[16,-89],[64,-43],[27,-141]],[[1898,4078],[-69,-1]],[[1829,4077],[-35,53]],[[1794,4130],[-35,86],[11,23],[-57,83],[-94,194],[-17,108]],[[2189,4702],[49,-48]],[[2238,4654],[15,-116],[47,-38],[38,-74],[-39,-148]],[[2299,4278],[-94,-19],[-46,19],[-18,-64],[-59,-33],[-3,-31],[-82,-8],[-24,-25]],[[1943,4058],[-32,9]],[[1911,4067],[-13,11]],[[2394,4117],[-29,47],[-4,72],[-62,42]],[[2238,4654],[60,40],[48,68]],[[2346,4762],[44,9],[48,57],[78,21]],[[2516,4849],[108,-50],[52,-64],[78,78]],[[2754,4813],[28,-24]],[[2782,4789],[34,-92]],[[2394,4115],[0,2]],[[7227,8944],[-1,-599],[-49,36],[-34,-37],[-90,-52],[-75,28],[-49,-94],[-27,17],[-9,70],[59,24],[-99,44],[-62,49],[-30,51],[81,96],[2,36],[-44,51],[-28,-10],[-47,-76],[36,-55],[-19,-72]],[[4346,50],[-43,55],[-69,-19],[-2,40],[-52,-8],[-8,79],[-45,-22],[-30,37],[59,33],[-91,7],[-25,63],[66,79],[194,-53],[-75,97],[-30,-17],[-52,27],[33,34],[27,12],[13,23],[20,76],[-19,36],[87,-20],[-40,43],[-92,4],[-2,63],[71,-48],[4,75],[-25,-17],[-42,38],[43,44],[-45,18],[-17,79],[66,29],[127,3],[37,-44],[35,33],[59,-68],[-18,-51],[-99,-6],[100,-37],[-22,-56],[49,-44],[-18,-98],[-82,-10],[39,-74],[50,-43],[2,-73],[33,-160],[-11,-123],[-160,-36]],[[3728,4813],[0,57]],[[3728,4870],[113,112],[82,-19],[57,36],[63,145],[1,60]],[[4625,5844],[-102,193]],[[4523,6037],[-9,42],[35,144],[-80,179]],[[4469,6402],[27,69],[64,35],[35,-11]],[[4595,6495],[4,-54],[68,37],[68,-51],[82,-11],[34,-41]],[[4851,6375],[36,-59]],[[5008,5987],[-38,-45]],[[4970,5942],[-34,-31],[-127,-6],[-25,-36]],[[4784,5869],[-158,-24]],[[4626,5845],[-1,-1]],[[3995,5232],[-43,26],[-165,-11]],[[3787,5247],[-117,-10],[-76,-53]],[[3594,5184],[-86,-8],[-134,64],[-131,-3],[-31,56],[-74,-79]],[[3138,5214],[-48,55],[-19,63]],[[3071,5332],[-16,70],[21,58]],[[3076,5460],[54,31]],[[2297,2632],[7,5]],[[2304,2637],[38,-36],[43,11],[47,-45],[15,-80],[73,-36],[51,8],[39,-38]],[[4970,5942],[61,-91],[48,-6]],[[5079,5845],[25,-92],[55,-31],[15,-41],[180,-108]],[[5354,5573],[17,-22]],[[5371,5551],[-67,-12],[-53,-93],[3,-67]],[[5254,5379],[-189,-42],[-1,45],[-55,17]],[[5009,5399],[-62,115],[-27,-19],[-64,48],[-91,-1]],[[4765,5542],[-22,99]],[[4743,5641],[57,90],[16,116],[-32,22]],[[2782,4789],[24,51],[-15,63],[28,84],[-28,78],[-27,13]],[[2764,5078],[-6,39]],[[2758,5117],[101,40],[65,-7]],[[2924,5150],[16,-62],[70,24],[93,0],[35,102]],[[3594,5184],[-112,-54]],[[3482,5130],[-113,-44],[-16,-23]],[[3353,5063],[-106,-70],[-59,-57]],[[3188,4936],[-97,18],[-55,-38],[-4,-97]],[[3746,5705],[2,9]],[[3748,5714],[73,78],[80,47],[51,-14],[45,51],[-15,49]],[[3982,5925],[102,29]],[[4084,5954],[45,-60],[91,-16],[83,27]],[[4303,5905],[69,-124],[-52,-24],[-16,-48],[-45,-17],[5,-87],[-27,-103],[-68,-83]],[[3290,5681],[-1,0]],[[3289,5681],[5,22],[84,25],[13,125],[-64,65],[10,40],[65,7],[59,48],[27,56]],[[3488,6069],[47,-30],[72,11]],[[3607,6050],[42,-20],[65,24]],[[3714,6054],[99,-13],[93,37]],[[3906,6078],[17,-15]],[[3923,6063],[46,-52],[81,14],[34,-71]],[[3982,5925],[-105,11],[-68,-17],[-16,-48],[-65,-67],[20,-90]],[[6128,4006],[66,47],[62,-16],[89,30],[23,36],[-6,81]],[[6362,4184],[97,-42],[54,-62],[113,-54],[-55,72],[-23,-28],[-63,85],[-20,124],[24,42],[77,-4],[36,-110],[-1,-59],[40,2],[35,-58],[141,-143],[-98,-29],[-44,53],[-72,-17],[2,-36],[-82,-8],[-11,-50],[-49,97],[2,-83],[-52,40],[25,-53],[-18,-51],[-62,42],[-87,-11],[56,-43],[48,4],[71,-99],[-59,-22],[6,-26],[-99,8],[-112,111],[-92,143]],[[6090,3919],[35,32],[3,55]],[[4303,5905],[34,-2],[64,51],[0,28]],[[4401,5982],[122,55]],[[4626,5845],[7,-99],[30,-35],[-1,-64]],[[4662,5647],[-40,-85],[-64,-54],[-6,-53]],[[1294,839],[-75,-99],[32,-61],[-210,-111],[12,103],[-51,-13],[-8,100],[79,126],[25,-16],[79,54],[-34,29],[-40,-25],[-54,69],[-40,-16],[-58,-65],[-49,24],[-21,-56],[-67,25],[-123,-6],[-47,82],[25,29],[-75,0],[-23,123],[26,38],[63,5]],[[660,1178],[66,-11]],[[5371,5551],[74,-25],[35,-88],[78,-23],[43,16],[31,-61],[53,3],[97,39]],[[5782,5412],[74,-3],[-40,-69],[24,-32],[-100,-43],[-6,-59]],[[5734,5206],[-48,-50],[11,-70],[-63,-51],[-125,1]],[[5509,5036],[-17,27],[-93,11],[2,109],[-37,65],[-39,14],[-8,50],[-32,-8],[-31,75]],[[3488,4692],[34,-1],[85,105],[63,-8]],[[3670,4788],[1,-1]],[[5509,5036],[-67,-65]],[[5442,4971],[-35,-19],[-74,29]],[[5333,4981],[-36,45],[-66,34],[-96,-6],[-43,-44]],[[5092,5010],[-89,22],[-79,-6]],[[4924,5026],[-37,9],[-30,65]],[[4857,5100],[41,68],[58,19],[-21,74],[18,73],[56,65]],[[5024,8654],[118,114],[11,68],[-30,29],[20,38],[61,11],[15,38],[25,-54],[-45,-47],[33,-1],[47,51],[13,49],[55,7],[40,41],[-28,34],[71,59],[-23,-70],[37,19],[8,58],[55,-43],[97,11],[65,50],[32,-17],[17,84],[111,-60],[-70,-72],[86,-72],[12,-79]],[[5857,8900],[-13,-9]],[[5844,8891],[-8,-14]],[[5836,8877],[-7,-11]],[[5829,8866],[-63,59],[-116,50],[-55,-31],[-2,38],[-50,-2],[0,-75],[-107,-44],[-73,-146],[31,-32],[-12,-100]],[[5161,8620],[110,109],[-5,43],[-62,-14],[-8,-44],[-59,-3],[-8,-82]],[[5119,8626],[-59,2]],[[5868,4270],[-20,102]],[[5848,4372],[127,-32]],[[5975,4340],[51,-1],[31,72],[44,6],[16,63],[56,3]],[[6173,4483],[80,-77],[-7,-63],[42,18],[112,-111],[-38,-66]],[[6090,3919],[-67,194],[-39,26]],[[3187,5687],[-3,96],[-41,91],[-62,66],[-4,43]],[[3077,5983],[31,28]],[[3108,6011],[93,-36],[49,39],[-34,51],[22,111],[-21,34],[-125,-19]],[[3092,6191],[50,161]],[[3142,6352],[57,-56],[117,-5],[7,-56],[109,0]],[[3432,6235],[31,-75],[55,5]],[[3518,6165],[0,-61],[-30,-35]],[[5557,7368],[136,-54],[48,64],[149,-3],[9,65],[47,21],[94,-42],[13,51],[-52,70],[196,-68],[102,-14],[86,-55],[-2,-33],[-68,-26],[-105,42],[20,-57],[-23,-18],[-75,17],[-54,-11],[-87,-50],[-54,-50],[-58,-2],[160,99],[-36,-3],[-89,-58],[-116,-3],[-92,-33],[-107,18],[8,-26],[-201,56],[-125,63],[-88,138],[126,-33],[-10,-24],[67,-23],[80,-73],[75,-10],[-17,51],[43,14]],[[807,197],[17,68],[-75,26],[35,49],[-23,90],[32,47],[21,-50],[56,25],[58,-47],[48,77],[46,31],[37,-38],[32,-116],[-32,-72],[-79,-53],[61,2],[55,-32],[-19,-31],[50,-45],[-17,-32],[25,-96],[-518,0],[28,66],[127,39],[32,-39],[14,41],[-29,38],[18,52]],[[2586,2865],[-63,2],[-33,-45],[-39,-1],[-19,-150],[-128,-34]],[[2249,3041],[128,34]],[[3507,6320],[0,40],[59,60]],[[3566,6420],[120,63]],[[3686,6483],[16,-20],[60,44],[103,22],[-49,70],[-91,-14]],[[3725,6585],[9,74]],[[3734,6659],[75,100],[-37,39],[-44,-14]],[[3728,6784],[-32,114]],[[3696,6898],[41,11],[41,-47],[46,-6]],[[3824,6856],[28,-2],[32,-99],[70,-26],[-12,-45],[92,9],[60,-49]],[[4094,6644],[-67,-94],[51,-61]],[[4078,6489],[-48,-51],[-25,-60]],[[4005,6378],[-78,-12],[-4,-22]],[[3923,6344],[-156,69],[-48,-45]],[[3719,6368],[-37,-63],[-114,0]],[[3568,6305],[-61,15]],[[5354,5573],[52,27],[-5,32]],[[5401,5632],[83,-38],[146,255]],[[5630,5849],[56,-50],[22,-71],[44,-55],[76,-9]],[[5828,5664],[40,-3],[3,-58],[35,14],[31,-80],[-93,8],[87,-32],[-32,-89],[-58,21],[-59,-33]],[[3111,6441],[-42,5],[-74,50],[-24,50],[-58,-8],[-23,33],[-56,-6],[-26,-58],[-78,14]],[[2730,6521],[15,73],[-43,-4],[-27,75]],[[2675,6665],[128,128],[110,16]],[[3441,6535],[0,-47]],[[3441,6488],[-30,-28],[-253,8],[-47,-27]],[[2605,6263],[-12,84]],[[2593,6347],[51,55],[43,10],[15,99],[28,10]],[[3111,6441],[-27,-49]],[[3084,6392],[-62,-67],[-77,-136]],[[2945,6189],[-9,-3]],[[2975,6947],[-66,56],[-32,72],[-72,23],[-46,-11]],[[2759,7087],[-3,40],[72,73],[29,77],[82,99],[25,93]],[[2964,7469],[96,-64],[8,-38],[69,-3]],[[7121,3399],[-34,60],[-10,96],[56,-41],[8,-138],[33,1],[11,-122],[-19,-22],[-67,52],[12,-66],[-47,-14],[-53,76],[-17,-37],[-40,41],[-39,-6],[32,-66],[-95,64],[3,-204],[-47,-15],[-34,123],[6,161],[40,-9],[-30,60],[-3,103],[23,20],[-18,89],[40,16],[54,-53],[109,-48],[21,-68],[33,23],[72,-76]],[[2675,6665],[-169,0]],[[2506,6665],[-36,13],[38,63],[54,18],[2,49],[37,4],[36,54],[-46,42],[4,54],[104,62]],[[2699,7024],[60,63]],[[2814,2608],[-35,-71]],[[3348,4777],[62,85],[30,80],[-87,121]],[[3482,5130],[72,-51],[104,17],[48,-207],[22,-19]],[[3803,7455],[27,-46],[-26,-141]],[[3804,7268],[2,-38]],[[3806,7230],[3,-115],[36,28],[33,-97]],[[3878,7046],[-89,-18],[-95,-38]],[[5461,6035],[51,70]],[[5512,6105],[13,-6]],[[5525,6099],[40,-76],[30,4],[70,-67],[-6,-42]],[[5659,5918],[-29,-69]],[[5401,5632],[-43,140],[-107,53]],[[3678,3582],[51,17],[12,48]],[[3741,3647],[19,58]],[[3760,3705],[14,11]],[[3787,3716],[33,-67],[48,-10],[-5,-63],[23,-38]],[[3887,3514],[48,-32]],[[3998,3356],[29,-21]],[[3946,3240],[-83,5]],[[3863,3245],[-112,71]],[[3751,3316],[9,73],[-54,29],[-82,-5]],[[4610,5434],[96,17],[2,36],[57,55]],[[4857,5100],[-57,49],[-23,58],[-36,5]],[[3646,3000],[28,18]],[[3674,3018],[25,76]],[[3824,3191],[20,38],[72,-25]],[[3787,5247],[68,-50],[2,-51],[61,-28],[79,44],[14,45]],[[6746,7300],[-87,28],[-22,48],[-109,-1],[-66,40],[15,32],[48,-17],[15,60],[73,42],[-126,51],[-72,-20],[-45,21],[11,51],[80,18],[48,-48],[49,3],[89,-42],[90,69],[8,-115],[104,-23],[32,-39],[86,-33],[38,27],[33,-73],[-94,-32],[-34,-39],[-40,25],[-124,-33]],[[2593,6347],[-73,16],[-57,-25],[-29,19]],[[2434,6357],[-76,9],[-39,-19]],[[2319,6347],[16,87],[27,15],[22,73],[32,17],[21,99],[69,27]],[[2772,5424],[-12,-29]],[[2760,5395],[-42,-11],[-46,-94]],[[2672,5290],[-42,22],[-102,-14]],[[2528,5298],[-36,-3]],[[2492,5295],[-84,-16],[-30,21]],[[2378,5300],[-34,56],[-90,13]],[[2254,5369],[-43,46],[13,61]],[[2224,5476],[36,25]],[[2260,5501],[1,0]],[[2261,5501],[72,8],[49,-42],[45,25],[27,61]],[[2454,5553],[36,31],[28,-33],[154,-68]],[[7073,80],[-5,65],[-62,26],[49,16],[-3,43],[-45,14],[38,36],[-54,-5],[19,49],[-20,42],[40,0],[-29,71],[31,59],[-17,77],[25,-2],[37,-72],[58,11],[11,-36],[26,94],[55,-101],[0,-366],[-39,-21],[-54,50],[-38,3],[-23,-53]],[[3142,6352],[-58,40]],[[3441,6488],[100,26]],[[3541,6514],[25,-94]],[[3507,6320],[-75,-85]],[[5706,4699],[-57,4]],[[5649,4703],[-97,9],[-21,30]],[[5531,4742],[-31,50]],[[5500,4792],[3,63]],[[5503,4855],[93,38],[109,-34],[81,19],[-65,72],[-5,81],[86,48]],[[5802,5079],[3,7]],[[5805,5086],[40,-41]],[[5845,5045],[5,-6]],[[5850,5039],[0,-155],[32,-30]],[[5882,4854],[-48,-33],[-8,-48],[41,-71]],[[5867,4702],[-88,-14],[-73,11]],[[5531,4742],[3,-24]],[[5534,4718],[-3,24]],[[4401,5982],[-25,87],[-57,0],[-46,42]],[[4273,6111],[-23,51],[30,126],[132,72],[49,3],[8,39]],[[3097,2983],[-6,-30]],[[5092,5010],[12,-124]],[[5104,4886],[-101,-37],[-47,-46],[71,-124],[48,-29]],[[5075,4650],[-14,-62],[-71,-27],[-63,0],[-34,72],[-40,36],[-23,112],[2,65],[37,39]],[[4869,4885],[47,83],[8,58]],[[2007,6244],[25,55],[80,104],[56,121],[-8,51],[-114,-32],[51,100],[27,-6],[31,60],[58,25],[47,69],[32,8]],[[2292,6799],[59,-42]],[[2351,6757],[6,-38],[-32,-73],[-52,-27],[19,-72],[-27,-18],[-48,-134],[-51,-56],[-12,-90]],[[3923,6063],[55,12],[30,85]],[[4008,6160],[136,-69]],[[4144,6091],[117,0],[12,20]],[[4102,1004],[14,122],[160,36],[82,-14],[37,-47],[62,14],[53,-70],[-57,-72],[-93,-11],[-54,56],[-135,-39],[-31,25],[24,-75],[-68,-56],[-38,17],[-30,-53],[-59,-5],[-12,29],[38,77],[83,-12],[24,78]],[[5401,4536],[-70,7],[49,48],[-14,27],[-96,4],[-42,-67],[-33,6],[48,49],[-20,93],[17,79]],[[5240,4782],[64,57]],[[5304,4839],[61,8],[22,-35],[96,-29],[-21,-37],[-67,12],[19,-43],[144,-88],[62,14],[8,-69]],[[5628,4572],[-42,-13]],[[5503,4855],[-61,116]],[[5734,5206],[12,56],[82,14],[-28,-104]],[[5800,5172],[2,-93]],[[5800,5172],[5,-3]],[[5805,5169],[-2,-4]],[[5803,5165],[-3,7]],[[3611,796],[-66,90],[19,61],[-41,14],[-37,-122],[-83,9],[-82,124],[30,47],[175,-24],[-42,42],[-81,5],[2,49],[58,26],[107,-61],[14,28],[83,-17],[34,-105],[-31,-50],[-36,7],[-23,-123]],[[4505,2149],[-20,43],[11,133],[18,50],[-36,76],[67,-25],[15,80],[83,-92],[14,-50],[147,34],[34,-57],[-31,-26],[-51,25],[-38,-85],[-97,-37],[-67,4],[-49,-73]],[[2261,5129],[-61,21]],[[2200,5150],[-71,43],[-67,0],[-37,31]],[[2144,5348],[110,21]],[[2378,5300],[-26,-25],[30,-99]],[[2382,5176],[-9,-32]],[[2373,5144],[-66,18],[-45,-33]],[[2262,5129],[-1,0]],[[4469,6402],[-21,33],[-127,-10]],[[4321,6425],[-68,27]],[[4253,6452],[-8,109]],[[4245,6561],[61,-7],[64,33],[10,-55]],[[4380,6532],[8,-1]],[[4388,6531],[38,-30],[-18,64]],[[4408,6565],[74,16],[66,45],[38,-39],[11,35],[44,-40],[51,77],[46,-62],[-70,-52],[-11,-66],[-62,16]],[[4380,6532],[8,-1]],[[4388,6531],[-8,1]],[[5079,5845],[19,22]],[[3193,4799],[31,85],[-36,52]],[[4058,600],[-31,7],[13,97],[37,25],[77,-51],[5,-61],[51,-69],[-10,-47],[-50,6],[9,-34],[-39,-57],[-46,3],[-39,-89],[-36,-6],[12,86],[-51,41],[24,23],[8,93],[83,7],[-17,26]],[[4155,6116],[-31,104],[13,39]],[[4137,6259],[25,12],[7,77]],[[4169,6348],[24,-13],[121,67],[7,23]],[[4144,6091],[11,25]],[[2292,6799],[33,111],[-34,49]],[[2291,6959],[65,94],[82,85],[86,136],[41,-72],[-33,-81],[-92,-44],[8,-64],[-51,-114],[8,-108],[-54,-34]],[[2018,5182],[48,-53],[63,-19],[31,-59]],[[2160,5051],[62,-67]],[[2222,4984],[-24,-60]],[[2198,4924],[-132,-6]],[[2198,4924],[63,-53]],[[2261,4871],[65,-55],[20,-54]],[[6137,4589],[-147,49]],[[5990,4638],[-34,86]],[[5956,4724],[32,143]],[[5988,4867],[40,-47],[116,-40],[41,-50],[83,-46],[-32,-18]],[[6236,4666],[-78,-23],[4,-74]],[[6162,4569],[-25,20]],[[5628,4572],[54,-3]],[[5682,4569],[19,-30],[74,22],[34,-47],[46,13]],[[5855,4527],[-7,-155]],[[4718,4896],[58,-223],[-15,-43],[-55,105],[5,-51],[51,-120],[22,30]],[[4784,4594],[30,-34]],[[2968,5354],[103,-22]],[[2924,5150],[3,115]],[[2927,5265],[10,67]],[[3960,1354],[-35,-55],[37,-58],[-25,-21],[-53,24],[-24,-37],[-44,16],[-17,44],[34,47],[-81,18],[37,88],[35,0],[57,99],[103,-66],[8,-60],[-32,-39]],[[6152,9015],[-2,-82],[-92,-64],[-90,-25],[-49,22],[-32,-27],[-58,27]],[[5836,8877],[8,14]],[[5857,8900],[88,8],[52,69],[31,115],[55,32]],[[2945,6189],[93,16],[49,-24]],[[3087,6181],[21,-170]],[[3077,5983],[-90,-69]],[[3607,6050],[-11,74]],[[3596,6124],[22,27],[-10,82]],[[3608,6233],[94,5],[102,48]],[[3804,6286],[20,-4]],[[3824,6282],[25,-92],[-44,-19],[-6,-58]],[[3799,6113],[-85,-59]],[[5855,4527],[-13,43],[62,25],[31,91]],[[5935,4686],[21,38]],[[5990,4638],[-10,-206],[19,-50],[-24,-42]],[[3675,6922],[21,-24]],[[3728,6784],[-35,-8],[-28,-89]],[[3665,6687],[-58,-127],[-68,-14],[2,-32]],[[2466,4880],[-12,19],[-125,33]],[[2329,4932],[43,92]],[[2372,5024],[38,2]],[[2410,5026],[20,-5]],[[2430,5021],[28,-44],[70,-23]],[[2528,4954],[47,58],[20,-30],[21,82],[-27,19]],[[2589,5083],[27,38]],[[2616,5121],[41,-6],[21,-72]],[[2678,5043],[13,-68]],[[2691,4975],[-98,-70],[-42,5],[-38,-51]],[[2513,4859],[-47,21]],[[5465,6786],[43,106],[50,17],[30,83],[63,-37],[27,-61],[3,-125],[-42,-71]],[[5616,6727],[-13,52],[-80,-29]],[[3906,6078],[-74,52],[-33,-17]],[[3824,6282],[95,14]],[[3919,6296],[100,-36],[-11,-100]],[[1682,3485],[-9,98],[56,14],[-5,56],[50,43],[17,94],[107,119],[28,-12],[-3,-72],[-58,-82],[14,-24],[-28,-77],[-169,-157]],[[5867,4702],[68,-16]],[[5682,4569],[7,68],[-40,66]],[[6162,4569],[11,-86]],[[4743,5641],[-81,6]],[[2764,5078],[-50,-40],[-36,5]],[[2616,5121],[-112,8],[-49,42]],[[2455,5171],[26,16],[11,108]],[[2528,5298],[26,-79],[88,-43],[34,67]],[[2676,5243],[21,-16]],[[2697,5227],[18,-49]],[[2715,5178],[43,-61]],[[2964,7469],[6,3]],[[2297,6190],[-10,83],[32,74]],[[2434,6357],[-7,-65],[30,-100]],[[5333,4981],[-8,-24]],[[5325,4957],[-98,69],[-101,-20],[28,-63],[59,17],[91,-121]],[[5240,4782],[-40,56],[-19,-15]],[[5181,4823],[-77,63]],[[5191,4857],[24,59],[-59,0],[35,-59]],[[6353,205],[-73,-19],[-59,44],[-77,13],[108,-59],[-45,-32],[-43,23],[-35,-31],[-20,-80],[-20,-11],[-30,19],[-1,-68],[-46,14]],[[5850,5039],[11,44],[92,68],[35,-112],[-27,-44],[7,-54],[-35,0],[19,-75]],[[5952,4866],[-70,-12]],[[4093,1187],[-31,23],[-58,-10],[-4,160],[26,15],[4,78],[44,0],[18,-39],[-33,-43],[81,-19],[38,-134],[-85,-31]],[[3096,4441],[-58,31],[-45,132]],[[3148,4473],[-52,-32]],[[2516,4849],[-3,10]],[[2691,4975],[30,-88],[-9,-32],[42,-42]],[[4005,6378],[42,-26]],[[4047,6352],[-8,-97],[98,4]],[[3919,6296],[4,48]],[[3087,6181],[5,10]],[[3665,6687],[69,-28]],[[3725,6585],[-39,-102]],[[5181,4823],[-35,-90],[-38,-11],[-16,69],[-50,-2],[44,-76],[-11,-63]],[[4094,6644],[15,-9]],[[4109,6635],[18,-13],[-22,-82],[59,60],[81,-39]],[[4253,6452],[-11,-3]],[[4242,6449],[-164,40]],[[3096,4441],[2,-7]],[[3463,677],[-146,47],[-50,43],[-55,7],[-3,66],[64,-23],[12,51],[31,-58],[31,11],[23,-53],[5,64],[63,-26],[31,-39],[-6,-90]],[[5952,4866],[22,37],[49,5],[116,-96],[-34,-7],[-94,72],[-23,-10]],[[4851,6375],[1,47],[75,0],[63,-37],[0,39],[70,0],[55,47]],[[4869,4885],[-12,137],[-66,57],[-57,-75]],[[5671,1146],[123,63],[8,54],[-70,25],[15,73],[102,131],[30,-23],[21,56]],[[5826,1311],[-10,3]],[[5816,1314],[5,-28]],[[5900,1525],[46,67],[68,-3]],[[5941,1522],[-22,14]],[[3568,6305],[40,-72]],[[3596,6124],[-78,41]],[[3878,7046],[-54,-190]],[[3904,859],[-70,23],[-12,95],[-33,43],[76,-20],[-29,80],[99,-15],[-8,-88],[16,-39],[-39,-79]],[[3783,518],[-39,63],[42,32],[-14,75],[101,15],[9,73],[40,-20],[-22,-49],[0,-96],[-28,27],[1,-71],[-57,1],[-33,-50]],[[2261,4871],[68,61]],[[310,0],[48,68],[11,77],[44,19],[23,-41],[139,-123],[-265,0]],[[4242,6449],[-5,-27],[-80,-66]],[[4157,6356],[-110,-4]],[[5659,5918],[35,-61],[62,-18],[3,-49],[67,-80],[70,-32],[-68,-14]],[[1911,4067],[38,-27],[17,-74],[-142,-82],[5,193]],[[2430,5021],[34,48],[-44,110]],[[2420,5179],[35,-8]],[[2589,5083],[-62,-68],[1,-61]],[[5805,5086],[-2,79]],[[5805,5169],[90,110],[-17,98],[29,18],[8,-87],[30,-64],[-8,-44],[-100,-122],[8,-33]],[[2454,5553],[-115,34]],[[3806,7230],[86,-159],[-24,-199],[106,-135],[108,-55],[27,-47]],[[3804,7268],[2,-38]],[[3857,6890],[-2,50]],[[3855,6940],[2,-50]],[[4615,1153],[-133,38],[38,84],[39,17],[112,-28],[-56,-111]],[[2222,4984],[28,34]],[[2250,5018],[57,28],[65,-22]],[[3719,6368],[85,-82]],[[6011,7680],[-63,37],[10,45],[49,-24],[24,54],[95,-7],[-22,-40],[95,4],[10,-26],[-79,-38],[-119,-5]],[[2373,5144],[37,-118]],[[2250,5018],[-17,49],[29,62]],[[2927,5265],[-26,-58],[-102,25]],[[2799,5232],[27,59],[-2,90]],[[2715,5178],[84,54]],[[2261,5501],[-1,0]],[[2260,5501],[-15,69]],[[5511,6425],[14,-16],[-56,-149]],[[2697,5227],[59,43],[4,125]],[[6765,3723],[-18,18],[-8,142],[64,48],[74,-109],[-76,-18],[-36,-81]],[[2420,5179],[-38,-3]],[[4722,4494],[-57,-47],[-32,29],[26,-84],[-104,90],[-36,9]],[[2672,5290],[4,-47]],[[4847,1741],[-36,82],[8,53],[39,43],[64,-43],[-25,-124],[-50,-11]],[[5500,4792],[-115,124],[-60,41]],[[6929,446],[-47,52],[34,12],[16,56],[71,-113],[-18,-62],[-102,28],[-16,58],[62,-31]],[[2200,5150],[-40,-99]],[[2989,5453],[87,7]],[[2156,5491],[68,-15]],[[4157,6356],[12,-8]],[[5477,6227],[9,-83],[26,-39]]],"transform":{"scale":[0.3712493819594653,0.3606859871920113],"translate":[95,0]},"objects":{"regions":{"type":"GeometryCollection","geometries":[{"arcs":[[0,1,2,3,4,5,6,7,8,9,10,11]],"type":"Polygon","properties":{"id":0,"color":"#fdeba5","areaPx":296726}},{"arcs":[[12,13,14,15,16,17]],"type":"Polygon","properties":{"id":1,"color":"#e82976","areaPx":207908}},{"arcs":[[18,19,20,21,22,23,24,25,26,27,28,29,30,31,32,33,34,35,36,37,38]],"type":"Polygon","properties":{"id":2,"color":"#455385","areaPx":172887}},{"arcs":[[-38,39,40,41,42,43,44,45,46,47,48,49,50],[51],[52]],"type":"Polygon","properties":{"id":3,"color":"#3f203a","areaPx":171243}},{"arcs":[[-47,53,54,55,56,57,58,59,60]],"type":"Polygon","properties":{"id":4,"color":"#f2b2c6","areaPx":149552}},{"arcs":[[-44,61,62,63,64,65,66,67],[68],[69]],"type":"Polygon","properties":{"id":5,"color":"#800c1c","areaPx":94532}},{"arcs":[[70,71,72,73,74,75,76,77,78,79,80,81,82]],"type":"Polygon","properties":{"id":6,"color":"#fdeba5","areaPx":91055}},{"arcs":[[-13,83,84,85,86,87,88,89]],"type":"Polygon","properties":{"id":7,"color":"#2a7841","areaPx":82860}},{"arcs":[[90,91]],"type":"Polygon","properties":{"id":8,"color":"#e82976","areaPx":81794}},{"arcs":[[92,93,94,95]],"type":"Polygon","properties":{"id":9,"color":"#fec11b","areaPx":74636}},{"arcs":[[-75,96,97,98,99,100,101,102,103,104,105,106,107,108,109,110,111]],"type":"Polygon","properties":{"id":10,"color":"#800c1c","areaPx":70771}},{"arcs":[[-36,112,113,114,115,116,117,118,119,120,121,-42,122,123]],"type":"Polygon","properties":{"id":11,"color":"#2a7841","areaPx":69596}},{"arcs":[[-18,124,-63,125,126,127,128,129,-84]],"type":"Polygon","properties":{"id":12,"color":"#8e4039","areaPx":68669}},{"arcs":[[-87,130,131,132,133,134,135,136,137,138,139,140,141,142,143,144,145,146,147,148,149]],"type":"Polygon","properties":{"id":13,"color":"#455385","areaPx":67846}},{"arcs":[[-46,150,-54]],"type":"Polygon","properties":{"id":14,"color":"#9bfeb5","areaPx":67011}},{"arcs":[[151,152,153,154,155,156,157,158,159]],"type":"Polygon","properties":{"id":15,"color":"#3f203a","areaPx":66436}},{"arcs":[[-30,160,-138,161,162,163,-113,-35,164],[165],[166]],"type":"Polygon","properties":{"id":16,"color":"#800c1c","areaPx":62269}},{"arcs":[[-85,-130,167,168,169,170,171,-136,172,-134,173,-132,174]],"type":"Polygon","properties":{"id":17,"color":"#fec11b","areaPx":59487}},{"arcs":[[[175,176,177,178,179,180,181,182,183,-22,184,185]],[[186]],[[187]]],"type":"MultiPolygon","properties":{"id":18,"color":"#e9f607","areaPx":55231}},{"arcs":[[-156,188,189,190,191,192,193,194]],"type":"Polygon","properties":{"id":19,"color":"#d46954","areaPx":49508}},{"arcs":[[195]],"type":"Polygon","properties":{"id":20,"color":"#800c1c","areaPx":45508}},{"arcs":[[-21,196,197,198,199,-48,-61,200,-185]],"type":"Polygon","properties":{"id":21,"color":"#2a7841","areaPx":43629}},{"arcs":[[201,202,203,204,205,206,207,208]],"type":"Polygon","properties":{"id":22,"color":"#a77fa5","areaPx":43404}},{"arcs":[[-104,209,210,211,212,213,214,215,216,217,-143,218,219,220,221,222]],"type":"Polygon","properties":{"id":23,"color":"#a77fa5","areaPx":42944}},{"arcs":[[-157,-195,223,-193,224,225,-205,226,227,-159,228]],"type":"Polygon","properties":{"id":24,"color":"#455385","areaPx":42648}},{"arcs":[[229,230,231,232,233,234,235,236,237,238,239,240,241,242]],"type":"Polygon","properties":{"id":25,"color":"#455385","areaPx":41626}},{"arcs":[[-60,243,-176,-186,-201]],"type":"Polygon","properties":{"id":26,"color":"#455385","areaPx":41230}},{"arcs":[[-155,244,245,246,247,248,249,250,-191,251,-189]],"type":"Polygon","properties":{"id":27,"color":"#2a7841","areaPx":40227}},{"arcs":[[-14,-90,252,253,254,255,256]],"type":"Polygon","properties":{"id":28,"color":"#3f203a","areaPx":37293}},{"arcs":[[257,258,259,-71,-83,260,261,262,-183,263,264]],"type":"Polygon","properties":{"id":29,"color":"#f9f4ce","areaPx":35629}},{"arcs":[[265,-262,266,267,268,269,270,-24,271]],"type":"Polygon","properties":{"id":30,"color":"#f2b2c6","areaPx":34238}},{"arcs":[[-95,272]],"type":"Polygon","properties":{"id":31,"color":"#e82976","areaPx":33025}},{"arcs":[[273]],"type":"Polygon","properties":{"id":32,"color":"#800c1c","areaPx":32735}},{"arcs":[[-142,274,275,-219]],"type":"Polygon","properties":{"id":33,"color":"#2a7841","areaPx":30642}},{"arcs":[[276,277,278,279,280,-232,281,282,283,284]],"type":"Polygon","properties":{"id":34,"color":"#a77fa5","areaPx":30587}},{"arcs":[[-222,285,286,287,288,289,290]],"type":"Polygon","properties":{"id":35,"color":"#e9f607","areaPx":28649}},{"arcs":[[-49,-200,291,292]],"type":"Polygon","properties":{"id":36,"color":"#8e4039","areaPx":26525}},{"arcs":[[-283,293,294,295,296,297,298,299,300]],"type":"Polygon","properties":{"id":37,"color":"#800c1c","areaPx":25714}},{"arcs":[[-25,-271,301,302,303,304,-288,305,306,307,308]],"type":"Polygon","properties":{"id":38,"color":"#2a7841","areaPx":24695}},{"arcs":[[-214,309,310,311,312,313]],"type":"Polygon","properties":{"id":39,"color":"#455385","areaPx":24631}},{"arcs":[[-213,314,315,316,317,318,319,320,-312,321,-310]],"type":"Polygon","properties":{"id":40,"color":"#e91c24","areaPx":24321}},{"arcs":[[322,323,324]],"type":"Polygon","properties":{"id":41,"color":"#8e4039","areaPx":24281}},{"arcs":[[-215,-314,325,326,-277,-285,327,328]],"type":"Polygon","properties":{"id":42,"color":"#8e4039","areaPx":23793}},{"arcs":[[-56,329,330]],"type":"Polygon","properties":{"id":43,"color":"#800c1c","areaPx":22998}},{"arcs":[[-297,331,332,333,334]],"type":"Polygon","properties":{"id":44,"color":"#455385","areaPx":22744}},{"arcs":[[-29,335,336,-139,-161]],"type":"Polygon","properties":{"id":45,"color":"#a77fa5","areaPx":22500}},{"arcs":[[-298,-335,337,338,339,340,341,342]],"type":"Polygon","properties":{"id":46,"color":"#e91c24","areaPx":21426}},{"arcs":[[-246,343,344,345,346,347,-250,348,-248,349]],"type":"Polygon","properties":{"id":47,"color":"#6de8f9","areaPx":21238}},{"arcs":[[-256,350,351,352,353,-323,-325,354]],"type":"Polygon","properties":{"id":48,"color":"#2a7841","areaPx":20608}},{"arcs":[[-211,355,356,357,358,359,360,361,-316]],"type":"Polygon","properties":{"id":49,"color":"#3f203a","areaPx":19800}},{"arcs":[[362]],"type":"Polygon","properties":{"id":50,"color":"#fec11b","areaPx":19721}},{"arcs":[[363]],"type":"Polygon","properties":{"id":51,"color":"#800c1c","areaPx":19657}},{"arcs":[[-20,364,-292,-199,365,-197]],"type":"Polygon","properties":{"id":52,"color":"#fec11b","areaPx":18871}},{"arcs":[[366,367,368,369,370,371,372,373,374,375,376,377,378,379]],"type":"Polygon","properties":{"id":53,"color":"#455385","areaPx":18767}},{"arcs":[[-296,380,381,382,383,-332]],"type":"Polygon","properties":{"id":54,"color":"#fec11b","areaPx":18638}},{"arcs":[[384,385,386,-202,-209,387,388]],"type":"Polygon","properties":{"id":55,"color":"#8e4039","areaPx":17651}},{"arcs":[[-100,389,390,-385,391,392,393]],"type":"Polygon","properties":{"id":56,"color":"#455385","areaPx":17059}},{"arcs":[[-204,394,395,396,-227]],"type":"Polygon","properties":{"id":57,"color":"#3f203a","areaPx":16119}},{"arcs":[[397]],"type":"Polygon","properties":{"id":58,"color":"#e82976","areaPx":15585}},{"arcs":[[-203,-387,398,399,400,-395]],"type":"Polygon","properties":{"id":59,"color":"#d46954","areaPx":15070}},{"arcs":[[-19,401,-50,-293,-365]],"type":"Polygon","properties":{"id":60,"color":"#e82976","areaPx":15028}},{"arcs":[[-28,402,-307,403,-275,-141,-336]],"type":"Polygon","properties":{"id":61,"color":"#9bfeb5","areaPx":14859}},{"arcs":[[-206,-226,404,405,406,407]],"type":"Polygon","properties":{"id":62,"color":"#2a7841","areaPx":13797}},{"arcs":[[-242,408,409,410,411,-382,412]],"type":"Polygon","properties":{"id":63,"color":"#2a7841","areaPx":13753}},{"arcs":[[-115,413,414,415,-163,416,-171,417,-169,418,-128,419,420,421]],"type":"Polygon","properties":{"id":64,"color":"#9bfeb5","areaPx":13713}},{"arcs":[[-217,422,-299,-343,423]],"type":"Polygon","properties":{"id":65,"color":"#455385","areaPx":13605}},{"arcs":[[-43,-122,424,425,-118,426,-126,-62]],"type":"Polygon","properties":{"id":66,"color":"#e9f607","areaPx":13507}},{"arcs":[[-276,-404,-306,-287,427,-220]],"type":"Polygon","properties":{"id":67,"color":"#800c1c","areaPx":13226}},{"arcs":[[428]],"type":"Polygon","properties":{"id":68,"color":"#800c1c","areaPx":13039}},{"arcs":[[-386,-391,429,430,431,-399]],"type":"Polygon","properties":{"id":69,"color":"#e91c24","areaPx":12804}},{"arcs":[[-110,432,433,434,435,436,437,438,439,440,441,442]],"type":"Polygon","properties":{"id":70,"color":"#455385","areaPx":12755}},{"arcs":[[443]],"type":"Polygon","properties":{"id":71,"color":"#455385","areaPx":11309}},{"arcs":[[-360,444,-392,-389,445,446,-367,447]],"type":"Polygon","properties":{"id":72,"color":"#2a7841","areaPx":10926}},{"arcs":[[448,449,450,451,452,453,454,455,456,457,458]],"type":"Polygon","properties":{"id":73,"color":"#455385","areaPx":10515}},{"arcs":[[461,462,-278,-327]],"type":"Polygon","properties":{"id":74,"color":"#2a7841","areaPx":10271}},{"arcs":[[-37,-124,463,-40]],"type":"Polygon","properties":{"id":75,"color":"#8e4039","areaPx":10235}},{"arcs":[[-341,464,465,466,467]],"type":"Polygon","properties":{"id":76,"color":"#455385","areaPx":10098}},{"arcs":[[-73,468,469,470]],"type":"Polygon","properties":{"id":77,"color":"#e9f607","areaPx":9867}},{"arcs":[[-313,-321,471,472,473,-462,-326]],"type":"Polygon","properties":{"id":78,"color":"#d46954","areaPx":9648}},{"arcs":[[474]],"type":"Polygon","properties":{"id":79,"color":"#800c1c","areaPx":9216}},{"arcs":[[-254,475,476,477,478]],"type":"Polygon","properties":{"id":80,"color":"#d46954","areaPx":8857}},{"arcs":[[-23,-184,-263,-266,-272]],"type":"Polygon","properties":{"id":81,"color":"#2a7841","areaPx":8659}},{"arcs":[[[-453,479,-338,-334,480,481]],[[482,483,484]]],"type":"MultiPolygon","properties":{"id":82,"color":"#a77fa5","areaPx":8376}},{"arcs":[[485]],"type":"Polygon","properties":{"id":83,"color":"#800c1c","areaPx":8298}},{"arcs":[[486]],"type":"Polygon","properties":{"id":84,"color":"#8e4039","areaPx":7480}},{"arcs":[[487,488,-79,489,-438,490,491,492,493]],"type":"Polygon","properties":{"id":85,"color":"#e9f607","areaPx":7327}},{"arcs":[[-279,494,495,496,497,498,499,500]],"type":"Polygon","properties":{"id":86,"color":"#f2b2c6","areaPx":7044}},{"arcs":[[-243,-413,-381,-295,503,-230]],"type":"Polygon","properties":{"id":87,"color":"#e91c24","areaPx":6882}},{"arcs":[[-27,504,-308,-403]],"type":"Polygon","properties":{"id":88,"color":"#a77fa5","areaPx":6658}},{"arcs":[[505]],"type":"Polygon","properties":{"id":89,"color":"#800c1c","areaPx":6625}},{"arcs":[[506,507,508,-495,-463,-474,509]],"type":"Polygon","properties":{"id":90,"color":"#a77fa5","areaPx":6439}},{"arcs":[[-470,510,511]],"type":"Polygon","properties":{"id":91,"color":"#455385","areaPx":6429}},{"arcs":[[-81,512,513,514,515]],"type":"Polygon","properties":{"id":92,"color":"#9bfeb5","areaPx":6102}},{"arcs":[[-82,-516,516,517,-267,-261]],"type":"Polygon","properties":{"id":93,"color":"#455385","areaPx":6070}},{"arcs":[[518,519,520,521,522,523]],"type":"Polygon","properties":{"id":94,"color":"#e9f607","areaPx":5872}},{"arcs":[[-255,-479,524,525,526,-351]],"type":"Polygon","properties":{"id":95,"color":"#455385","areaPx":5785}},{"arcs":[[-146,527,528]],"type":"Polygon","properties":{"id":96,"color":"#e9f607","areaPx":5603}},{"arcs":[[-107,529,-289,-305,530,531]],"type":"Polygon","properties":{"id":97,"color":"#d46954","areaPx":5601}},{"arcs":[[532]],"type":"Polygon","properties":{"id":98,"color":"#800c1c","areaPx":5577}},{"arcs":[[-93,533,-347,534,-345,535]],"type":"Polygon","properties":{"id":99,"color":"#a77fa5","areaPx":5527}},{"arcs":[[-101,-394,536,537,-357,538,-102]],"type":"Polygon","properties":{"id":100,"color":"#a77fa5","areaPx":5363}},{"arcs":[[-318,539,540,541,542,543,544]],"type":"Polygon","properties":{"id":101,"color":"#455385","areaPx":5280}},{"arcs":[[-352,-527,545,546,-520,547]],"type":"Polygon","properties":{"id":102,"color":"#e91c24","areaPx":5228}},{"arcs":[[-208,548,-372,549,550,-446,-388]],"type":"Polygon","properties":{"id":103,"color":"#e9f607","areaPx":5197}},{"arcs":[[551,552,553,554,555,556,557,558,559,560,561]],"type":"Polygon","properties":{"id":104,"color":"#fec11b","areaPx":5009}},{"arcs":[[-235,562,-237,563]],"type":"Polygon","properties":{"id":105,"color":"#e91c24","areaPx":4967}},{"arcs":[[-320,564,-544,565,566,-472]],"type":"Polygon","properties":{"id":106,"color":"#800c1c","areaPx":4860}},{"arcs":[[567]],"type":"Polygon","properties":{"id":107,"color":"#455385","areaPx":4703}},{"arcs":[[-103,-539,-356,-210]],"type":"Polygon","properties":{"id":108,"color":"#8e4039","areaPx":4690}},{"arcs":[[-459,568,-546,-526,569,-449]],"type":"Polygon","properties":{"id":109,"color":"#a77fa5","areaPx":4649}},{"arcs":[[-353,-548,-519,-524,570]],"type":"Polygon","properties":{"id":110,"color":"#d46954","areaPx":4640}},{"arcs":[[-284,-301,571,-328]],"type":"Polygon","properties":{"id":111,"color":"#6de8f9","areaPx":4297}},{"arcs":[[-303,572,-559,573,574,-436,575,576,577,578]],"type":"Polygon","properties":{"id":112,"color":"#e91c24","areaPx":4271}},{"arcs":[[-152,-160,-228,-397,579]],"type":"Polygon","properties":{"id":113,"color":"#8e4039","areaPx":4089}},{"arcs":[[-98,580,-431,581]],"type":"Polygon","properties":{"id":114,"color":"#455385","areaPx":4014}},{"arcs":[[-340,582,583,-477,584,585,-465],[586]],"type":"Polygon","properties":{"id":115,"color":"#fec11b","areaPx":4009}},{"arcs":[[-216,-329,-572,-300,-423]],"type":"Polygon","properties":{"id":116,"color":"#3f203a","areaPx":3984}},{"arcs":[[-9,587]],"type":"Polygon","properties":{"id":117,"color":"#6de8f9","areaPx":3929}},{"arcs":[[-457,588,589]],"type":"Polygon","properties":{"id":118,"color":"#2a7841","areaPx":3883}},{"arcs":[[-311,-322]],"type":"Polygon","properties":{"id":119,"color":"#d46954","areaPx":3804}},{"arcs":[[590]],"type":"Polygon","properties":{"id":120,"color":"#800c1c","areaPx":3786}},{"arcs":[[591,-32,592]],"type":"Polygon","properties":{"id":121,"color":"#e91c24","areaPx":3708}},{"arcs":[[-269,593,-561,594]],"type":"Polygon","properties":{"id":122,"color":"#2a7841","areaPx":3700}},{"arcs":[[-377,595,596,-507,-510,-473,-567,597]],"type":"Polygon","properties":{"id":123,"color":"#9bfeb5","areaPx":3650}},{"arcs":[[-358,-538,598]],"type":"Polygon","properties":{"id":124,"color":"#455385","areaPx":3643}},{"arcs":[[-368,-447,-551,599,-370,600]],"type":"Polygon","properties":{"id":125,"color":"#800c1c","areaPx":3611}},{"arcs":[[-466,-586,601]],"type":"Polygon","properties":{"id":126,"color":"#e91c24","areaPx":3525}},{"arcs":[[-375,602,603,-497,604,605]],"type":"Polygon","properties":{"id":127,"color":"#e91c24","areaPx":3487}},{"arcs":[[-33,-592,606]],"type":"Polygon","properties":{"id":128,"color":"#a77fa5","areaPx":3397}},{"arcs":[[607]],"type":"Polygon","properties":{"id":129,"color":"#800c1c","areaPx":3319}},{"arcs":[[-26,-309,-505]],"type":"Polygon","properties":{"id":130,"color":"#fec11b","areaPx":3311}},{"arcs":[[-270,-595,-560,-573,-302]],"type":"Polygon","properties":{"id":131,"color":"#e9f607","areaPx":3296}},{"arcs":[[-458,-590,608,-521,-547,-569]],"type":"Polygon","properties":{"id":132,"color":"#8e4039","areaPx":3269}},{"arcs":[[-233,-281,609]],"type":"Polygon","properties":{"id":133,"color":"#fec11b","areaPx":3177}},{"arcs":[[-144,-218,-424,-342,-468,610]],"type":"Polygon","properties":{"id":134,"color":"#fec11b","areaPx":3158}},{"arcs":[[[-1,-12,611,-3,612,613]],[[-4,614,-6,615]]],"type":"MultiPolygon","properties":{"id":135,"color":"#6de8f9","areaPx":3150}},{"arcs":[[-361,-448,-380,616,-541,617]],"type":"Polygon","properties":{"id":136,"color":"#f9f4ce","areaPx":3061}},{"arcs":[[-359,-599,-537,-393,-445]],"type":"Polygon","properties":{"id":137,"color":"#e9f607","areaPx":3054}},{"arcs":[[-207,-408,618,-373,-549]],"type":"Polygon","properties":{"id":138,"color":"#3f203a","areaPx":3000}},{"arcs":[[619]],"type":"Polygon","properties":{"id":139,"color":"#800c1c","areaPx":2970}},{"arcs":[[620]],"type":"Polygon","properties":{"id":140,"color":"#800c1c","areaPx":2915}},{"arcs":[[-268,-518,621,-552,-562,-594]],"type":"Polygon","properties":{"id":141,"color":"#e91c24","areaPx":2894}},{"arcs":[[622]],"type":"Polygon","properties":{"id":142,"color":"#800c1c","areaPx":2838}},{"arcs":[[-376,-606,623,624,-596]],"type":"Polygon","properties":{"id":143,"color":"#8e4039","areaPx":2756}},{"arcs":[[-383,-412,625]],"type":"Polygon","properties":{"id":144,"color":"#e9f607","areaPx":2692}},{"arcs":[[-31,-165,-34,-607,-593]],"type":"Polygon","properties":{"id":145,"color":"#8e4039","areaPx":2675}},{"arcs":[[-99,-582,-430,-390]],"type":"Polygon","properties":{"id":146,"color":"#e9f607","areaPx":2670}},{"arcs":[[-258,-265,626]],"type":"Polygon","properties":{"id":147,"color":"#6de8f9","areaPx":2657}},{"arcs":[[-556,627,628,-574,-558,629]],"type":"Polygon","properties":{"id":148,"color":"#455385","areaPx":2632}},{"arcs":[[-455,630,-484,631]],"type":"Polygon","properties":{"id":149,"color":"#8e4039","areaPx":2632}},{"arcs":[[-221,-428,-286]],"type":"Polygon","properties":{"id":150,"color":"#2a7841","areaPx":2525}},{"arcs":[[-111,-443,632]],"type":"Polygon","properties":{"id":151,"color":"#d46954","areaPx":2523}},{"arcs":[[-374,-619,-407,633,-603]],"type":"Polygon","properties":{"id":152,"color":"#6de8f9","areaPx":2511}},{"arcs":[[637]],"type":"Polygon","properties":{"id":153,"color":"#e82976","areaPx":2343}},{"arcs":[[-515,638,639,-553,-622,-517]],"type":"Polygon","properties":{"id":154,"color":"#e9f607","areaPx":2273}},{"arcs":[[-379,640,-542,-617]],"type":"Polygon","properties":{"id":155,"color":"#8e4039","areaPx":2272}},{"arcs":[[641]],"type":"Polygon","properties":{"id":156,"color":"#d46954","areaPx":2259}},{"arcs":[[-493,642,-554,-640,643]],"type":"Polygon","properties":{"id":157,"color":"#2a7841","areaPx":2252}},{"arcs":[[-108,-532,644,645]],"type":"Polygon","properties":{"id":158,"color":"#2a7841","areaPx":2234}},{"arcs":[[-304,-579,646,-645,-531]],"type":"Polygon","properties":{"id":159,"color":"#455385","areaPx":2158}},{"arcs":[[-76,-112,-633,-442,647,648]],"type":"Polygon","properties":{"id":160,"color":"#2a7841","areaPx":2156}},{"arcs":[[-239,649]],"type":"Polygon","properties":{"id":161,"color":"#e91c24","areaPx":2109}},{"arcs":[[-378,-598,-566,-543,-641]],"type":"Polygon","properties":{"id":162,"color":"#a77fa5","areaPx":1990}},{"arcs":[[-109,-646,-647,-578,650,-433]],"type":"Polygon","properties":{"id":163,"color":"#9bfeb5","areaPx":1967}},{"arcs":[[-198,-366]],"type":"Polygon","properties":{"id":164,"color":"#800c1c","areaPx":1939}},{"arcs":[[-369,-601]],"type":"Polygon","properties":{"id":165,"color":"#2a7841","areaPx":1937}},{"arcs":[[651]],"type":"Polygon","properties":{"id":166,"color":"#8e4039","areaPx":1877}},{"arcs":[[-437,-575,-629,652,-491]],"type":"Polygon","properties":{"id":167,"color":"#d46954","areaPx":1867}},{"arcs":[[-149,653]],"type":"Polygon","properties":{"id":168,"color":"#8e4039","areaPx":1858}},{"arcs":[[-435,654,-576]],"type":"Polygon","properties":{"id":169,"color":"#fec11b","areaPx":1835}},{"arcs":[[655]],"type":"Polygon","properties":{"id":170,"color":"#e82976","areaPx":1832}},{"arcs":[[-339,-480,-452,656,-583]],"type":"Polygon","properties":{"id":171,"color":"#3f203a","areaPx":1812}},{"arcs":[[657]],"type":"Polygon","properties":{"id":172,"color":"#455385","areaPx":1741}},{"arcs":[[-80,-489,658,-513]],"type":"Polygon","properties":{"id":173,"color":"#d46954","areaPx":1723}},{"arcs":[[-106,659,-290,-530]],"type":"Polygon","properties":{"id":174,"color":"#8e4039","areaPx":1602}},{"arcs":[[-371,-600,-550]],"type":"Polygon","properties":{"id":175,"color":"#2a7841","areaPx":1573}},{"arcs":[[-78,660,-439,-490]],"type":"Polygon","properties":{"id":176,"color":"#f2b2c6","areaPx":1559}},{"arcs":[[-231,-504,-294,-282]],"type":"Polygon","properties":{"id":177,"color":"#e9f607","areaPx":1492}},{"arcs":[[-508,-597,-625,661]],"type":"Polygon","properties":{"id":178,"color":"#fec11b","areaPx":1445}},{"arcs":[[-105,-223,-291,-660]],"type":"Polygon","properties":{"id":179,"color":"#2a7841","areaPx":1340}},{"arcs":[[-434,-651,-577,-655]],"type":"Polygon","properties":{"id":180,"color":"#f2b2c6","areaPx":1310}},{"arcs":[[-488,-494,-644,-639,-514,-659]],"type":"Polygon","properties":{"id":181,"color":"#8e4039","areaPx":1308}},{"arcs":[[-77,-649,-440,-661]],"type":"Polygon","properties":{"id":182,"color":"#3f203a","areaPx":1253}},{"arcs":[[-496,-509,-662,-624,-605]],"type":"Polygon","properties":{"id":183,"color":"#3f203a","areaPx":1253}},{"arcs":[[-317,-362,-618,-540]],"type":"Polygon","properties":{"id":184,"color":"#a77fa5","areaPx":1252}},{"arcs":[[-241,662,-409]],"type":"Polygon","properties":{"id":185,"color":"#3f203a","areaPx":1243}},{"arcs":[[-319,-545,-565]],"type":"Polygon","properties":{"id":186,"color":"#3f203a","areaPx":1172}},{"arcs":[[-555,-643,-492,-653,-628]],"type":"Polygon","properties":{"id":187,"color":"#8e4039","areaPx":1145}}]},"macroTerritories":{"type":"GeometryCollection","geometries":[{"type":"MultiPolygon","arcs":[[[257,258,259,71,72,73,74,75,76,77,78,79,80,81,260,261,262,-183,263,264]]],"properties":{"id":"ncr","memberIds":[6,29],"polygonCount":1,"ringCounts":[1]}},{"type":"MultiPolygon","arcs":[[[-75,96,97,98,99,100,101,102,103,104,105,106,107,108,109,110,111]]],"properties":{"id":"legion","memberIds":[10],"polygonCount":1,"ringCounts":[1]}},{"type":"MultiPolygon","arcs":[[[214,215,422,-299,-343,423,217,-143,218,219,220,221,222,-104,209,210,211,212,309,310,311,312,313]],[[-341,464,465,466,467]]],"properties":{"id":"brotherhood","memberIds":[23,39,65,76],"polygonCount":2,"ringCounts":[1,1]}},{"type":"MultiPolygon","arcs":[[[-213,314,315,-362,-361,-360,-359,-358,-357,538,-102,-101,-394,-393,-392,-389,-388,-208,548,372,373,602,603,-497,-496,-495,-463,-462,-326,-313,-312,321,-310],[370,549,599]]],"properties":{"id":"texas","memberIds":[106,53,40,72,78,90,100,101,103,123,124,125,127,136,137,143,155,162,165,178,183,184,186],"polygonCount":1,"ringCounts":[2]}}]}}}