{"_doc":"DERIVED. One feature per power holding two or more atlas regions, geometry dissolved from those regions, with holder names reconciled through holder-aliases.json first - two sources name the same power two ways and this dedups on the name, so without that it draws one polity twice. dissolved from those regions. The macro tier the holder join makes possible. The four canonical macroTerritories are excluded because they exist as territories in their own right. Era travels per power and this is never current state. Rebuild with tools/build-holder-groupings.py.","type":"FeatureCollection","features":[{"type":"Feature","properties":{"power":"White Legs","endonym":"Palitsunee","regions":11,"era":"<=2296","regionIds":[38,70,97,112,130,158,159,163,167,169,180]},"geometry":{"type":"Polygon","coordinates":[[[-113.2606,37.4539],[-113.7782,37.5779],[-114.2758,37.1524],[-115.0708,37.0845],[-115.0817,37.0826],[-115.4995,37.2145],[-115.706,37.6778],[-115.2875,38.1309],[-114.3144,38.406],[-114.0079,38.9223],[-114.3268,39.0768],[-114.1342,39.9381],[-113.709,39.9847],[-113.3328,40.1141],[-112.8522,40.5467],[-111.6158,40.8054],[-111.1666,40.9222],[-111.047,41.5553],[-110.6511,41.6549],[-110.0237,41.3978],[-109.7405,41.5472],[-109.5556,42.2448],[-110.0295,42.9109],[-109.9891,43.468],[-110.3741,43.8617],[-110.2087,44.7013],[-109.9693,45.2821],[-109.4726,45.4886],[-109.0503,44.3829],[-108.7238,43.9997],[-107.4565,43.9773],[-106.9387,44.4098],[-105.6465,44.3483],[-105.1214,43.6408],[-105.4423,43.1519],[-104.6721,42.718],[-103.3568,42.204],[-103.144,42.0173],[-101.7994,41.7115],[-100.4657,41.2993],[-101.4553,41.328],[-102.9204,40.6965],[-104.4081,40.6215],[-104.7049,40.1196],[-105.6205,40.72],[-106.1035,40.2065],[-106.2561,39.6569],[-107.3904,39.3608],[-107.7583,39.5081],[-108.9729,38.96],[-109.5118,38.536],[-110.1409,38.0003],[-110.5689,37.9123],[-112.2109,37.1262],[-112.493,36.8147],[-112.9119,37.0065],[-113.2606,37.4539]]]}},{"type":"Feature","properties":{"power":"Empire of the Khans","endonym":null,"regions":8,"era":"2290","regionIds":[13,16,33,45,61,67,88,150]},"geometry":{"type":"MultiPolygon","coordinates":[[[[-100.4657,41.2993],[-101.7994,41.7115],[-103.144,42.0173],[-103.3568,42.204],[-104.6721,42.718],[-105.4423,43.1519],[-105.1214,43.6408],[-105.6465,44.3483],[-105.5598,44.6702],[-104.8562,44.8443],[-104.488,44.598],[-103.8966,44.701],[-103.9414,45.1761],[-102.4459,45.5783],[-103.6595,46.5812],[-103.9245,47.416],[-104.3198,47.8576],[-103.2791,48.4516],[-103.7925,48.8766],[-104.7721,48.7208],[-105.7754,48.8202],[-107.048,48.6628],[-107.3329,49.6315],[-108.5238,49.802],[-108.7389,50.6221],[-108.4474,51.1683],[-107.863,51.6222],[-108.3564,52.1095],[-107.5177,53.2279],[-106.6745,53.4797],[-105.8709,53.5423],[-104.7976,54.1069],[-103.4745,54.019],[-103.4652,54.022],[-103.4638,54.0146],[-103.4285,53.9999],[-103.3887,54.0375],[-103.3391,54.0004],[-103.2781,54.0209],[-103.2303,54.0015],[-103.1702,54.013],[-103.1227,53.9994],[-103.063,54.007],[-103.0156,53.9962],[-102.9384,54.0032],[-102.9061,53.9988],[-102.7925,54.0114],[-102.6678,54.0506],[-102.6617,54.0535],[-102.6516,54.0522],[-102.6258,54.0448],[-102.6229,54.0431],[-102.578,54.0058],[-102.5396,53.9827],[-102.4947,53.9451],[-102.4543,53.9212],[-102.4212,53.8931],[-102.341,53.8631],[-102.3389,53.8627],[-102.238,53.8249],[-102.236,53.8247],[-102.135,53.7867],[-102.1332,53.7866],[-102.032,53.7485],[-102.0303,53.7486],[-101.929,53.7102],[-101.9272,53.7107],[-101.826,53.6718],[-101.7999,53.6942],[-101.727,53.6515],[-101.7231,53.6517],[-101.7072,53.6814],[-101.6667,53.6685],[-101.6618,53.6559],[-101.6335,53.6578],[-101.4646,53.662],[-101.4639,53.663],[-101.4631,53.6617],[-101.4183,53.6536],[-101.4051,53.6958],[-101.3113,53.7183],[-101.2908,53.7385],[-101.2005,53.7679],[-101.1795,53.7833],[-101.0901,53.815],[-101.0689,53.8286],[-101.016,53.8481],[-100.9998,53.8482],[-100.9829,53.845],[-100.8987,53.845],[-100.8816,53.8419],[-100.7977,53.8418],[-100.7804,53.8388],[-100.6966,53.8386],[-100.6346,53.8283],[-100.5945,53.8269],[-100.5305,53.8148],[-100.5097,53.7992],[-100.4389,53.7283],[-100.3789,53.6476],[-100.3297,53.557],[-100.2912,53.4566],[-100.2742,53.3888],[-100.2726,53.3874],[-100.2421,53.366],[-100.194,53.3235],[-100.1634,53.3023],[-100.1154,53.2597],[-100.0848,53.2385],[-100.0367,53.1958],[-100.0062,53.1748],[-99.9581,53.1319],[-99.9276,53.1111],[-99.8795,53.068],[-99.8489,53.0473],[-99.8048,53.0077],[-99.7497,53.0024],[-99.7202,52.9948],[-99.6191,52.9861],[-99.5077,52.9523],[-99.4205,52.8964],[-99.4008,52.8719],[-99.343,52.8316],[-99.3087,52.7825],[-99.2744,52.7587],[-99.2401,52.7095],[-99.2058,52.6858],[-99.1715,52.6365],[-99.1372,52.613],[-99.1029,52.5635],[-99.0537,52.5299],[-99.0293,52.4954],[-98.9733,52.4568],[-98.9619,52.4412],[-98.9128,52.4248],[-98.8708,52.4273],[-98.7943,52.3966],[-98.7673,52.3992],[-98.6813,52.3473],[-98.6613,52.2859],[-98.6249,52.255],[-98.6004,52.1968],[-98.5675,52.1641],[-98.5407,52.1075],[-98.5096,52.0737],[-98.4814,52.018],[-98.4516,51.9837],[-98.4224,51.9285],[-98.3944,51.895],[-98.3827,51.8588],[-98.3799,51.8353],[-98.3563,51.7622],[-98.3533,51.7386],[-98.3298,51.6655],[-98.3268,51.6419],[-98.306,51.5772],[-98.3003,51.5699],[-98.294,51.5575],[-98.2878,51.5496],[-98.1904,51.5137],[-98.1584,51.5111],[-98.0257,51.4553],[-97.985,51.4716],[-97.9765,51.4457],[-97.6382,51.0321],[-96.9391,51.2606],[-96.1448,50.8623],[-96.1519,50.8405],[-96.1296,50.8419],[-96.1268,50.7412],[-96.1104,50.7243],[-96.0965,50.626],[-96.0867,50.6098],[-96.07,50.5122],[-96.0623,50.4959],[-96.0444,50.3986],[-96.0377,50.3823],[-96.019,50.2851],[-96.013,50.2688],[-95.9966,50.1858],[-96.005,50.1753],[-96.0163,50.156],[-95.9992,50.1038],[-95.9818,49.984],[-95.9158,49.8373],[-95.925,49.8005],[-95.9234,49.8003],[-94.8172,49.3633],[-94.5567,49.4962],[-94.5399,49.5033],[-94.536,49.4943],[-94.4965,49.4908],[-94.4731,49.5315],[-94.4645,49.5351],[-94.416,49.5008],[-94.3613,49.5402],[-94.3134,49.5238],[-94.2575,49.5517],[-94.2112,49.5428],[-94.1547,49.5655],[-94.1309,49.5628],[-94.11,49.5493],[-94.0407,49.5436],[-94.0119,49.5224],[-93.942,49.5192],[-93.9138,49.4948],[-93.8429,49.4957],[-93.8159,49.4659],[-93.743,49.4738],[-93.7183,49.4332],[-93.6455,49.4558],[-93.6398,49.4533],[-93.63,49.4127],[-93.5943,49.4094],[-93.578,49.4257],[-93.5361,49.4069],[-93.5364,49.4042],[-93.5285,49.4035],[-92.1195,49.206],[-90.9258,49.7431],[-90.8695,50.4373],[-90.8534,50.4445],[-90.8633,50.4663],[-90.8578,50.4915],[-90.8036,50.4987],[-90.774,50.5703],[-90.736,50.5924],[-90.6992,50.6566],[-90.6664,50.6818],[-90.627,50.7434],[-90.5964,50.7702],[-90.5556,50.8304],[-90.5052,50.8778],[-90.462,50.8757],[-90.4092,50.8627],[-90.3628,50.8597],[-90.3581,50.8584],[-90.322,50.8321],[-90.2512,50.7518],[-90.2499,50.7493],[-90.181,50.6713],[-90.1798,50.6686],[-90.1107,50.5909],[-90.1097,50.5878],[-90.0403,50.5105],[-90.0398,50.5067],[-89.9696,50.4302],[-89.971,50.4236],[-89.903,50.357],[-89.8997,50.3481],[-89.9,50.3478],[-89.8995,50.3476],[-89.7451,49.8379],[-89.7462,49.8356],[-89.6892,49.748],[-89.6887,49.7339],[-89.6067,49.5891],[-89.6046,49.5823],[-89.5234,49.4374],[-89.5209,49.431],[-89.4401,49.2861],[-89.4373,49.2797],[-89.3567,49.1349],[-89.3538,49.1285],[-89.2733,48.9837],[-89.2703,48.9772],[-89.2696,48.9761],[-89.3436,48.9014],[-89.4074,48.828],[-89.4801,48.7549],[-89.5569,48.6879],[-89.6376,48.627],[-89.7223,48.5721],[-89.811,48.5234],[-89.9037,48.4808],[-90.0003,48.4442],[-90.0097,48.4414],[-90.0229,48.4302],[-90.0774,48.3777],[-90.1553,48.3124],[-90.2371,48.2531],[-90.3115,48.2068],[-90.3954,48.1827],[-90.3967,48.1822],[-90.4927,48.1547],[-90.4948,48.154],[-90.5901,48.1267],[-90.5925,48.1259],[-90.5083,47.4694],[-90.4816,47.4625],[-90.4821,47.4624],[-89.7759,46.9519],[-87.9934,47.2409],[-87.9786,47.238],[-87.8783,47.5526],[-87.7945,47.7204],[-87.6565,48.0813],[-87.6369,48.1251],[-87.6138,48.116],[-87.5181,48.0841],[-87.4392,48.0625],[-87.4214,48.0565],[-87.3427,48.0349],[-87.3248,48.029],[-87.2462,48.0074],[-87.2282,48.0014],[-87.2273,48.0012],[-87.1831,47.999],[-87.1423,47.9993],[-87.0772,47.9961],[-87.0365,47.9965],[-86.9713,47.9932],[-86.9307,47.9936],[-86.8654,47.9903],[-86.825,47.9908],[-86.7595,47.9874],[-86.7192,47.988],[-86.6536,47.9844],[-86.6134,47.9851],[-86.5477,47.9815],[-86.5076,47.9823],[-86.4565,47.9794],[-86.441,47.9761],[-86.3783,47.9678],[-86.3301,47.9573],[-86.2674,47.9492],[-86.2192,47.9385],[-86.1566,47.9306],[-86.1083,47.9197],[-86.0458,47.9121],[-86.0457,47.9121],[-85.9875,47.8692],[-85.9733,47.8613],[-85.8416,47.7635],[-85.7147,47.6242],[-85.6987,47.6137],[-85.6135,47.5082],[-85.6095,47.4961],[-85.5541,47.4273],[-85.55,47.4152],[-85.4948,47.3463],[-85.4904,47.3343],[-85.4354,47.2654],[-85.4309,47.2535],[-85.4209,47.241],[-85.3816,47.2247],[-85.3314,47.223],[-85.2638,47.1879],[-85.2045,47.2003],[-85.1702,47.1545],[-85.1422,47.1638],[-85.1322,47.1569],[-85.1287,47.1612],[-85.0863,47.1529],[-85.0803,47.121],[-85.0592,47.1065],[-85.0141,47.132],[-84.9701,47.0739],[-84.9216,47.0839],[-84.8725,47.039],[-84.8281,47.0407],[-84.7766,47.0016],[-84.7343,46.9991],[-84.6814,46.9632],[-84.6403,46.9583],[-84.5865,46.9244],[-84.5463,46.9178],[-84.4918,46.8853],[-84.4522,46.8775],[-84.3825,46.8376],[-84.3596,46.8299],[-84.2697,46.7684],[-84.1854,46.6777],[-84.1069,46.5578],[-84.0739,46.4904],[-84.1017,46.479],[-84.2256,46.4446],[-84.3412,46.4294],[-84.4486,46.4335],[-84.4983,46.4452],[-84.5739,46.4474],[-84.6008,46.4541],[-84.7023,46.4562],[-84.7147,46.4534],[-84.8033,46.4555],[-84.816,46.4524],[-84.9044,46.4548],[-84.9174,46.4515],[-85.0055,46.4541],[-85.0188,46.4505],[-85.1066,46.4535],[-85.1201,46.4494],[-85.2209,46.4534],[-85.2232,46.4544],[-85.3214,46.4593],[-85.3727,46.482],[-85.4777,46.4892],[-85.5693,46.4689],[-85.5941,46.4683],[-85.7138,46.4394],[-85.7941,46.4054],[-85.8405,46.3929],[-85.9215,46.3598],[-85.9396,46.3546],[-85.9698,46.3299],[-86.0075,46.292],[-86.0483,46.2584],[-86.0864,46.2203],[-86.1268,46.1868],[-86.1652,46.1487],[-86.2021,46.118],[-86.2058,46.1162],[-86.2467,46.0923],[-86.2948,46.0695],[-86.336,46.0455],[-86.3838,46.0228],[-86.4252,45.9987],[-86.4572,45.9835],[-86.5146,46.0755],[-86.5307,46.0963],[-86.7842,46.5072],[-86.7855,46.5067],[-87.1851,46.7259],[-88.4641,46.4553],[-88.7399,45.7491],[-89.5102,45.9145],[-89.0799,44.9946],[-89.4456,44.5251],[-89.0021,43.9755],[-88.2807,44.013],[-87.6565,43.4787],[-87.6558,43.4814],[-87.5443,43.49],[-87.5177,43.5066],[-87.302,43.5456],[-87.2904,43.5496],[-87.0751,43.5897],[-87.064,43.5929],[-86.9568,43.613],[-86.9345,43.5695],[-86.8817,43.484],[-86.8225,43.4032],[-86.7767,43.3502],[-86.7587,43.3259],[-86.6765,43.2312],[-86.6157,43.1489],[-86.5982,43.121],[-86.5908,43.0226],[-86.591,42.9211],[-86.5992,42.8204],[-86.6153,42.7205],[-86.6157,42.7188],[-86.6325,42.6206],[-86.6441,42.5746],[-86.6855,42.5666],[-86.849,42.5486],[-86.8609,42.5461],[-87.0228,42.5287],[-87.0365,42.5252],[-87.1971,42.509],[-87.2136,42.5031],[-87.3706,42.4907],[-87.402,42.4567],[-87.4234,42.4615],[-87.4395,42.4797],[-87.5821,41.8489],[-88.6327,41.4766],[-89.1567,41.0529],[-89.919,40.9725],[-90.4894,41.146],[-91.0817,41.1235],[-92.3339,40.3884],[-93.34,40.2163],[-93.9642,40.7266],[-95.3053,41.1715],[-95.6812,41.1514],[-95.8521,40.9353],[-96.3306,40.7138],[-98.2164,40.8058],[-99.5563,40.8673],[-100.4657,41.2993]]],[[[-88.0551,47.2808],[-88.0531,47.2822],[-88.0498,47.2774],[-88.0551,47.2808]]]]}},{"type":"Feature","properties":{"power":"Attis's Army","endonym":null,"regions":6,"era":"<=2296","regionIds":[53,72,125,136,162,165]},"geometry":{"type":"Polygon","coordinates":[[[-99.2141,31.4955],[-98.2408,32.155],[-98.0243,32.1869],[-97.025,32.0674],[-97.0271,31.6827],[-97.0058,31.5065],[-96.1928,31.3969],[-95.9929,30.9138],[-95.5463,30.4968],[-96.1514,30.0287],[-95.5687,29.2724],[-96.2543,28.9053],[-97.1987,28.993],[-97.1299,28.6397],[-97.8885,28.4448],[-98.3441,27.6749],[-98.6359,27.6599],[-99.1188,27.6122],[-99.6007,27.2427],[-100.0106,27.324],[-99.543,28.2178],[-99.1028,28.1113],[-98.6719,28.4165],[-99.3392,29.1963],[-100.0909,28.9694],[-100.5713,29.9571],[-101.2752,30.0513],[-101.2257,30.3044],[-102.262,30.4772],[-102.5584,30.6868],[-105.2503,30.4853],[-105.7336,30.6653],[-105.9941,31.0325],[-105.3543,31.3923],[-104.7164,31.8766],[-103.4607,31.9859],[-103.3564,32.4375],[-102.1861,32.4887],[-101.8131,33.1043],[-101.2233,33.0833],[-100.3606,33.4364],[-100.1386,33.223],[-100.2969,32.5598],[-100.7739,31.9729],[-99.557,31.9949],[-99.2141,31.4955]]]}},{"type":"Feature","properties":{"power":"80s Territory","endonym":null,"regions":5,"era":"<=2296","regionIds":[148,154,157,181,187]},"geometry":{"type":"Polygon","coordinates":[[[-114.0698,41.2178],[-113.8564,41.2974],[-113.626,41.7129],[-112.8885,42.0344],[-112.8479,42.009],[-112.864,41.9765],[-112.7963,41.919],[-112.7941,41.8874],[-112.7366,41.8246],[-112.7292,41.7973],[-112.6752,41.7329],[-112.6655,41.707],[-112.6192,41.6494],[-112.6108,41.646],[-112.5655,41.6113],[-112.5242,41.5948],[-112.4784,41.5597],[-112.4376,41.5435],[-112.3914,41.5081],[-112.2963,41.4708],[-112.2318,41.4634],[-112.191,41.4518],[-112.1088,41.4471],[-112.09,41.4251],[-112.0529,41.3961],[-112.0153,41.3515],[-111.9956,41.3365],[-111.9843,41.2711],[-111.9966,41.1779],[-111.9566,41.0902],[-111.9775,41.0745],[-111.6158,40.8054],[-112.8522,40.5467],[-113.3328,40.1141],[-113.709,39.9847],[-114.1342,39.9381],[-114.2825,40.1818],[-114.9842,39.907],[-115.5326,40.0841],[-115.5436,40.0821],[-116.1816,39.7862],[-116.7883,40.499],[-116.2296,41.1753],[-116.6134,41.6091],[-116.0291,42.1782],[-115.1482,41.8251],[-114.4953,41.1598],[-114.0698,41.2178]]]}},{"type":"Feature","properties":{"power":"Chicagoan Military State","endonym":null,"regions":4,"era":"2290","regionIds":[80,126,134,171]},"geometry":{"type":"MultiPolygon","coordinates":[[[[-86.0313,41.4663],[-86.6878,41.1056],[-86.9616,40.6229],[-87.3694,40.6217],[-87.5821,41.8489],[-87.4395,42.4797],[-87.4234,42.4615],[-87.402,42.4567],[-87.3706,42.4907],[-87.2136,42.5031],[-87.1971,42.509],[-87.0365,42.5252],[-87.0228,42.5287],[-86.8609,42.5461],[-86.849,42.5486],[-86.6855,42.5666],[-86.6441,42.5746],[-86.6325,42.6206],[-86.6157,42.7188],[-86.6153,42.7205],[-86.5992,42.8204],[-86.591,42.9211],[-86.5908,43.0226],[-86.5982,43.121],[-86.5889,43.124],[-86.4493,43.1817],[-86.3759,43.2041],[-86.2377,43.2637],[-86.1591,43.2839],[-86.0213,43.351],[-85.9376,43.3528],[-85.9011,43.3826],[-85.9005,43.3884],[-85.3455,42.5675],[-85.2566,42.0341],[-85.6807,42.0056],[-86.0313,41.4663]]],[[[-78.6225,43.071],[-78.6091,43.0796],[-78.6051,42.5018],[-79.3622,41.5974],[-79.7439,41.8409],[-80.5943,41.7337],[-80.6724,41.9641],[-80.715,41.9481],[-80.8873,42.4078],[-80.8339,42.4418],[-80.7934,42.4622],[-80.745,42.4929],[-80.7446,42.4931],[-80.7576,42.5772],[-80.7917,42.7025],[-80.8018,42.7894],[-80.8427,42.9171],[-80.8372,43.0349],[-80.88,43.0626],[-80.869,43.072],[-81.6004,43.7208],[-81.6048,43.7373],[-81.6676,43.7198],[-81.747,43.7695],[-81.8758,43.7941],[-81.9416,43.8214],[-82.0374,43.8438],[-82.0405,43.8283],[-82.0409,43.8225],[-82.0641,43.7065],[-82.0643,43.7004],[-82.0832,43.607],[-82.0886,43.6024],[-82.2856,43.4961],[-82.287,43.4586],[-82.2853,43.4549],[-83.1777,43.0157],[-84.3492,43.5204],[-84.909,44.0171],[-84.1267,45.0636],[-83.5728,45.257],[-83.5724,45.2554],[-82.8355,45.4742],[-82.8765,45.5739],[-82.9086,45.6691],[-82.9343,45.7664],[-82.9538,45.8658],[-82.9671,45.9674],[-82.9671,45.9686],[-82.9373,45.9924],[-82.8274,46.0693],[-82.7189,46.134],[-82.612,46.1864],[-82.5064,46.2266],[-82.4023,46.2546],[-82.3098,46.2689],[-82.2996,46.2711],[-82.1977,46.2808],[-82.0973,46.278],[-82.0658,46.2731],[-81.9974,46.2712],[-81.9655,46.2662],[-81.8975,46.2644],[-81.8653,46.2593],[-81.7975,46.2576],[-81.6986,46.2419],[-81.6013,46.2131],[-81.5323,46.1829],[-81.505,46.1413],[-81.4892,46.1223],[-81.4117,46.0018],[-81.347,45.9249],[-81.2876,45.8702],[-81.2737,45.8541],[-81.1979,45.7853],[-81.1359,45.7408],[-81.1147,45.7219],[-81.053,45.6775],[-81.0316,45.6585],[-81.0313,45.6582],[-80.9188,45.7478],[-80.7797,45.8308],[-80.656,45.8737],[-80.6323,45.8743],[-80.5437,45.8871],[-80.4602,45.861],[-80.4454,45.8639],[-80.3618,45.837],[-80.3471,45.8408],[-80.2634,45.8129],[-80.2487,45.8179],[-80.1651,45.7885],[-80.1501,45.7954],[-80.0667,45.7637],[-80.0513,45.7736],[-79.9685,45.7381],[-79.9517,45.7538],[-79.8705,45.7099],[-79.8546,45.7344],[-79.8294,45.7247],[-79.8044,45.6989],[-79.7679,45.695],[-79.765,45.7],[-79.7464,45.6928],[-79.5012,45.363],[-78.3218,45.0435],[-77.5595,45.0346],[-77.0699,44.8053],[-77.0259,44.7974],[-77.0347,44.7483],[-76.956,44.6489],[-76.9505,44.632],[-76.8751,44.5305],[-76.8684,44.5159],[-76.7939,44.4137],[-76.7867,44.4],[-76.7761,44.3853],[-76.7749,44.3595],[-76.7806,44.2971],[-76.779,44.2582],[-76.7846,44.196],[-76.784,44.1823],[-76.817,44.114],[-76.8735,44.0289],[-76.9405,43.9539],[-76.9963,43.9074],[-77.0706,43.8953],[-77.1719,43.8942],[-77.1799,43.8954],[-77.2724,43.8989],[-77.3708,43.919],[-77.4043,43.9317],[-77.4684,43.9449],[-77.5021,43.9575],[-77.566,43.9708],[-77.5998,43.9832],[-77.6636,43.9966],[-77.6976,44.009],[-77.7612,44.0225],[-77.7953,44.0348],[-77.8588,44.0483],[-77.8931,44.0606],[-77.9122,44.0647],[-77.9357,44.0637],[-78.0351,44.0462],[-78.1307,44.0153],[-78.1916,43.986],[-78.2236,43.9752],[-78.3151,43.9304],[-78.3487,43.9082],[-78.4051,43.8804],[-78.4387,43.8584],[-78.4952,43.8304],[-78.5389,43.8021],[-78.5849,43.779],[-78.5916,43.7747],[-78.6,43.7108],[-78.6002,43.6956],[-78.615,43.5852],[-78.6149,43.5701],[-78.6301,43.4596],[-78.6295,43.4445],[-78.6471,43.3219],[-78.6532,43.307],[-78.6724,43.2034],[-78.6826,43.1865],[-78.6225,43.071]],[[-80.1339,42.1529],[-80.147,42.1484],[-80.2425,42.1149],[-80.338,42.0814],[-80.4336,42.0479],[-80.5291,42.0144],[-80.6246,41.9809],[-80.6724,41.9641],[-80.1339,42.1529]],[[-83.0317,44.4765],[-82.9851,44.4589],[-83.1512,44.5219],[-83.1172,44.509],[-83.0317,44.4765]],[[-82.9377,44.4409],[-82.855,44.4095],[-82.9851,44.4589],[-82.9377,44.4409]],[[-82.8437,44.4052],[-82.8308,44.4003],[-82.855,44.4095],[-82.8437,44.4052]],[[-82.554,44.0331],[-82.5294,43.9803],[-82.65461777003729,44.24968153310633],[-82.6387,44.2154],[-82.5964,44.1243],[-82.554,44.0331]],[[-82.681,44.3065],[-82.7019,44.3514],[-82.65461777003729,44.24968153310633],[-82.681,44.3065]],[[-82.3202,43.5301],[-82.3734,43.6445],[-82.3422,43.5773],[-82.3202,43.5301]],[[-83.49096457861702,44.94272651572583],[-83.426,44.6931],[-83.4513,44.7904],[-83.4766,44.8877],[-83.49096457861702,44.94272651572583]],[[-83.540872864765,45.13449919927415],[-83.5273,45.0823],[-83.502,44.985],[-83.49096457861702,44.94272651572583],[-83.540872864765,45.13449919927415]],[[-83.5526,45.1796],[-83.5587,45.203],[-83.540872864765,45.13449919927415],[-83.5526,45.1796]]]]}},{"type":"Feature","properties":{"power":"Hidalgoan Empire","endonym":null,"regions":4,"era":"2290","regionIds":[103,125,165,175]},"geometry":{"type":"Polygon","coordinates":[[[-98.6719,28.4165],[-99.1028,28.1113],[-99.543,28.2178],[-100.0106,27.324],[-100.2567,27.1334],[-100.3638,27.7867],[-101.1731,28.5974],[-101.446,29.3174],[-102.3004,30.1061],[-102.262,30.4772],[-101.2257,30.3044],[-100.882,31.0555],[-99.6658,30.5781],[-99.4783,30.7384],[-98.887,30.3943],[-97.8259,30.219],[-98.4155,29.6696],[-99.355,29.7768],[-99.3392,29.1963],[-98.6719,28.4165]]]}},{"type":"Feature","properties":{"power":"Vipers","endonym":null,"regions":4,"era":"2290","regionIds":[148,157,167,187]},"geometry":{"type":"Polygon","coordinates":[[[-113.0209,40.0298],[-112.7546,39.1655],[-113.7036,39.1476],[-114.0079,38.9223],[-114.3268,39.0768],[-114.1342,39.9381],[-114.2825,40.1818],[-114.9842,39.907],[-115.5326,40.0841],[-115.9563,40.5262],[-115.8566,40.9593],[-115.176,40.8498],[-114.4953,41.1598],[-114.0698,41.2178],[-113.8564,41.2974],[-113.626,41.7129],[-112.8885,42.0344],[-112.8479,42.009],[-112.864,41.9765],[-112.7963,41.919],[-112.7941,41.8874],[-112.7366,41.8246],[-112.7292,41.7973],[-112.6752,41.7329],[-112.6655,41.707],[-112.6192,41.6494],[-112.6108,41.646],[-112.5655,41.6113],[-112.5242,41.5948],[-112.4784,41.5597],[-112.4376,41.5435],[-112.3914,41.5081],[-112.2963,41.4708],[-112.2318,41.4634],[-112.191,41.4518],[-112.1088,41.4471],[-112.09,41.4251],[-112.0529,41.3961],[-112.0153,41.3515],[-111.9956,41.3365],[-111.9843,41.2711],[-111.9966,41.1779],[-111.9566,41.0902],[-111.9775,41.0745],[-111.6158,40.8054],[-112.8522,40.5467],[-113.3328,40.1141],[-113.0209,40.0298]]]}},{"type":"Feature","properties":{"power":"New Mauretania","endonym":null,"regions":3,"era":"2290","regionIds":[37,111,177]},"geometry":{"type":"Polygon","coordinates":[[[-84.0377,34.6101],[-84.0397,34.3439],[-85.1491,33.7623],[-85.4875,34.1776],[-85.8063,34.4742],[-87.1464,34.6774],[-87.3717,35.0009],[-89.0401,35.3623],[-88.8733,36.1763],[-88.5177,36.4384],[-88.4761,36.9753],[-87.5887,36.9396],[-87.2696,37.7493],[-86.2746,37.6309],[-85.5351,37.9539],[-85.2564,37.7562],[-84.4812,38.6461],[-83.8631,38.7085],[-83.8162,39.0929],[-81.7832,38.4187],[-81.8861,37.8559],[-81.4239,36.9813],[-80.7237,36.7596],[-80.9335,36.608],[-82.9887,36.0207],[-83.2004,35.706],[-83.8243,35.535],[-84.2086,34.8174],[-84.0377,34.6101]]]}},{"type":"Feature","properties":{"power":"Mormonic Clergical Commonwealth","endonym":null,"regions":3,"era":"2290","regionIds":[121,128,145]},"geometry":{"type":"Polygon","coordinates":[[[-106.5363,46.5196],[-106.9883,46.1283],[-106.6541,45.6658],[-106.9667,45.007],[-107.764,45.3361],[-108.2604,45.3188],[-108.4287,45.785],[-109.5974,45.5791],[-109.9313,46.7486],[-109.5537,47.3194],[-107.7315,47.4327],[-107.3028,47.6879],[-107.048,48.6628],[-105.7754,48.8202],[-105.657,48.0657],[-106.2175,47.4939],[-107.0235,47.1621],[-106.5363,46.5196]]]}},{"type":"Feature","properties":{"power":"Calculator's army","endonym":null,"regions":2,"era":"<=2296","regionIds":[23,35]},"geometry":{"type":"Polygon","coordinates":[[[-95.6812,41.1514],[-95.3053,41.1715],[-93.9642,40.7266],[-93.34,40.2163],[-92.3339,40.3884],[-91.0817,41.1235],[-90.4894,41.146],[-89.919,40.9725],[-89.1567,41.0529],[-88.6327,41.4766],[-87.5821,41.8489],[-87.3694,40.6217],[-88.2999,40.1164],[-88.5991,38.9017],[-88.9154,38.835],[-89.5695,38.7091],[-90.0687,38.542],[-90.6731,38.7488],[-91.4006,38.7105],[-92.3008,39.5277],[-93.8429,39.2674],[-94.7868,39.2621],[-95.0784,38.8411],[-96.1198,38.6042],[-96.7904,38.2202],[-96.862,37.6461],[-97.474,37.5306],[-97.9015,37.0854],[-98.5787,36.9057],[-98.9956,37.2434],[-99.4174,37.0694],[-100.5361,37.2097],[-100.9402,37.5898],[-101.5348,37.267],[-102.4621,37.018],[-103.6234,36.9303],[-103.6345,36.9296],[-104.7607,36.8064],[-105.6356,36.8069],[-105.8597,37.7509],[-105.4762,38.3841],[-106.0984,38.5916],[-106.3757,39.0544],[-106.2561,39.6569],[-106.1035,40.2065],[-105.6205,40.72],[-104.7049,40.1196],[-104.4081,40.6215],[-102.9204,40.6965],[-101.4553,41.328],[-100.4657,41.2993],[-99.5563,40.8673],[-98.2164,40.8058],[-96.3306,40.7138],[-95.8521,40.9353],[-95.6812,41.1514]]]}},{"type":"Feature","properties":{"power":"Texas Brotherhood of Steel","endonym":null,"regions":2,"era":"<=2296","regionIds":[101,155]},"geometry":{"type":"Polygon","coordinates":[[[-99.2141,31.4955],[-99.557,31.9949],[-100.7739,31.9729],[-100.2969,32.5598],[-100.1386,33.223],[-100.3606,33.4364],[-100.2045,34.0396],[-99.74,34.2112],[-99.0483,34.0252],[-98.166,33.5507],[-98.1413,33.081],[-97.6836,32.9264],[-98.0243,32.1869],[-98.2408,32.155],[-99.2141,31.4955]]]}},{"type":"Feature","properties":{"power":"Carolina Confederacy","endonym":null,"regions":2,"era":"2290","regionIds":[54,63]},"geometry":{"type":"Polygon","coordinates":[[[-82.37,34.7146],[-81.1705,34.964],[-80.5154,36.0333],[-80.4179,36.2881],[-80.9335,36.608],[-80.7237,36.7596],[-79.9031,36.8273],[-79.4136,37.4928],[-78.5506,37.5253],[-78.1152,37.3004],[-77.7009,37.7433],[-77.1416,37.6003],[-76.2649,37.1043],[-76.2587,36.9665],[-75.9718,36.8973],[-75.868,36.5513],[-75.7275,35.5507],[-76.2769,34.9091],[-76.916,34.9868],[-77.4644,34.6381],[-77.7713,34.1785],[-77.8711,34.0895],[-78.3341,33.8896],[-78.4957,33.8689],[-78.5543,33.8613],[-79.0606,33.4941],[-79.2035,33.1585],[-80.3013,32.5093],[-80.3902,32.4342],[-80.5325,32.6672],[-82.37,34.7146]]]}},{"type":"Feature","properties":{"power":"Nuka World","endonym":null,"regions":2,"era":"2290","regionIds":[94,132]},"geometry":{"type":"MultiPolygon","coordinates":[[[[-73.6013,40.8575],[-73.6015,40.9355],[-73.6031,40.9448],[-73.5632,40.9499],[-73.4553,40.9638],[-73.0064,41.0213],[-72.9891,41.0236],[-72.8938,41.0358],[-72.867,41.0392],[-72.2412,41.1195],[-72.0528,40.999],[-71.945,40.9301],[-72.0665,40.9041],[-72.1676,40.8824],[-72.2691,40.8607],[-72.3706,40.8389],[-72.472,40.8172],[-72.5735,40.7954],[-72.6751,40.7737],[-72.6909,40.7703],[-72.9378,40.7174],[-72.9826,40.7078],[-73.101,40.6824],[-73.2184,40.6572],[-73.3359,40.632],[-73.3449,40.6301],[-73.4455,40.6298],[-73.5222,40.6296],[-73.6054,40.7558],[-73.607,40.8339],[-73.6013,40.8575]],[[-73.4132,40.8813],[-73.4337,40.9215],[-73.4553,40.9638],[-73.4132,40.8813]],[[-72.6757,40.7757],[-72.6194,40.7959],[-72.6909,40.7703],[-72.6757,40.7757]],[[-72.5789,40.8104],[-72.5343,40.8264],[-72.6194,40.7959],[-72.5789,40.8104]],[[-72.4821,40.8451],[-72.4027,40.8736],[-72.5343,40.8264],[-72.4821,40.8451]],[[-72.3636,40.8876],[-72.2278,40.9363],[-72.2884,40.9146],[-72.3636,40.8876]],[[-73.2673,40.831],[-73.1069,40.7757],[-73.1701,40.7975],[-73.2673,40.831]]],[[[-73.1627,41.1213],[-73.4795,41.0112],[-73.5982,40.97],[-73.5994,40.9695],[-73.6144,41.0634],[-73.5992,41.1018],[-73.6215,41.1798],[-73.5844,41.2163],[-73.59771608601669,41.24240791667837],[-73.5977,41.2424],[-73.6098,41.2661],[-74.3659,41.5645],[-74.8649,41.9867],[-74.9117,42.4371],[-74.3944,42.9642],[-73.6179,42.9159],[-73.4174,42.5135],[-72.9604,43.1891],[-71.2712,43.1804],[-70.9728,43.2814],[-70.975,43.2694],[-70.9631,43.2343],[-70.5744,43.1619],[-70.6473,43.0787],[-70.69,43.0301],[-70.7207,42.9896],[-70.7889,42.8996],[-70.8149,42.8653],[-70.8161,42.8019],[-70.817,42.7554],[-70.817,42.7553],[-70.8214,42.5245],[-70.8222,42.4799],[-70.825,42.3351],[-70.5101,41.8293],[-70.495,41.8051],[-70.2944,41.793],[-70.1753,41.7858],[-70.08,41.7801],[-70.1108,41.8871],[-70.111,41.8877],[-70.1725,42.1015],[-70.185,42.1451],[-70.1446,42.1152],[-70.0535,42.0478],[-69.9599,41.9785],[-69.8849,41.9229],[-69.9593,41.6574],[-69.965,41.6371],[-70.2461,41.5696],[-70.4806,41.5134],[-70.6033,41.4839],[-70.64,41.4751],[-70.7045,41.4777],[-70.7953,41.4814],[-70.9028,41.4857],[-71.0243,41.4906],[-71.1203,41.4945],[-71.142,41.4894],[-71.2456,41.465],[-71.3507,41.4402],[-71.469,41.4123],[-71.5699,41.3885],[-71.6708,41.3647],[-71.7391,41.3486],[-71.8084,41.3323],[-71.86,41.3201],[-72.0578,41.2974],[-72.2173,41.279],[-72.2913,41.2705],[-72.295,41.2701],[-72.4038,41.2608],[-72.5064,41.2521],[-72.609,41.2434],[-72.7116,41.2347],[-72.7618,41.2304],[-72.7747,41.2293],[-72.8764,41.2207],[-72.8856,41.2175],[-72.9832,41.1836],[-73.0807,41.1497],[-73.1108,41.1393],[-73.1627,41.1213]],[[-73.2173,41.1562],[-73.1997,41.1449],[-73.1627,41.1213],[-73.2173,41.1562]],[[-73.5037,41.0585],[-73.4977,41.0467],[-73.4795,41.0112],[-73.5037,41.0585]],[[-70.99394342473877,42.573658533858136],[-70.9341,42.5409],[-70.8488,42.4944],[-70.8222,42.4799],[-70.99394342473877,42.573658533858136]],[[-71.0227,42.5894],[-71.0944,42.6285],[-70.99394342473877,42.573658533858136],[-71.0227,42.5894]],[[-70.1286851683395,42.066292993634306],[-70.141,42.0762],[-70.1725,42.1015],[-70.1286851683395,42.066292993634306]],[[-70.074,42.0223],[-69.9974,41.9608],[-70.1286851683395,42.066292993634306],[-70.074,42.0223]],[[-71.9928,41.3181],[-72.0087,41.3131],[-72.0578,41.2974],[-71.9928,41.3181]],[[-71.9372,41.3358],[-71.9262,41.3394],[-71.9928,41.3181],[-71.9372,41.3358]],[[-71.9133,41.3435],[-71.8662,41.3585],[-71.9262,41.3394],[-71.9133,41.3435]],[[-70.9786,43.25],[-70.9814,43.2354],[-70.9853,43.2141],[-70.9786,43.25]],[[-71.0211,43.0219],[-71.0354,42.9455],[-71.0412,42.914],[-71.0211,43.0219]],[[-70.8287,41.7827],[-70.8507,41.7795],[-70.9007,41.7722],[-70.8287,41.7827]]],[[[-73.6168,41.2518],[-73.6098,41.2661],[-73.59771608601669,41.24240791667837],[-73.6168,41.2518]]]]}},{"type":"Feature","properties":{"power":"West Khans","endonym":null,"regions":2,"era":"2290","regionIds":[104,141]},"geometry":{"type":"Polygon","coordinates":[[[-112.2318,41.4634],[-112.2963,41.4708],[-112.3914,41.5081],[-112.4376,41.5435],[-112.4784,41.5597],[-112.5242,41.5948],[-112.5655,41.6113],[-112.6108,41.646],[-112.6192,41.6494],[-112.6655,41.707],[-112.6752,41.7329],[-112.7292,41.7973],[-112.7366,41.8246],[-112.7941,41.8874],[-112.7963,41.919],[-112.864,41.9765],[-112.8479,42.009],[-112.8885,42.0344],[-113.626,41.7129],[-113.8564,41.2974],[-114.0698,41.2178],[-114.4953,41.1598],[-115.1482,41.8251],[-116.0291,42.1782],[-115.4311,42.7683],[-115.336,43.2544],[-114.8246,43.2742],[-114.157,42.9028],[-113.2385,42.8826],[-113.2504,42.7938],[-112.7181,42.4418],[-112.2573,42.56],[-111.0206,42.1445],[-111.047,41.5553],[-111.1666,40.9222],[-111.6158,40.8054],[-111.9775,41.0745],[-111.9566,41.0902],[-111.9966,41.1779],[-111.9843,41.2711],[-111.9956,41.3365],[-112.0153,41.3515],[-112.0529,41.3961],[-112.09,41.4251],[-112.1088,41.4471],[-112.191,41.4518],[-112.2318,41.4634]]]}},{"type":"Feature","properties":{"power":"Maxsonian Dynasty","endonym":null,"regions":2,"era":"2290","regionIds":[118,149]},"geometry":{"type":"MultiPolygon","coordinates":[[[[-75.557,38.885],[-75.5797,38.9734],[-75.587,38.9761],[-75.5998,39.032],[-75.5794,39.0367],[-75.5955,39.0756],[-75.58992917205693,39.10590530401035],[-75.5899,39.1059],[-75.57810204081666,39.17024489795737],[-75.57191088396199,39.203924791246756],[-75.5719,39.2039],[-75.5572,39.2837],[-75.55724826680208,39.28368942859667],[-75.553,39.3068],[-75.5778,39.3553],[-75.5741,39.3761],[-75.5387,39.3847],[-75.5342,39.409],[-75.5602,39.4539],[-75.5563,39.476],[-75.5228,39.4849],[-75.5211,39.4803],[-75.32,38.9601],[-75.0835,38.7813],[-75.0567,38.4041],[-75.102,38.3492],[-75.2542,38.1647],[-75.2842,38.2168],[-75.3037,38.2806],[-75.3229,38.3123],[-75.3434,38.3795],[-75.3617,38.4078],[-75.383,38.4783],[-75.4005,38.5033],[-75.4226,38.5771],[-75.4394,38.5987],[-75.4621,38.676],[-75.4783,38.6942],[-75.5015,38.775],[-75.5174,38.7897],[-75.5408,38.874],[-75.557,38.885]],[[-75.1355,38.3975],[-75.1947,38.4827],[-75.102,38.3492],[-75.1355,38.3975]]],[[[-75.5758,39.1828],[-75.57810204081666,39.17024489795737],[-75.58992917205693,39.10590530401035],[-75.5932,39.1065],[-75.6126,39.16],[-75.6098,39.176],[-75.5758,39.1828]]],[[[-75.57191088396199,39.203924791246756],[-75.5953,39.2572],[-75.5919,39.2761],[-75.55724826680208,39.28368942859667],[-75.57191088396199,39.203924791246756]]],[[[-74.9883,39.997],[-74.9823,40.0008],[-74.9596,39.962],[-74.9211,39.9796],[-74.9397,40.0277],[-74.9267,40.0359],[-74.7498,41.3861],[-74.3659,41.5645],[-73.6098,41.2661],[-73.727,41.0274],[-73.6909,41.1009],[-73.6462,41.1919],[-73.6168,41.2518],[-73.5977,41.2424],[-73.5844,41.2163],[-73.6215,41.1798],[-73.5992,41.1018],[-73.6144,41.0634],[-73.5994,40.9695],[-73.6309,40.9586],[-73.71,40.9311],[-73.6031,40.9448],[-73.6015,40.9355],[-73.6013,40.8575],[-73.607,40.8339],[-73.6054,40.7558],[-73.5222,40.6296],[-73.7673,40.6288],[-73.982,40.6281],[-73.9523,40.7507],[-74.2567,40.4735],[-73.9624,40.4277],[-74.1784,39.7093],[-74.5373,39.3295],[-74.621,39.241],[-74.7087,39.1482],[-74.906,38.9395],[-74.9804,39.1965],[-75.2,39.2485],[-75.519,39.4916],[-75.5157,39.5094],[-75.5425,39.5531],[-75.5385,39.5754],[-75.5016,39.5859],[-75.49711535685802,39.610523229326745],[-75.5248,39.6524],[-75.5208,39.675],[-75.4831,39.6866],[-75.4722,39.746],[-74.9883,39.997]],[[-75.0608,39.848],[-75.0431,39.8843],[-75.0082,39.956],[-74.9883,39.997],[-75.0608,39.848]],[[-74.9181,39.98],[-74.9148,39.9593],[-74.9267,40.0359],[-74.9181,39.98]],[[-73.753,40.9743],[-73.7355,41.0099],[-73.727,41.0274],[-73.753,40.9743]],[[-73.7802,40.9189],[-73.7935,40.8918],[-73.753,40.9743],[-73.7802,40.9189]],[[-73.8453222102954,40.6484976394837],[-73.8154,40.6409],[-73.7673,40.6288],[-73.8453222102954,40.6484976394837]],[[-73.8729,40.6555],[-73.879,40.657],[-73.8453222102954,40.6484976394837],[-73.8729,40.6555]],[[-74.6025,39.3894],[-74.6649382289329,39.446739524829944],[-74.5373,39.3295],[-74.6025,39.3894]],[[-74.8638,39.6294],[-74.8265,39.5951],[-74.7518,39.5265],[-74.6772,39.458],[-74.6649382289329,39.446739524829944],[-74.8638,39.6294]],[[-74.79842691935175,39.27710068029021],[-74.7405,39.1938],[-74.7087,39.1482],[-74.79842691935175,39.27710068029021]],[[-74.7994,39.2785],[-74.80488156927527,39.28637335756686],[-74.79842691935175,39.27710068029021],[-74.7994,39.2785]],[[-74.96751859411569,39.52001587303223],[-74.9173,39.4478],[-74.8583,39.3631],[-74.80488156927527,39.28637335756686],[-74.96751859411569,39.52001587303223]],[[-74.9762,39.5325],[-75.02510419704399,39.60274270067778],[-74.96751859411569,39.52001587303223],[-74.9762,39.5325]],[[-75.0722,39.6704],[-75.0351,39.6171],[-75.02510419704399,39.60274270067778],[-75.0722,39.6704]],[[-75.4971,39.6105],[-75.4963,39.615],[-75.49711535685802,39.610523229326745],[-75.4971,39.6105]],[[-74.8871,39.7797],[-74.878,39.7211],[-74.9026,39.8799],[-74.8871,39.7797]]],[[[-75.5007,39.7428],[-75.4743,39.752],[-75.4722,39.746],[-75.4786,39.7114],[-75.5007,39.7428]]]]}},{"type":"Feature","properties":{"power":"Houston Republic","endonym":null,"regions":2,"era":"2290","regionIds":[123,178]},"geometry":{"type":"Polygon","coordinates":[[[-95.7222,31.5941],[-96.1928,31.3969],[-97.0058,31.5065],[-97.0271,31.6827],[-97.025,32.0674],[-95.9284,32.3381],[-95.957,33.147],[-94.4418,33.6654],[-94.3459,33.4581],[-94.7735,32.6288],[-94.674,32.3105],[-94.4212,32.2046],[-94.4298,31.5857],[-94.5652,31.5266],[-95.7222,31.5941]]]}}]}
