{"type":"FeatureCollection","_doc":"DERIVED by tools/build-label-baselines.py, alongside label-baselines.geojson and from the same computation. One POINT per named territory, at its pole of inaccessibility - the middle coordinate of the matching baseline. For label bands that place by point rather than along a line: pointing those at the LineString made MapLibre anchor on its west end instead.","features":[{"type":"Feature","properties":{"name":"Alberta-Saskatchewan Confederation","tier":"regions","id":2,"chordDeg":12.9,"spanDeg":14.05,"sizeHint":1.5},"geometry":{"type":"Point","coordinates":[-115.88792,52.29707]}},{"type":"Feature","properties":{"name":"New California Republic","tier":"regions","id":6,"chordDeg":12.4,"spanDeg":13.95,"sizeHint":1.5},"geometry":{"type":"Point","coordinates":[-118.91594,36.64735]}},{"type":"Feature","properties":{"name":"Caribou","tier":"regions","id":3,"chordDeg":11.6,"spanDeg":15.7,"sizeHint":1.5},"geometry":{"type":"Point","coordinates":[-113.45606,61.41989]}},{"type":"Feature","properties":{"name":"Cause","tier":"regions","id":18,"chordDeg":11.5,"spanDeg":12.85,"sizeHint":1.5},"geometry":{"type":"Point","coordinates":[-124.39782,52.88353]}},{"type":"Feature","properties":{"name":"Texas Commonwealth","tier":"macroTerritories","id":"texas","chordDeg":9.4,"spanDeg":12.25,"sizeHint":1.5},"geometry":{"type":"Point","coordinates":[-97.99155,31.98889]}},{"type":"Feature","properties":{"name":"Vulpes/Lanius/Caesar Legion","tier":"regions","id":10,"chordDeg":8.8,"spanDeg":10.95,"sizeHint":1.5},"geometry":{"type":"Point","coordinates":[-109.71471,35.14957]}},{"type":"Feature","properties":{"name":"Winnipeg","tier":"regions","id":16,"chordDeg":8.8,"spanDeg":10.55,"sizeHint":1.5},"geometry":{"type":"Point","coordinates":[-102.48533,51.16602]}},{"type":"Feature","properties":{"name":"Caesar's Legion","tier":"macroTerritories","id":"legion","chordDeg":8.8,"spanDeg":10.95,"sizeHint":1.5},"geometry":{"type":"Point","coordinates":[-109.71471,35.14957]}},{"type":"Feature","properties":{"name":"Gran Colombia","tier":"regions","id":9,"chordDeg":8.7,"spanDeg":13.95,"sizeHint":1.5},"geometry":{"type":"Point","coordinates":[-74.31747,6.32797]}},{"type":"Feature","properties":{"name":"Chicagoan Military State","tier":"regions","id":28,"chordDeg":8.2,"spanDeg":10.55,"sizeHint":1.5},"geometry":{"type":"Point","coordinates":[-74.19363,49.29197]}},{"type":"Feature","properties":{"name":"Albion and Newfoundland","tier":"regions","id":1,"chordDeg":8.1,"spanDeg":13.9,"sizeHint":1.5},"geometry":{"type":"Point","coordinates":[-73.33333,55.51746]}},{"type":"Feature","properties":{"name":"New Canada","tier":"regions","id":7,"chordDeg":8.1,"spanDeg":13.5,"sizeHint":1.5},"geometry":{"type":"Point","coordinates":[-82.1683,49.18582]}},{"type":"Feature","properties":{"name":"Manitoba","tier":"regions","id":17,"chordDeg":8.0,"spanDeg":9.95,"sizeHint":1.5},"geometry":{"type":"Point","coordinates":[-94.45273,52.43934]}},{"type":"Feature","properties":{"name":"Valle","tier":"regions","id":77,"chordDeg":7.7,"spanDeg":7.75,"sizeHint":1.5},"geometry":{"type":"Point","coordinates":[-113.56505,27.89133]}},{"type":"Feature","properties":{"name":"Alaskan Federation","tier":"regions","id":4,"chordDeg":7.6,"spanDeg":14.6,"sizeHint":1.5},"geometry":{"type":"Point","coordinates":[-129.67617,64.82914]}},{"type":"Feature","properties":{"name":"Nebraska","tier":"regions","id":35,"chordDeg":7.4,"spanDeg":9.75,"sizeHint":1.5},"geometry":{"type":"Point","coordinates":[-100.1384,39.79257]}},{"type":"Feature","properties":{"name":"NCR Frontier","tier":"regions","id":29,"chordDeg":6.9,"spanDeg":7.15,"sizeHint":1.5},"geometry":{"type":"Point","coordinates":[-120.2345,45.47129]}},{"type":"Feature","properties":{"name":"New Saskatchewan","tier":"regions","id":11,"chordDeg":6.7,"spanDeg":10.35,"sizeHint":1.5},"geometry":{"type":"Point","coordinates":[-109.15314,55.46049]}},{"type":"Feature","properties":{"name":"Minnesota","tier":"regions","id":13,"chordDeg":6.7,"spanDeg":10.75,"sizeHint":1.5},"geometry":{"type":"Point","coordinates":[-94.61931,46.95572]}},{"type":"Feature","properties":{"name":"Venezuela","tier":"regions","id":31,"chordDeg":6.7,"spanDeg":6.7,"sizeHint":1.5},"geometry":{"type":"Point","coordinates":[-68.31479,8.70676]}},{"type":"Feature","properties":{"name":"New California Republic","tier":"macroTerritories","id":"ncr","chordDeg":6.4,"spanDeg":12.85,"sizeHint":1.5},"geometry":{"type":"Point","coordinates":[-120.84981,44.20899]}},{"type":"Feature","properties":{"name":"Cuba","tier":"regions","id":50,"chordDeg":6.1,"spanDeg":6.6,"sizeHint":1.5},"geometry":{"type":"Point","coordinates":[-77.88555,21.38534]}},{"type":"Feature","properties":{"name":"Khans","tier":"regions","id":30,"chordDeg":5.9,"spanDeg":7.45,"sizeHint":1.5},"geometry":{"type":"Point","coordinates":[-114.4241,46.01696]}},{"type":"Feature","properties":{"name":"Chapel","tier":"regions","id":70,"chordDeg":5.8,"spanDeg":6.05,"sizeHint":1.5},"geometry":{"type":"Point","coordinates":[-112.48874,38.14562]}},{"type":"Feature","properties":{"name":"Yukon","tier":"regions","id":21,"chordDeg":5.5,"spanDeg":6.6,"sizeHint":1.5},"geometry":{"type":"Point","coordinates":[-124.82284,57.93005]}},{"type":"Feature","properties":{"name":"Tetlit Gwich'in","tier":"regions","id":36,"chordDeg":5.5,"spanDeg":5.6,"sizeHint":1.5},"geometry":{"type":"Point","coordinates":[-121.50392,59.96366]}},{"type":"Feature","properties":{"name":"Lakota","tier":"regions","id":45,"chordDeg":5.5,"spanDeg":6.2,"sizeHint":1.5},"geometry":{"type":"Point","coordinates":[-100.73705,46.64328]}},{"type":"Feature","properties":{"name":"New America","tier":"regions","id":67,"chordDeg":5.2,"spanDeg":5.55,"sizeHint":1.5},"geometry":{"type":"Point","coordinates":[-98.58088,42.18886]}},{"type":"Feature","properties":{"name":"Brotherhood of Steel","tier":"macroTerritories","id":"brotherhood","chordDeg":5.2,"spanDeg":10.6,"sizeHint":1.5},"geometry":{"type":"Point","coordinates":[-95.59081,37.94906]}},{"type":"Feature","properties":{"name":"Tlalocan","tier":"regions","id":15,"chordDeg":4.8,"spanDeg":8.55,"sizeHint":1.5},"geometry":{"type":"Point","coordinates":[-101.11858,18.92353]}},{"type":"Feature","properties":{"name":"Dixie Union","tier":"regions","id":25,"chordDeg":4.7,"spanDeg":7.95,"sizeHint":1.5},"geometry":{"type":"Point","coordinates":[-83.22694,32.37402]}},{"type":"Feature","properties":{"name":"Hidalgoan Empire","tier":"regions","id":22,"chordDeg":4.6,"spanDeg":7.1,"sizeHint":1.5},"geometry":{"type":"Point","coordinates":[-102.96855,27.63524]}},{"type":"Feature","properties":{"name":"Brotherhood of Steel","tier":"regions","id":23,"chordDeg":4.5,"spanDeg":8.25,"sizeHint":1.5},"geometry":{"type":"Point","coordinates":[-90.64849,39.94319]}},{"type":"Feature","properties":{"name":"Caesar's Legion","tier":"regions","id":56,"chordDeg":4.4,"spanDeg":5.1,"sizeHint":1.5},"geometry":{"type":"Point","coordinates":[-108.05179,31.09871]}},{"type":"Feature","properties":{"name":"Chichenitza","tier":"regions","id":19,"chordDeg":4.3,"spanDeg":6.7,"sizeHint":1.5},"geometry":{"type":"Point","coordinates":[-90.64018,17.6724]}},{"type":"Feature","properties":{"name":"Petro Chico","tier":"regions","id":24,"chordDeg":4.2,"spanDeg":6.7,"sizeHint":1.5},"geometry":{"type":"Point","coordinates":[-103.90449,23.42879]}},{"type":"Feature","properties":{"name":"CSA","tier":"regions","id":34,"chordDeg":4.2,"spanDeg":5.85,"sizeHint":1.5},"geometry":{"type":"Point","coordinates":[-88.376,33.09688]}},{"type":"Feature","properties":{"name":"Alaskan Brotherhood","tier":"regions","id":26,"chordDeg":4.1,"spanDeg":8.75,"sizeHint":1.5},"geometry":{"type":"Point","coordinates":[-131.90776,61.13683]}},{"type":"Feature","properties":{"name":"Quebec","tier":"regions","id":48,"chordDeg":4.1,"spanDeg":5.7,"sizeHint":1.5},"geometry":{"type":"Point","coordinates":[-70.77495,45.71824]}},{"type":"Feature","properties":{"name":"Colombia","tier":"regions","id":54,"chordDeg":4.1,"spanDeg":4.5,"sizeHint":1.5},"geometry":{"type":"Point","coordinates":[-77.95203,35.94231]}},{"type":"Feature","properties":{"name":"Northwest Republic","tier":"regions","id":5,"chordDeg":3.9,"spanDeg":9.35,"sizeHint":1.5},"geometry":{"type":"Point","coordinates":[-101.91104,60.61356]}},{"type":"Feature","properties":{"name":"Ohio","tier":"regions","id":44,"chordDeg":3.9,"spanDeg":5.55,"sizeHint":1.5},"geometry":{"type":"Point","coordinates":[-78.48376,39.13239]}},{"type":"Feature","properties":{"name":"Indiana","tier":"regions","id":65,"chordDeg":3.8,"spanDeg":3.9,"sizeHint":1.5},"geometry":{"type":"Point","coordinates":[-86.53326,39.20401]}},{"type":"Feature","properties":{"name":"Cherokee","tier":"regions","id":39,"chordDeg":3.7,"spanDeg":5.2,"sizeHint":1.5},"geometry":{"type":"Point","coordinates":[-94.75323,37.06274]}},{"type":"Feature","properties":{"name":"Missouri","tier":"regions","id":37,"chordDeg":3.6,"spanDeg":5.7,"sizeHint":1.5},"geometry":{"type":"Point","coordinates":[-85.49106,36.20804]}},{"type":"Feature","properties":{"name":"Pecos","tier":"regions","id":55,"chordDeg":3.5,"spanDeg":4.65,"sizeHint":1.5},"geometry":{"type":"Point","coordinates":[-107.54087,28.69188]}},{"type":"Feature","properties":{"name":"North Nebraska","tier":"regions","id":61,"chordDeg":3.5,"spanDeg":4.65,"sizeHint":1.5},"geometry":{"type":"Point","coordinates":[-101.23238,43.48322]}},{"type":"Feature","properties":{"name":"Carolina Confederacy","tier":"regions","id":63,"chordDeg":3.5,"spanDeg":3.65,"sizeHint":1.5},"geometry":{"type":"Point","coordinates":[-80.10428,34.24531]}},{"type":"Feature","properties":{"name":"Seattle","tier":"regions","id":147,"chordDeg":3.5,"spanDeg":4.25,"sizeHint":1.5},"geometry":{"type":"Point","coordinates":[-125.91083,49.72838]}},{"type":"Feature","properties":{"name":"Oklahoma","tier":"regions","id":40,"chordDeg":3.4,"spanDeg":6.25,"sizeHint":1.5},"geometry":{"type":"Point","coordinates":[-100.90248,35.68032]}},{"type":"Feature","properties":{"name":"Wapusk","tier":"regions","id":64,"chordDeg":3.4,"spanDeg":4.7,"sizeHint":1.5},"geometry":{"type":"Point","coordinates":[-101.59029,55.2209]}},{"type":"Feature","properties":{"name":"Hudson","tier":"regions","id":12,"chordDeg":3.3,"spanDeg":17.85,"sizeHint":1.5},"geometry":{"type":"Point","coordinates":[-98.12465,57.47263]}},{"type":"Feature","properties":{"name":"Idaho","tier":"regions","id":38,"chordDeg":3.3,"spanDeg":7.55,"sizeHint":1.5},"geometry":{"type":"Point","coordinates":[-108.40791,42.74643]}},{"type":"Feature","properties":{"name":"Ozark","tier":"regions","id":42,"chordDeg":3.3,"spanDeg":5.65,"sizeHint":1.5},"geometry":{"type":"Point","coordinates":[-90.32618,36.85096]}},{"type":"Feature","properties":{"name":"Hondurus","tier":"regions","id":27,"chordDeg":3.2,"spanDeg":8.15,"sizeHint":1.5},"geometry":{"type":"Point","coordinates":[-86.22784,14.22411]}},{"type":"Feature","properties":{"name":"Ejercito Mexicano","tier":"regions","id":62,"chordDeg":3.0,"spanDeg":4.3,"sizeHint":1.5},"geometry":{"type":"Point","coordinates":[-100.45925,23.75108]}},{"type":"Feature","properties":{"name":"Erie","tier":"regions","id":80,"chordDeg":2.9,"spanDeg":6.05,"sizeHint":1.5},"geometry":{"type":"Point","coordinates":[-79.79997,43.98745]}},{"type":"Feature","properties":{"name":"Erie Stretch","tier":"regions","id":109,"chordDeg":2.9,"spanDeg":3.0,"sizeHint":1.5},"geometry":{"type":"Point","coordinates":[-75.13762,43.91623]}},{"type":"Feature","properties":{"name":"Naats'Jch'oh","tier":"regions","id":60,"chordDeg":2.8,"spanDeg":4.85,"sizeHint":1.5},"geometry":{"type":"Point","coordinates":[-119.23049,58.66099]}},{"type":"Feature","properties":{"name":"Wyoming","tier":"regions","id":88,"chordDeg":2.8,"spanDeg":3.15,"sizeHint":1.5},"geometry":{"type":"Point","coordinates":[-104.11203,43.58555]}},{"type":"Feature","properties":{"name":"Antelope","tier":"regions","id":92,"chordDeg":2.7,"spanDeg":3.05,"sizeHint":1.5},"geometry":{"type":"Point","coordinates":[-117.8734,40.52106]}},{"type":"Feature","properties":{"name":"TAA","tier":"regions","id":103,"chordDeg":2.7,"spanDeg":3.45,"sizeHint":1.5},"geometry":{"type":"Point","coordinates":[-100.69012,28.91602]}},{"type":"Feature","properties":{"name":"Santa Fe","tier":"regions","id":108,"chordDeg":2.7,"spanDeg":2.7,"sizeHint":1.5},"geometry":{"type":"Point","coordinates":[-105.75481,35.67394]}},{"type":"Feature","properties":{"name":"Selkirk","tier":"regions","id":52,"chordDeg":2.6,"spanDeg":5.55,"sizeHint":1.5},"geometry":{"type":"Point","coordinates":[-121.68461,57.38324]}},{"type":"Feature","properties":{"name":"Afika","tier":"regions","id":74,"chordDeg":2.5,"spanDeg":3.0,"sizeHint":1.5},"geometry":{"type":"Point","coordinates":[-91.62911,32.56757]}},{"type":"Feature","properties":{"name":"New Mexico","tier":"regions","id":49,"chordDeg":2.4,"spanDeg":4.55,"sizeHint":1.5},"geometry":{"type":"Point","coordinates":[-103.1268,33.5677]}},{"type":"Feature","properties":{"name":"Lone Star","tier":"regions","id":53,"chordDeg":2.3,"spanDeg":5.0,"sizeHint":1.5},"geometry":{"type":"Point","coordinates":[-96.939,30.54232]}},{"type":"Feature","properties":{"name":"Attiles","tier":"regions","id":68,"chordDeg":2.3,"spanDeg":4.15,"sizeHint":1.5},"geometry":{"type":"Point","coordinates":[-71.539,18.90649]}},{"type":"Feature","properties":{"name":"Pale","tier":"regions","id":85,"chordDeg":2.3,"spanDeg":3.25,"sizeHint":1.5},"geometry":{"type":"Point","coordinates":[-115.47632,39.06911]}},{"type":"Feature","properties":{"name":"Handogs","tier":"regions","id":97,"chordDeg":2.3,"spanDeg":2.4,"sizeHint":1.5},"geometry":{"type":"Point","coordinates":[-107.03364,40.47784]}},{"type":"Feature","properties":{"name":"Lincoln","tier":"regions","id":100,"chordDeg":2.3,"spanDeg":2.3,"sizeHint":1.5},"geometry":{"type":"Point","coordinates":[-106.67736,33.43667]}},{"type":"Feature","properties":{"name":"Baudelio","tier":"regions","id":69,"chordDeg":2.2,"spanDeg":3.0,"sizeHint":1.5},"geometry":{"type":"Point","coordinates":[-111.19908,29.52237]}},{"type":"Feature","properties":{"name":"Iroquois","tier":"regions","id":73,"chordDeg":2.2,"spanDeg":4.1,"sizeHint":1.5},"geometry":{"type":"Point","coordinates":[-77.38405,42.77394]}},{"type":"Feature","properties":{"name":"Iowa","tier":"regions","id":76,"chordDeg":2.2,"spanDeg":4.0,"sizeHint":1.5},"geometry":{"type":"Point","coordinates":[-85.38639,44.87674]}},{"type":"Feature","properties":{"name":"Carolina","tier":"regions","id":87,"chordDeg":2.2,"spanDeg":3.7,"sizeHint":1.5},"geometry":{"type":"Point","coordinates":[-81.65519,35.62592]}},{"type":"Feature","properties":{"name":"Guadalupe","tier":"regions","id":72,"chordDeg":2.1,"spanDeg":4.25,"sizeHint":1.5},"geometry":{"type":"Point","coordinates":[-102.50861,31.58]}},{"type":"Feature","properties":{"name":"Texas Brotherhood of Steel","tier":"regions","id":101,"chordDeg":2.1,"spanDeg":2.7,"sizeHint":1.5},"geometry":{"type":"Point","coordinates":[-99.35258,33.3076]}},{"type":"Feature","properties":{"name":"Osage","tier":"regions","id":119,"chordDeg":2.1,"spanDeg":2.35,"sizeHint":1.5},"geometry":{"type":"Point","coordinates":[-97.58688,35.56417]}},{"type":"Feature","properties":{"name":"Buffalo","tier":"regions","id":75,"chordDeg":2.0,"spanDeg":3.8,"sizeHint":1.5},"geometry":{"type":"Point","coordinates":[-113.56846,56.83403]}},{"type":"Feature","properties":{"name":"Ronto Republic","tier":"regions","id":94,"chordDeg":2.0,"spanDeg":3.05,"sizeHint":1.5},"geometry":{"type":"Point","coordinates":[-72.39642,42.22666]}},{"type":"Feature","properties":{"name":"Beltran-Levya","tier":"regions","id":57,"chordDeg":1.9,"spanDeg":3.3,"sizeHint":1.5},"geometry":{"type":"Point","coordinates":[-107.43441,25.46776]}},{"type":"Feature","properties":{"name":"Rio Grande","tier":"regions","id":59,"chordDeg":1.9,"spanDeg":3.5,"sizeHint":1.5},"geometry":{"type":"Point","coordinates":[-108.69576,26.87711]}},{"type":"Feature","properties":{"name":"Troll Warren","tier":"regions","id":81,"chordDeg":1.9,"spanDeg":4.15,"sizeHint":1.5},"geometry":{"type":"Point","coordinates":[-117.95324,47.98021]}},{"type":"Feature","properties":{"name":"Mark Twain","tier":"regions","id":111,"chordDeg":1.9,"spanDeg":2.05,"sizeHint":1.5},"geometry":{"type":"Point","coordinates":[-87.89094,35.93411]}},{"type":"Feature","properties":{"name":"Edens","tier":"regions","id":125,"chordDeg":1.9,"spanDeg":2.1,"sizeHint":1.5},"geometry":{"type":"Point","coordinates":[-100.07654,30.16049]}},{"type":"Feature","properties":{"name":"Jamaica","tier":"regions","id":156,"chordDeg":1.9,"spanDeg":1.95,"sizeHint":1.5},"geometry":{"type":"Point","coordinates":[-77.27667,18.09336]}},{"type":"Feature","properties":{"name":"Chemult","tier":"regions","id":93,"chordDeg":1.8,"spanDeg":2.95,"sizeHint":1.5},"geometry":{"type":"Point","coordinates":[-116.37291,42.96322]}},{"type":"Feature","properties":{"name":"Zetans","tier":"regions","id":124,"chordDeg":1.8,"spanDeg":2.15,"sizeHint":1.5},"geometry":{"type":"Point","coordinates":[-105.06153,33.30266]}},{"type":"Feature","properties":{"name":"Attis's Army","tier":"regions","id":162,"chordDeg":1.8,"spanDeg":1.9,"sizeHint":1.5},"geometry":{"type":"Point","coordinates":[-98.09768,31.76569]}},{"type":"Feature","properties":{"name":"Krewe","tier":"regions","id":86,"chordDeg":1.7,"spanDeg":2.6,"sizeHint":1.5},"geometry":{"type":"Point","coordinates":[-92.90464,30.33914]}},{"type":"Feature","properties":{"name":"Chicksaw","tier":"regions","id":106,"chordDeg":1.7,"spanDeg":2.25,"sizeHint":1.5},"geometry":{"type":"Point","coordinates":[-96.79472,32.99017]}},{"type":"Feature","properties":{"name":"Victoria","tier":"regions","id":107,"chordDeg":1.6,"spanDeg":3.05,"sizeHint":1.5},"geometry":{"type":"Point","coordinates":[-125.19818,50.53667]}},{"type":"Feature","properties":{"name":"New Hampshire","tier":"regions","id":110,"chordDeg":1.6,"spanDeg":2.65,"sizeHint":1.5},"geometry":{"type":"Point","coordinates":[-72.15723,43.98348]}},{"type":"Feature","properties":{"name":"Houston Republic","tier":"regions","id":123,"chordDeg":1.6,"spanDeg":1.8,"sizeHint":1.5},"geometry":{"type":"Point","coordinates":[-95.23268,32.85459]}},{"type":"Feature","properties":{"name":"Houston","tier":"regions","id":127,"chordDeg":1.6,"spanDeg":2.05,"sizeHint":1.5},"geometry":{"type":"Point","coordinates":[-94.66105,30.13888]}},{"type":"Feature","properties":{"name":"El Paso","tier":"regions","id":137,"chordDeg":1.6,"spanDeg":1.95,"sizeHint":1.5},"geometry":{"type":"Point","coordinates":[-106.18955,31.93237]}},{"type":"Feature","properties":{"name":"Murtaugh","tier":"regions","id":141,"chordDeg":1.6,"spanDeg":2.3,"sizeHint":1.5},"geometry":{"type":"Point","coordinates":[-114.85737,42.58927]}},{"type":"Feature","properties":{"name":"Topeka","tier":"regions","id":150,"chordDeg":1.6,"spanDeg":1.8,"sizeHint":1.5},"geometry":{"type":"Point","coordinates":[-96.8261,41.31786]}},{"type":"Feature","properties":{"name":"East Port","tier":"regions","id":154,"chordDeg":1.6,"spanDeg":1.85,"sizeHint":1.5},"geometry":{"type":"Point","coordinates":[-115.67418,41.4673]}},{"type":"Feature","properties":{"name":"Upstate","tier":"regions","id":82,"chordDeg":1.5,"spanDeg":4.25,"sizeHint":1.5},"geometry":{"type":"Point","coordinates":[-76.95336,41.24563]}},{"type":"Feature","properties":{"name":"Lawrence","tier":"regions","id":95,"chordDeg":1.5,"spanDeg":2.85,"sizeHint":1.5},"geometry":{"type":"Point","coordinates":[-75.21372,45.5681]}},{"type":"Feature","properties":{"name":"Panama","tier":"regions","id":99,"chordDeg":1.5,"spanDeg":2.1,"sizeHint":1.5},"geometry":{"type":"Point","coordinates":[-80.96777,8.3286]}},{"type":"Feature","properties":{"name":"Helena","tier":"regions","id":121,"chordDeg":1.5,"spanDeg":2.25,"sizeHint":1.5},"geometry":{"type":"Point","coordinates":[-107.60447,46.54088]}},{"type":"Feature","properties":{"name":"Flathead","tier":"regions","id":128,"chordDeg":1.5,"spanDeg":2.05,"sizeHint":1.5},"geometry":{"type":"Point","coordinates":[-109.10225,46.58917]}},{"type":"Feature","properties":{"name":"South Florida","tier":"regions","id":105,"chordDeg":1.4,"spanDeg":1.9,"sizeHint":1.5},"geometry":{"type":"Point","coordinates":[-80.81736,26.33088]}},{"type":"Feature","properties":{"name":"Illinois","tier":"regions","id":116,"chordDeg":1.4,"spanDeg":2.45,"sizeHint":1.5},"geometry":{"type":"Point","coordinates":[-88.07391,37.60595]}},{"type":"Feature","properties":{"name":"Nuka World","tier":"regions","id":132,"chordDeg":1.4,"spanDeg":2.1,"sizeHint":1.5},"geometry":{"type":"Point","coordinates":[-74.08154,42.24351]}},{"type":"Feature","properties":{"name":"Dead Horses","tier":"regions","id":158,"chordDeg":1.4,"spanDeg":1.5,"sizeHint":1.5},"geometry":{"type":"Point","coordinates":[-108.48286,39.81904]}},{"type":"Feature","properties":{"name":"Freedman","tier":"regions","id":90,"chordDeg":1.3,"spanDeg":3.2,"sizeHint":1.5},"geometry":{"type":"Point","coordinates":[-93.98598,32.7181]}},{"type":"Feature","properties":{"name":"Hammond","tier":"regions","id":104,"chordDeg":1.3,"spanDeg":2.65,"sizeHint":1.5},"geometry":{"type":"Point","coordinates":[-111.70345,41.67921]}},{"type":"Feature","properties":{"name":"Ires","tier":"regions","id":122,"chordDeg":1.3,"spanDeg":2.15,"sizeHint":1.5},"geometry":{"type":"Point","coordinates":[-111.66414,43.04649]}},{"type":"Feature","properties":{"name":"Lonetree","tier":"regions","id":131,"chordDeg":1.3,"spanDeg":2.15,"sizeHint":1.5},"geometry":{"type":"Point","coordinates":[-110.33625,42.22506]}},{"type":"Feature","properties":{"name":"Cypher","tier":"regions","id":136,"chordDeg":1.2,"spanDeg":1.9,"sizeHint":1.5},"geometry":{"type":"Point","coordinates":[-101.23551,32.48581]}},{"type":"Feature","properties":{"name":"Pursuant","tier":"regions","id":138,"chordDeg":1.2,"spanDeg":1.75,"sizeHint":1.5},"geometry":{"type":"Point","coordinates":[-99.08136,26.88985]}},{"type":"Feature","properties":{"name":"Tubeheads","tier":"regions","id":155,"chordDeg":1.2,"spanDeg":2.15,"sizeHint":1.5},"geometry":{"type":"Point","coordinates":[-99.11509,32.04844]}},{"type":"Feature","properties":{"name":"Carmacks","tier":"regions","id":164,"chordDeg":1.2,"spanDeg":1.45,"sizeHint":1.5},"geometry":{"type":"Point","coordinates":[-122.05721,55.77595]}},{"type":"Feature","properties":{"name":"Delta","tier":"regions","id":112,"chordDeg":1.1,"spanDeg":3.25,"sizeHint":1.5},"geometry":{"type":"Point","coordinates":[-110.61974,41.10062]}},{"type":"Feature","properties":{"name":"Panhandle","tier":"regions","id":133,"chordDeg":1.1,"spanDeg":2.9,"sizeHint":1.5},"geometry":{"type":"Point","coordinates":[-85.14963,30.31162]}},{"type":"Feature","properties":{"name":"Hidalgoan Empire","tier":"regions","id":175,"chordDeg":1.1,"spanDeg":1.35,"sizeHint":1.5},"geometry":{"type":"Point","coordinates":[-99.49754,28.67075]}},{"type":"Feature","properties":{"name":"Enola","tier":"regions","id":126,"chordDeg":1.0,"spanDeg":2.35,"sizeHint":1.5},"geometry":{"type":"Point","coordinates":[-82.90846,43.67671]}},{"type":"Feature","properties":{"name":"Caesar's Legion splinter group","tier":"regions","id":160,"chordDeg":1.0,"spanDeg":2.0,"sizeHint":0.73},"geometry":{"type":"Point","coordinates":[-113.67989,37.1396]}},{"type":"Feature","properties":{"name":"Maxsonian Dynasty","tier":"regions","id":118,"chordDeg":0.9,"spanDeg":2.05,"sizeHint":1.16},"geometry":{"type":"Point","coordinates":[-74.32484,41.0425]}},{"type":"Feature","properties":{"name":"Chicago","tier":"regions","id":134,"chordDeg":0.9,"spanDeg":2.35,"sizeHint":1.5},"geometry":{"type":"Point","coordinates":[-87.04614,41.37567]}},{"type":"Feature","properties":{"name":"Houston Republic","tier":"regions","id":178,"chordDeg":0.9,"spanDeg":1.3,"sizeHint":1.24},"geometry":{"type":"Point","coordinates":[-95.26578,31.95656]}},{"type":"Feature","properties":{"name":"Central American Confederation","tier":"regions","id":47,"chordDeg":0.7,"spanDeg":1.5,"sizeHint":0.51},"geometry":{"type":"Point","coordinates":[-82.20337,8.6176]}},{"type":"Feature","properties":{"name":"Austin","tier":"regions","id":165,"chordDeg":0.7,"spanDeg":1.45,"sizeHint":1.5},"geometry":{"type":"Point","coordinates":[-99.10218,30.10798]}},{"type":"Feature","properties":{"name":"Delaware","tier":"regions","id":149,"chordDeg":0.6,"spanDeg":0.9,"sizeHint":1.5},"geometry":{"type":"Point","coordinates":[-75.1547,39.57991]}},{"type":"Feature","properties":{"name":"Paz","tier":"regions","id":91,"chordDeg":0.4,"spanDeg":0.7,"sizeHint":1.5},"geometry":{"type":"Point","coordinates":[-113.62292,26.97857]}},{"type":"Feature","properties":{"name":"Wilmington and Myrtle Beach","tier":"regions","id":144,"chordDeg":0.4,"spanDeg":0.75,"sizeHint":0.5},"geometry":{"type":"Point","coordinates":[-76.87459,34.82261]}},{"type":"Feature","properties":{"name":"Djaka","tier":"regions","id":161,"chordDeg":0.4,"spanDeg":0.9,"sizeHint":1.5},"geometry":{"type":"Point","coordinates":[-81.51603,30.15781]}},{"type":"Feature","properties":{"name":"Gullah land","tier":"regions","id":185,"chordDeg":0.2,"spanDeg":0.45,"sizeHint":0.5},"geometry":{"type":"Point","coordinates":[-80.54773,32.45607]}}]}
