{"_doc":"DERIVED. One LineString per named territory: the chord its name should curve along, found by the ray-cast technique ported from Azgaar's Fantasy Map Generator (MIT) and recorded in docs/changes/map-timeline/map-generator-precedents.md. Feed to a MapLibre symbol layer with `symbol-placement: line`; MapLibre supplies collision and priority, which is the part FMG does NOT solve. `sizeHint` is a ratio, not a size - the renderer owns the base. Rebuild with tools/build-label-baselines.py.","type":"FeatureCollection","features":[{"type":"Feature","properties":{"name":"Hudson","tier":"regions","id":12,"chordDeg":17.85,"sizeHint":1.5},"geometry":{"type":"LineString","coordinates":[[-99.69389,57.9825],[-98.12465,57.47263],[-82.71754,52.46655]]}},{"type":"Feature","properties":{"name":"Caribou","tier":"regions","id":3,"chordDeg":15.7,"sizeHint":1.5},"geometry":{"type":"LineString","coordinates":[[-119.18465,62.32721],[-113.45606,61.41989],[-103.67794,59.87119]]}},{"type":"Feature","properties":{"name":"Alaskan Federation","tier":"regions","id":4,"chordDeg":14.6,"sizeHint":1.5},"geometry":{"type":"LineString","coordinates":[[-140.34321,63.13965],[-129.67617,64.82914],[-125.92296,65.42359]]}},{"type":"Feature","properties":{"name":"Alberta-Saskatchewan Confederation","tier":"regions","id":2,"chordDeg":14.05,"sizeHint":1.5},"geometry":{"type":"LineString","coordinates":[[-122.33792,52.29707],[-115.88792,52.29707],[-108.28792,52.29707]]}},{"type":"Feature","properties":{"name":"New California Republic","tier":"regions","id":6,"chordDeg":13.95,"sizeHint":1.5},"geometry":{"type":"LineString","coordinates":[[-122.43437,43.55265],[-118.91594,36.64735],[-116.1012,31.12311]]}},{"type":"Feature","properties":{"name":"Gran Colombia","tier":"regions","id":9,"chordDeg":13.95,"sizeHint":1.5},"geometry":{"type":"LineString","coordinates":[[-78.19335,8.30282],[-74.31747,6.32797],[-65.76381,1.96966]]}},{"type":"Feature","properties":{"name":"Albion and Newfoundland","tier":"regions","id":1,"chordDeg":13.9,"sizeHint":1.5},"geometry":{"type":"LineString","coordinates":[[-77.38333,55.51746],[-73.33333,55.51746],[-63.48333,55.51746]]}},{"type":"Feature","properties":{"name":"New Canada","tier":"regions","id":7,"chordDeg":13.5,"sizeHint":1.5},"geometry":{"type":"LineString","coordinates":[[-91.15578,52.10603],[-82.1683,49.18582],[-78.31652,47.9343]]}},{"type":"Feature","properties":{"name":"Cause","tier":"regions","id":18,"chordDeg":12.85,"sizeHint":1.5},"geometry":{"type":"LineString","coordinates":[[-128.57109,58.62755],[-124.39782,52.88353],[-121.01805,48.23169]]}},{"type":"Feature","properties":{"name":"New California Republic","tier":"macroTerritories","id":"ncr","chordDeg":12.85,"sizeHint":1.5},"geometry":{"type":"LineString","coordinates":[[-121.3504,47.36959],[-120.84981,44.20899],[-119.34022,34.6778]]}},{"type":"Feature","properties":{"name":"Texas Commonwealth","tier":"macroTerritories","id":"texas","chordDeg":12.25,"sizeHint":1.5},"geometry":{"type":"LineString","coordinates":[[-105.4486,30.80781],[-97.99155,31.98889],[-93.34942,32.72413]]}},{"type":"Feature","properties":{"name":"Vulpes/Lanius/Caesar Legion","tier":"regions","id":10,"chordDeg":10.95,"sizeHint":1.5},"geometry":{"type":"LineString","coordinates":[[-115.55081,32.17593],[-109.71471,35.14957],[-105.79428,37.14712]]}},{"type":"Feature","properties":{"name":"Caesar's Legion","tier":"macroTerritories","id":"legion","chordDeg":10.95,"sizeHint":1.5},"geometry":{"type":"LineString","coordinates":[[-115.55081,32.17593],[-109.71471,35.14957],[-105.79428,37.14712]]}},{"type":"Feature","properties":{"name":"Minnesota","tier":"regions","id":13,"chordDeg":10.75,"sizeHint":1.5},"geometry":{"type":"LineString","coordinates":[[-97.80535,45.92052],[-94.61931,46.95572],[-87.58149,49.24245]]}},{"type":"Feature","properties":{"name":"Brotherhood of Steel","tier":"macroTerritories","id":"brotherhood","chordDeg":10.6,"sizeHint":1.5},"geometry":{"type":"LineString","coordinates":[[-103.59081,37.94906],[-95.59081,37.94906],[-92.99081,37.94906]]}},{"type":"Feature","properties":{"name":"Winnipeg","tier":"regions","id":16,"chordDeg":10.55,"sizeHint":1.5},"geometry":{"type":"LineString","coordinates":[[-108.55961,50.20395],[-102.48533,51.16602],[-98.1395,51.85433]]}},{"type":"Feature","properties":{"name":"Chicagoan Military State","tier":"regions","id":28,"chordDeg":10.55,"sizeHint":1.5},"geometry":{"type":"LineString","coordinates":[[-79.41179,45.50076],[-74.19363,49.29197],[-70.87666,51.70189]]}},{"type":"Feature","properties":{"name":"New Saskatchewan","tier":"regions","id":11,"chordDeg":10.35,"sizeHint":1.5},"geometry":{"type":"LineString","coordinates":[[-112.4619,54.93643],[-109.15314,55.46049],[-102.23933,56.55553]]}},{"type":"Feature","properties":{"name":"Manitoba","tier":"regions","id":17,"chordDeg":9.95,"sizeHint":1.5},"geometry":{"type":"LineString","coordinates":[[-99.75422,55.14058],[-94.45273,52.43934],[-90.8887,50.62337]]}},{"type":"Feature","properties":{"name":"Nebraska","tier":"regions","id":35,"chordDeg":9.75,"sizeHint":1.5},"geometry":{"type":"LineString","coordinates":[[-106.11391,38.84614],[-100.1384,39.79257],[-96.48395,40.37137]]}},{"type":"Feature","properties":{"name":"Northwest Republic","tier":"regions","id":5,"chordDeg":9.35,"sizeHint":1.5},"geometry":{"type":"LineString","coordinates":[[-103.86104,60.61356],[-101.91104,60.61356],[-94.51104,60.61356]]}},{"type":"Feature","properties":{"name":"Alaskan Brotherhood","tier":"regions","id":26,"chordDeg":8.75,"sizeHint":1.5},"geometry":{"type":"LineString","coordinates":[[-138.52527,62.18494],[-131.90776,61.13683],[-129.883,60.81614]]}},{"type":"Feature","properties":{"name":"Tlalocan","tier":"regions","id":15,"chordDeg":8.55,"sizeHint":1.5},"geometry":{"type":"LineString","coordinates":[[-103.257,20.01311],[-101.11858,18.92353],[-95.63889,16.13149]]}},{"type":"Feature","properties":{"name":"Brotherhood of Steel","tier":"regions","id":23,"chordDeg":8.25,"sizeHint":1.5},"geometry":{"type":"LineString","coordinates":[[-96.64849,39.94319],[-90.64849,39.94319],[-88.39849,39.94319]]}},{"type":"Feature","properties":{"name":"Hondurus","tier":"regions","id":27,"chordDeg":8.15,"sizeHint":1.5},"geometry":{"type":"LineString","coordinates":[[-92.6972,15.24876],[-86.22784,14.22411],[-84.64754,13.97382]]}},{"type":"Feature","properties":{"name":"Dixie Union","tier":"regions","id":25,"chordDeg":7.95,"sizeHint":1.5},"geometry":{"type":"LineString","coordinates":[[-83.95313,34.60901],[-83.22694,32.37402],[-81.49644,27.04811]]}},{"type":"Feature","properties":{"name":"Valle","tier":"regions","id":77,"chordDeg":7.75,"sizeHint":1.5},"geometry":{"type":"LineString","coordinates":[[-115.85742,31.04649],[-113.56505,27.89133],[-111.30208,24.77661]]}},{"type":"Feature","properties":{"name":"Idaho","tier":"regions","id":38,"chordDeg":7.55,"sizeHint":1.5},"geometry":{"type":"LineString","coordinates":[[-109.97716,43.2563],[-108.40791,42.74643],[-102.79668,40.92322]]}},{"type":"Feature","properties":{"name":"Khans","tier":"regions","id":30,"chordDeg":7.45,"sizeHint":1.5},"geometry":{"type":"LineString","coordinates":[[-117.05257,47.35623],[-114.4241,46.01696],[-110.41457,43.974]]}},{"type":"Feature","properties":{"name":"NCR Frontier","tier":"regions","id":29,"chordDeg":7.15,"sizeHint":1.5},"geometry":{"type":"LineString","coordinates":[[-123.30847,47.03755],[-120.2345,45.47129],[-116.93778,43.79152]]}},{"type":"Feature","properties":{"name":"Hidalgoan Empire","tier":"regions","id":22,"chordDeg":7.1,"sizeHint":1.5},"geometry":{"type":"LineString","coordinates":[[-107.70945,26.88435],[-102.96855,27.63524],[-100.69686,27.99504]]}},{"type":"Feature","properties":{"name":"Chichenitza","tier":"regions","id":19,"chordDeg":6.7,"sizeHint":1.5},"geometry":{"type":"LineString","coordinates":[[-91.90392,15.93301],[-90.64018,17.6724],[-87.96576,21.35343]]}},{"type":"Feature","properties":{"name":"Petro Chico","tier":"regions","id":24,"chordDeg":6.7,"sizeHint":1.5},"geometry":{"type":"LineString","coordinates":[[-105.60342,24.66314],[-103.90449,23.42879],[-100.18301,20.72497]]}},{"type":"Feature","properties":{"name":"Venezuela","tier":"regions","id":31,"chordDeg":6.7,"sizeHint":1.5},"geometry":{"type":"LineString","coordinates":[[-69.83566,11.69163],[-68.31479,8.70676],[-66.79392,5.72189]]}},{"type":"Feature","properties":{"name":"Yukon","tier":"regions","id":21,"chordDeg":6.6,"sizeHint":1.5},"geometry":{"type":"LineString","coordinates":[[-126.43925,60.15485],[-124.82284,57.93005],[-122.55987,54.81534]]}},{"type":"Feature","properties":{"name":"Cuba","tier":"regions","id":50,"chordDeg":6.6,"sizeHint":1.5},"geometry":{"type":"LineString","coordinates":[[-81.04863,22.99701],[-77.88555,21.38534],[-75.16798,20.00067]]}},{"type":"Feature","properties":{"name":"Oklahoma","tier":"regions","id":40,"chordDeg":6.25,"sizeHint":1.5},"geometry":{"type":"LineString","coordinates":[[-102.51928,36.20565],[-100.90248,35.68032],[-96.57517,34.2743]]}},{"type":"Feature","properties":{"name":"Lakota","tier":"regions","id":45,"chordDeg":6.2,"sizeHint":1.5},"geometry":{"type":"LineString","coordinates":[[-104.01819,47.70938],[-100.73705,46.64328],[-98.12164,45.79348]]}},{"type":"Feature","properties":{"name":"Chapel","tier":"regions","id":70,"chordDeg":6.05,"sizeHint":1.5},"geometry":{"type":"LineString","coordinates":[[-115.59995,37.65285],[-112.48874,38.14562],[-109.62444,38.59928]]}},{"type":"Feature","properties":{"name":"Erie","tier":"regions","id":80,"chordDeg":6.05,"sizeHint":1.5},"geometry":{"type":"LineString","coordinates":[[-83.52144,46.69127],[-79.79997,43.98745],[-78.62689,43.13516]]}},{"type":"Feature","properties":{"name":"CSA","tier":"regions","id":34,"chordDeg":5.85,"sizeHint":1.5},"geometry":{"type":"LineString","coordinates":[[-91.02765,30.44523],[-88.376,33.09688],[-86.89108,34.58181]]}},{"type":"Feature","properties":{"name":"Missouri","tier":"regions","id":37,"chordDeg":5.7,"sizeHint":1.5},"geometry":{"type":"LineString","coordinates":[[-86.94729,35.15003],[-85.49106,36.20804],[-82.33589,38.5004]]}},{"type":"Feature","properties":{"name":"Quebec","tier":"regions","id":48,"chordDeg":5.7,"sizeHint":1.5},"geometry":{"type":"LineString","coordinates":[[-74.24631,46.84615],[-70.77495,45.71824],[-68.82528,45.08476]]}},{"type":"Feature","properties":{"name":"Ozark","tier":"regions","id":42,"chordDeg":5.65,"sizeHint":1.5},"geometry":{"type":"LineString","coordinates":[[-93.56225,39.2021],[-90.32618,36.85096],[-88.9913,35.88111]]}},{"type":"Feature","properties":{"name":"Tetlit Gwich'in","tier":"regions","id":36,"chordDeg":5.6,"sizeHint":1.5},"geometry":{"type":"LineString","coordinates":[[-124.35392,59.96366],[-121.50392,59.96366],[-118.75392,59.96366]]}},{"type":"Feature","properties":{"name":"Ohio","tier":"regions","id":44,"chordDeg":5.55,"sizeHint":1.5},"geometry":{"type":"LineString","coordinates":[[-81.69138,37.49803],[-78.48376,39.13239],[-76.7463,40.01767]]}},{"type":"Feature","properties":{"name":"Selkirk","tier":"regions","id":52,"chordDeg":5.55,"sizeHint":1.5},"geometry":{"type":"LineString","coordinates":[[-122.96861,57.5866],[-121.68461,57.38324],[-117.48694,56.71839]]}},{"type":"Feature","properties":{"name":"New America","tier":"regions","id":67,"chordDeg":5.55,"sizeHint":1.5},"geometry":{"type":"LineString","coordinates":[[-101.49456,41.72738],[-98.58088,42.18886],[-96.01289,42.59559]]}},{"type":"Feature","properties":{"name":"Cherokee","tier":"regions","id":39,"chordDeg":5.2,"sizeHint":1.5},"geometry":{"type":"LineString","coordinates":[[-98.06198,36.53869],[-94.75323,37.06274],[-92.926,37.35215]]}},{"type":"Feature","properties":{"name":"Caesar's Legion","tier":"regions","id":56,"chordDeg":5.1,"sizeHint":1.5},"geometry":{"type":"LineString","coordinates":[[-110.91609,31.55237],[-108.05179,31.09871],[-105.87888,30.75455]]}},{"type":"Feature","properties":{"name":"Lone Star","tier":"regions","id":53,"chordDeg":5.0,"sizeHint":1.5},"geometry":{"type":"LineString","coordinates":[[-100.7416,31.1446],[-96.939,30.54232],[-95.80316,30.36242]]}},{"type":"Feature","properties":{"name":"Naats'Jch'oh","tier":"regions","id":60,"chordDeg":4.85,"sizeHint":1.5},"geometry":{"type":"LineString","coordinates":[[-120.61325,58.44198],[-119.23049,58.66099],[-115.82296,59.20069]]}},{"type":"Feature","properties":{"name":"Wapusk","tier":"regions","id":64,"chordDeg":4.7,"sizeHint":1.5},"geometry":{"type":"LineString","coordinates":[[-104.59029,55.2209],[-101.59029,55.2209],[-99.89029,55.2209]]}},{"type":"Feature","properties":{"name":"Pecos","tier":"regions","id":55,"chordDeg":4.65,"sizeHint":1.5},"geometry":{"type":"LineString","coordinates":[[-108.95665,27.66325],[-107.54087,28.69188],[-105.19472,30.39646]]}},{"type":"Feature","properties":{"name":"North Nebraska","tier":"regions","id":61,"chordDeg":4.65,"sizeHint":1.5},"geometry":{"type":"LineString","coordinates":[[-103.57853,45.1878],[-101.23238,43.48322],[-99.8166,42.4546]]}},{"type":"Feature","properties":{"name":"New Mexico","tier":"regions","id":49,"chordDeg":4.55,"sizeHint":1.5},"geometry":{"type":"LineString","coordinates":[[-104.64767,36.55257],[-103.1268,33.5677],[-102.58202,32.49849]]}},{"type":"Feature","properties":{"name":"Colombia","tier":"regions","id":54,"chordDeg":4.5,"sizeHint":1.5},"geometry":{"type":"LineString","coordinates":[[-80.28212,36.6994],[-77.95203,35.94231],[-76.00236,35.30882]]}},{"type":"Feature","properties":{"name":"Ejercito Mexicano","tier":"regions","id":62,"chordDeg":4.3,"sizeHint":1.5},"geometry":{"type":"LineString","coordinates":[[-101.14024,22.41457],[-100.45925,23.75108],[-99.18808,26.2459]]}},{"type":"Feature","properties":{"name":"Guadalupe","tier":"regions","id":72,"chordDeg":4.25,"sizeHint":1.5},"geometry":{"type":"LineString","coordinates":[[-105.66921,31.07941],[-102.50861,31.58],[-101.47153,31.74425]]}},{"type":"Feature","properties":{"name":"Upstate","tier":"regions","id":82,"chordDeg":4.25,"sizeHint":1.5},"geometry":{"type":"LineString","coordinates":[[-77.29385,41.91388],[-76.95336,41.24563],[-75.36439,38.12711]]}},{"type":"Feature","properties":{"name":"Seattle","tier":"regions","id":147,"chordDeg":4.25,"sizeHint":1.5},"geometry":{"type":"LineString","coordinates":[[-127.4701,50.52287],[-125.91083,49.72838],[-123.68332,48.59341]]}},{"type":"Feature","properties":{"name":"Attiles","tier":"regions","id":68,"chordDeg":4.15,"sizeHint":1.5},"geometry":{"type":"LineString","coordinates":[[-72.67484,19.08639],[-71.539,18.90649],[-68.57593,18.43719]]}},{"type":"Feature","properties":{"name":"Troll Warren","tier":"regions","id":81,"chordDeg":4.15,"sizeHint":1.5},"geometry":{"type":"LineString","coordinates":[[-121.15324,47.98021],[-117.95324,47.98021],[-117.00324,47.98021]]}},{"type":"Feature","properties":{"name":"Iroquois","tier":"regions","id":73,"chordDeg":4.1,"sizeHint":1.5},"geometry":{"type":"LineString","coordinates":[[-78.36416,43.27333],[-77.38405,42.77394],[-74.71104,41.41197]]}},{"type":"Feature","properties":{"name":"Iowa","tier":"regions","id":76,"chordDeg":4.0,"sizeHint":1.5},"geometry":{"type":"LineString","coordinates":[[-85.55847,45.9632],[-85.38639,44.87674],[-84.93273,42.01245]]}},{"type":"Feature","properties":{"name":"Indiana","tier":"regions","id":65,"chordDeg":3.9,"sizeHint":1.5},"geometry":{"type":"LineString","coordinates":[[-88.34026,39.79115],[-86.53326,39.20401],[-84.63114,38.58598]]}},{"type":"Feature","properties":{"name":"Buffalo","tier":"regions","id":75,"chordDeg":3.8,"sizeHint":1.5},"geometry":{"type":"LineString","coordinates":[[-116.33399,57.27205],[-113.56846,56.83403],[-112.58077,56.6776]]}},{"type":"Feature","properties":{"name":"Carolina","tier":"regions","id":87,"chordDeg":3.7,"sizeHint":1.5},"geometry":{"type":"LineString","coordinates":[[-84.12793,34.82247],[-81.65519,35.62592],[-80.60902,35.96584]]}},{"type":"Feature","properties":{"name":"Carolina Confederacy","tier":"regions","id":63,"chordDeg":3.65,"sizeHint":1.5},"geometry":{"type":"LineString","coordinates":[[-80.37804,32.51685],[-80.10428,34.24531],[-79.80706,36.12192]]}},{"type":"Feature","properties":{"name":"Rio Grande","tier":"regions","id":59,"chordDeg":3.5,"sizeHint":1.5},"geometry":{"type":"LineString","coordinates":[[-110.75876,28.37597],[-108.69576,26.87711],[-107.9272,26.31872]]}},{"type":"Feature","properties":{"name":"TAA","tier":"regions","id":103,"chordDeg":3.45,"sizeHint":1.5},"geometry":{"type":"LineString","coordinates":[[-102.17505,30.40094],[-100.69012,28.91602],[-99.73553,27.96142]]}},{"type":"Feature","properties":{"name":"Beltran-Levya","tier":"regions","id":57,"chordDeg":3.3,"sizeHint":1.5},"geometry":{"type":"LineString","coordinates":[[-107.8657,26.31422],[-107.43441,25.46776],[-106.36753,23.3739]]}},{"type":"Feature","properties":{"name":"Pale","tier":"regions","id":85,"chordDeg":3.25,"sizeHint":1.5},"geometry":{"type":"LineString","coordinates":[[-117.57632,39.06911],[-115.47632,39.06911],[-114.32632,39.06911]]}},{"type":"Feature","properties":{"name":"Delta","tier":"regions","id":112,"chordDeg":3.25,"sizeHint":1.5},"geometry":{"type":"LineString","coordinates":[[-112.80409,39.5136],[-110.61974,41.10062],[-110.17478,41.4239]]}},{"type":"Feature","properties":{"name":"Freedman","tier":"regions","id":90,"chordDeg":3.2,"sizeHint":1.5},"geometry":{"type":"LineString","coordinates":[[-94.4456,33.17772],[-93.98598,32.7181],[-92.18286,30.91498]]}},{"type":"Feature","properties":{"name":"Wyoming","tier":"regions","id":88,"chordDeg":3.15,"sizeHint":1.5},"geometry":{"type":"LineString","coordinates":[[-105.52781,44.61417],[-104.11203,43.58555],[-102.97941,42.76265]]}},{"type":"Feature","properties":{"name":"Antelope","tier":"regions","id":92,"chordDeg":3.05,"sizeHint":1.5},"geometry":{"type":"LineString","coordinates":[[-119.07626,39.90817],[-117.8734,40.52106],[-116.35869,41.29284]]}},{"type":"Feature","properties":{"name":"Ronto Republic","tier":"regions","id":94,"chordDeg":3.05,"sizeHint":1.5},"geometry":{"type":"LineString","coordinates":[[-73.34747,42.53568],[-72.39642,42.22666],[-70.44675,41.59318]]}},{"type":"Feature","properties":{"name":"Victoria","tier":"regions","id":107,"chordDeg":3.05,"sizeHint":1.5},"geometry":{"type":"LineString","coordinates":[[-127.33805,51.23196],[-125.19818,50.53667],[-124.43733,50.28946]]}},{"type":"Feature","properties":{"name":"Baudelio","tier":"regions","id":69,"chordDeg":3.0,"sizeHint":1.5},"geometry":{"type":"LineString","coordinates":[[-112.73621,30.63916],[-111.19908,29.52237],[-110.30916,28.8758]]}},{"type":"Feature","properties":{"name":"Afika","tier":"regions","id":74,"chordDeg":3.0,"sizeHint":1.5},"geometry":{"type":"LineString","coordinates":[[-93.29346,33.10835],[-91.62911,32.56757],[-90.44029,32.1813]]}},{"type":"Feature","properties":{"name":"Erie Stretch","tier":"regions","id":109,"chordDeg":3.0,"sizeHint":1.5},"geometry":{"type":"LineString","coordinates":[[-76.3107,44.76852],[-75.13762,43.91623],[-73.88365,43.00516]]}},{"type":"Feature","properties":{"name":"Chemult","tier":"regions","id":93,"chordDeg":2.95,"sizeHint":1.5},"geometry":{"type":"LineString","coordinates":[[-118.19947,42.03254],[-116.37291,42.96322],[-115.571,43.37181]]}},{"type":"Feature","properties":{"name":"Panhandle","tier":"regions","id":133,"chordDeg":2.9,"sizeHint":1.5},"geometry":{"type":"LineString","coordinates":[[-87.4707,30.67924],[-85.14963,30.31162],[-84.6064,30.22558]]}},{"type":"Feature","properties":{"name":"Lawrence","tier":"regions","id":95,"chordDeg":2.85,"sizeHint":1.5},"geometry":{"type":"LineString","coordinates":[[-77.28787,45.23958],[-75.21372,45.5681],[-74.47296,45.68542]]}},{"type":"Feature","properties":{"name":"Texas Brotherhood of Steel","tier":"regions","id":101,"chordDeg":2.7,"sizeHint":1.5},"geometry":{"type":"LineString","coordinates":[[-100.20205,33.92477],[-99.35258,33.3076],[-98.0177,32.33775]]}},{"type":"Feature","properties":{"name":"Santa Fe","tier":"regions","id":108,"chordDeg":2.7,"sizeHint":1.5},"geometry":{"type":"LineString","coordinates":[[-106.70941,34.71934],[-105.75481,35.67394],[-104.80022,36.62853]]}},{"type":"Feature","properties":{"name":"Hammond","tier":"regions","id":104,"chordDeg":2.65,"sizeHint":1.5},"geometry":{"type":"LineString","coordinates":[[-113.48547,42.58719],[-111.70345,41.67921],[-111.1243,41.38411]]}},{"type":"Feature","properties":{"name":"New Hampshire","tier":"regions","id":110,"chordDeg":2.65,"sizeHint":1.5},"geometry":{"type":"LineString","coordinates":[[-72.44664,45.8107],[-72.15723,43.98348],[-72.03209,43.19333]]}},{"type":"Feature","properties":{"name":"Krewe","tier":"regions","id":86,"chordDeg":2.6,"sizeHint":1.5},"geometry":{"type":"LineString","coordinates":[[-93.75464,30.33914],[-92.90464,30.33914],[-91.15464,30.33914]]}},{"type":"Feature","properties":{"name":"Illinois","tier":"regions","id":116,"chordDeg":2.45,"sizeHint":1.5},"geometry":{"type":"LineString","coordinates":[[-89.48969,38.63458],[-88.07391,37.60595],[-87.5076,37.1945]]}},{"type":"Feature","properties":{"name":"Handogs","tier":"regions","id":97,"chordDeg":2.4,"sizeHint":1.5},"geometry":{"type":"LineString","coordinates":[[-107.70959,39.54747],[-107.03364,40.47784],[-106.2989,41.48911]]}},{"type":"Feature","properties":{"name":"Osage","tier":"regions","id":119,"chordDeg":2.35,"sizeHint":1.5},"geometry":{"type":"LineString","coordinates":[[-98.74519,36.15436],[-97.58688,35.56417],[-96.65132,35.08748]]}},{"type":"Feature","properties":{"name":"Enola","tier":"regions","id":126,"chordDeg":2.35,"sizeHint":1.5},"geometry":{"type":"LineString","coordinates":[[-84.73569,43.96611],[-82.90846,43.67671],[-82.41462,43.59849]]}},{"type":"Feature","properties":{"name":"Chicago","tier":"regions","id":134,"chordDeg":2.35,"sizeHint":1.5},"geometry":{"type":"LineString","coordinates":[[-87.4471,41.17137],[-87.04614,41.37567],[-85.35323,42.23825]]}},{"type":"Feature","properties":{"name":"Lincoln","tier":"regions","id":100,"chordDeg":2.3,"sizeHint":1.5},"geometry":{"type":"LineString","coordinates":[[-107.60773,32.76072],[-106.67736,33.43667],[-105.74699,34.11263]]}},{"type":"Feature","properties":{"name":"Murtaugh","tier":"regions","id":141,"chordDeg":2.3,"sizeHint":1.5},"geometry":{"type":"LineString","coordinates":[[-115.64752,42.46413],[-114.85737,42.58927],[-113.37583,42.82393]]}},{"type":"Feature","properties":{"name":"Chicksaw","tier":"regions","id":106,"chordDeg":2.25,"sizeHint":1.5},"geometry":{"type":"LineString","coordinates":[[-98.12619,33.42279],[-96.79472,32.99017],[-95.98632,32.7275]]}},{"type":"Feature","properties":{"name":"Helena","tier":"regions","id":121,"chordDeg":2.25,"sizeHint":1.5},"geometry":{"type":"LineString","coordinates":[[-107.94496,47.20913],[-107.60447,46.54088],[-106.92349,45.20437]]}},{"type":"Feature","properties":{"name":"Ires","tier":"regions","id":122,"chordDeg":2.15,"sizeHint":1.5},"geometry":{"type":"LineString","coordinates":[[-113.14567,42.81184],[-111.66414,43.04649],[-111.02214,43.14817]]}},{"type":"Feature","properties":{"name":"Zetans","tier":"regions","id":124,"chordDeg":2.15,"sizeHint":1.5},"geometry":{"type":"LineString","coordinates":[[-105.69792,32.66626],[-105.06153,33.30266],[-104.17764,34.18654]]}},{"type":"Feature","properties":{"name":"Lonetree","tier":"regions","id":131,"chordDeg":2.15,"sizeHint":1.5},"geometry":{"type":"LineString","coordinates":[[-110.33625,41.57506],[-110.33625,42.22506],[-110.33625,43.72506]]}},{"type":"Feature","properties":{"name":"Tubeheads","tier":"regions","id":155,"chordDeg":2.15,"sizeHint":1.5},"geometry":{"type":"LineString","coordinates":[[-100.66509,32.04844],[-99.11509,32.04844],[-98.51509,32.04844]]}},{"type":"Feature","properties":{"name":"Panama","tier":"regions","id":99,"chordDeg":2.1,"sizeHint":1.5},"geometry":{"type":"LineString","coordinates":[[-81.63603,7.98811],[-80.96777,8.3286],[-79.76491,8.94149]]}},{"type":"Feature","properties":{"name":"Edens","tier":"regions","id":125,"chordDeg":2.1,"sizeHint":1.5},"geometry":{"type":"LineString","coordinates":[[-100.88972,30.97367],[-100.07654,30.16049],[-99.40479,29.48874]]}},{"type":"Feature","properties":{"name":"Nuka World","tier":"regions","id":132,"chordDeg":2.1,"sizeHint":1.5},"geometry":{"type":"LineString","coordinates":[[-74.49299,42.80982],[-74.08154,42.24351],[-73.25864,41.11089]]}},{"type":"Feature","properties":{"name":"Mark Twain","tier":"regions","id":111,"chordDeg":2.05,"sizeHint":1.5},"geometry":{"type":"LineString","coordinates":[[-88.39033,36.91422],[-87.89094,35.93411],[-87.45965,35.08766]]}},{"type":"Feature","properties":{"name":"Maxsonian Dynasty","tier":"regions","id":118,"chordDeg":2.05,"sizeHint":1.5},"geometry":{"type":"LineString","coordinates":[[-74.57513,39.4622],[-74.32484,41.0425],[-74.25444,41.48696]]}},{"type":"Feature","properties":{"name":"Houston","tier":"regions","id":127,"chordDeg":2.05,"sizeHint":1.5},"geometry":{"type":"LineString","coordinates":[[-95.91105,30.13888],[-94.66105,30.13888],[-93.86105,30.13888]]}},{"type":"Feature","properties":{"name":"Flathead","tier":"regions","id":128,"chordDeg":2.05,"sizeHint":1.5},"geometry":{"type":"LineString","coordinates":[[-109.70901,46.14833],[-109.10225,46.58917],[-108.05053,47.35329]]}},{"type":"Feature","properties":{"name":"Caesar's Legion splinter group","tier":"regions","id":160,"chordDeg":2.0,"sizeHint":1.47},"geometry":{"type":"LineString","coordinates":[[-115.10647,36.67608],[-113.67989,37.1396],[-113.20436,37.29411]]}},{"type":"Feature","properties":{"name":"El Paso","tier":"regions","id":137,"chordDeg":1.95,"sizeHint":1.5},"geometry":{"type":"LineString","coordinates":[[-107.21421,32.45445],[-106.18955,31.93237],[-105.47675,31.56917]]}},{"type":"Feature","properties":{"name":"Jamaica","tier":"regions","id":156,"chordDeg":1.95,"sizeHint":1.5},"geometry":{"type":"LineString","coordinates":[[-78.26436,18.24979],[-77.27667,18.09336],[-76.33837,17.94475]]}},{"type":"Feature","properties":{"name":"South Florida","tier":"regions","id":105,"chordDeg":1.9,"sizeHint":1.5},"geometry":{"type":"LineString","coordinates":[[-80.81736,25.13088],[-80.81736,26.33088],[-80.81736,27.03088]]}},{"type":"Feature","properties":{"name":"Cypher","tier":"regions","id":136,"chordDeg":1.9,"sizeHint":1.5},"geometry":{"type":"LineString","coordinates":[[-101.72092,32.13314],[-101.23551,32.48581],[-100.18378,33.24993]]}},{"type":"Feature","properties":{"name":"Attis's Army","tier":"regions","id":162,"chordDeg":1.9,"sizeHint":1.5},"geometry":{"type":"LineString","coordinates":[[-99.04874,31.45667],[-98.09768,31.76569],[-97.24173,32.0438]]}},{"type":"Feature","properties":{"name":"East Port","tier":"regions","id":154,"chordDeg":1.85,"sizeHint":1.5},"geometry":{"type":"LineString","coordinates":[[-116.43502,41.71451],[-115.67418,41.4673],[-114.67557,41.14283]]}},{"type":"Feature","properties":{"name":"Houston Republic","tier":"regions","id":123,"chordDeg":1.8,"sizeHint":1.5},"geometry":{"type":"LineString","coordinates":[[-95.87989,32.38436],[-95.23268,32.85459],[-94.42366,33.44237]]}},{"type":"Feature","properties":{"name":"Topeka","tier":"regions","id":150,"chordDeg":1.8,"sizeHint":1.5},"geometry":{"type":"LineString","coordinates":[[-97.77716,41.00884],[-96.8261,41.31786],[-96.06525,41.56508]]}},{"type":"Feature","properties":{"name":"Pursuant","tier":"regions","id":138,"chordDeg":1.75,"sizeHint":1.5},"geometry":{"type":"LineString","coordinates":[[-100.2172,27.06975],[-99.08136,26.88985],[-98.48875,26.79599]]}},{"type":"Feature","properties":{"name":"Central American Confederation","tier":"regions","id":47,"chordDeg":1.5,"sizeHint":1.1},"geometry":{"type":"LineString","coordinates":[[-83.33921,8.4377],[-82.20337,8.6176],[-81.85767,8.67236]]}},{"type":"Feature","properties":{"name":"Dead Horses","tier":"regions","id":158,"chordDeg":1.5,"sizeHint":1.5},"geometry":{"type":"LineString","coordinates":[[-109.19567,40.18224],[-108.48286,39.81904],[-107.85916,39.50125]]}},{"type":"Feature","properties":{"name":"Carmacks","tier":"regions","id":164,"chordDeg":1.45,"sizeHint":1.5},"geometry":{"type":"LineString","coordinates":[[-122.64982,55.86981],[-122.05721,55.77595],[-121.21767,55.64298]]}},{"type":"Feature","properties":{"name":"Austin","tier":"regions","id":165,"chordDeg":1.45,"sizeHint":1.5},"geometry":{"type":"LineString","coordinates":[[-99.45217,30.10798],[-99.10218,30.10798],[-98.00218,30.10798]]}},{"type":"Feature","properties":{"name":"Hidalgoan Empire","tier":"regions","id":175,"chordDeg":1.35,"sizeHint":1.5},"geometry":{"type":"LineString","coordinates":[[-100.02062,28.84071],[-99.49754,28.67075],[-98.7367,28.42354]]}},{"type":"Feature","properties":{"name":"Houston Republic","tier":"regions","id":178,"chordDeg":1.3,"sizeHint":1.5},"geometry":{"type":"LineString","coordinates":[[-95.69375,32.09562],[-95.26578,31.95656],[-94.45738,31.6939]]}},{"type":"Feature","properties":{"name":"Delaware","tier":"regions","id":149,"chordDeg":0.9,"sizeHint":1.5},"geometry":{"type":"LineString","coordinates":[[-75.3974,39.75624],[-75.1547,39.57991],[-74.66929,39.22723]]}},{"type":"Feature","properties":{"name":"Djaka","tier":"regions","id":161,"chordDeg":0.9,"sizeHint":1.5},"geometry":{"type":"LineString","coordinates":[[-81.57783,30.34802],[-81.51603,30.15781],[-81.29972,29.49207]]}},{"type":"Feature","properties":{"name":"Wilmington and Myrtle Beach","tier":"regions","id":144,"chordDeg":0.75,"sizeHint":0.61},"geometry":{"type":"LineString","coordinates":[[-77.36465,34.57292],[-76.87459,34.82261],[-76.69639,34.91341]]}},{"type":"Feature","properties":{"name":"Paz","tier":"regions","id":91,"chordDeg":0.7,"sizeHint":1.5},"geometry":{"type":"LineString","coordinates":[[-114.09844,27.13307],[-113.62292,26.97857],[-113.43271,26.91676]]}},{"type":"Feature","properties":{"name":"Gullah land","tier":"regions","id":185,"chordDeg":0.45,"sizeHint":0.9},"geometry":{"type":"LineString","coordinates":[[-80.79522,32.20858],[-80.54773,32.45607],[-80.47702,32.52678]]}}]}
