{"_doc":"DERIVED from ncr-2253-newwest.png through tools/ncr-2253-extract.py, using the registration in ncr-2253-georef.json. De jure claim and de facto control as SEPARATE channels, which is what this sheet uniquely carries. EVERY feature is dated 2253 and is NOT current state: Misfits' present is about 2302, forty-nine years later.","era":2253,"type":"FeatureCollection","features":[{"type":"Feature","properties":{"channel":"deFacto","holder":"ncr","holderLabel":"De Facto NCR control","name":null,"nameConfidence":"notApplicable","mergedTerritories":false,"boundarySource":"drawn","era":2253,"areaKm2":57432.0,"sourceComponent":"ncr-5"},"geometry":{"type":"Polygon","coordinates":[[[-119.50763,36.00083],[-119.5298,35.95483],[-119.51463,35.8916],[-119.52361,35.75116],[-119.51233,35.71782],[-119.47673,35.70535],[-119.52759,35.68874],[-119.53033,35.58559],[-119.49318,35.56836],[-119.35812,35.55778],[-119.30829,35.50237],[-119.33888,35.44426],[-119.27012,35.38798],[-119.33607,35.34243],[-119.32962,35.26703],[-119.12634,35.06682],[-119.11799,35.02261],[-119.07967,35.00046],[-119.09711,34.94025],[-119.04586,34.85957],[-119.05224,34.82231],[-119.034,34.78544],[-119.01468,34.76417],[-118.93152,34.73667],[-118.91491,34.70456],[-118.87682,34.68234],[-118.87288,34.63205],[-118.81717,34.59328],[-118.79756,34.5516],[-118.74616,34.50674],[-118.71705,34.41603],[-118.68913,34.38642],[-118.65585,34.37845],[-118.65818,34.34726],[-118.60549,34.29756],[-118.64222,34.25876],[-118.76252,34.23206],[-118.81219,34.27213],[-118.90425,34.27202],[-118.97122,34.30817],[-119.07371,34.32093],[-119.11895,34.34656],[-119.20121,34.35354],[-119.25538,34.38734],[-119.30592,34.39121],[-119.33142,34.37515],[-119.34749,34.3305],[-119.29904,34.29544],[-119.29219,34.19967],[-119.24748,34.13815],[-119.05562,34.03835],[-118.96802,34.03254],[-118.93027,34.01034],[-118.87431,34.00757],[-118.76167,34.0379],[-118.56268,33.96966],[-118.49686,33.97399],[-118.41575,33.81304],[-118.44934,33.76476],[-118.42867,33.71823],[-118.2796,33.66931],[-118.23307,33.71525],[-118.18876,33.70962],[-118.15185,33.72788],[-118.12462,33.71849],[-118.07845,33.66729],[-118.02977,33.64724],[-117.94794,33.57822],[-117.82791,33.52249],[-117.73784,33.44496],[-117.66659,33.40924],[-117.61258,33.41058],[-117.48873,33.29935],[-117.47874,33.2658],[-117.39218,33.17718],[-117.32706,33.0789],[-117.29603,32.97342],[-117.25514,32.91586],[-117.30603,32.844],[-117.30889,32.79247],[-117.26946,32.76009],[-117.13564,32.75268],[-117.11892,32.69512],[-116.98586,32.56528],[-116.91269,32.58056],[-116.8884,32.64157],[-116.91207,32.68242],[-116.84839,32.73125],[-116.75142,32.70555],[-116.60646,32.69978],[-116.55476,32.66463],[-116.46202,32.65306],[-116.35886,32.58259],[-116.28318,32.56743],[-116.15909,32.50611],[-116.11136,32.50554],[-116.03075,32.53687],[-115.99785,32.5688],[-116.00802,32.62766],[-115.96354,32.74812],[-116.01333,32.79913],[-116.12015,32.81846],[-116.2037,32.79667],[-116.22436,32.82806],[-116.32533,32.86869],[-116.49618,32.8595],[-116.55365,32.89353],[-116.75829,32.89734],[-116.81225,32.8557],[-116.87124,32.89435],[-116.92061,32.89937],[-116.95176,32.88273],[-116.97853,32.89242],[-116.97981,32.91759],[-116.95003,32.93905],[-116.93283,32.98332],[-116.97916,33.03983],[-116.94784,33.07686],[-116.95861,33.17637],[-116.99673,33.20408],[-117.07461,33.2235],[-117.13984,33.22007],[-117.21483,33.29091],[-117.3113,33.33176],[-117.33115,33.3785],[-117.31407,33.42284],[-117.37236,33.45641],[-117.39799,33.52232],[-117.47635,33.56181],[-117.54611,33.55213],[-117.56922,33.66953],[-117.62646,33.71854],[-117.64235,33.77122],[-117.63246,33.79881],[-117.6081,33.7785],[-117.55237,33.77502],[-117.49533,33.82784],[-117.25085,33.84343],[-117.19211,33.89128],[-117.17483,33.93559],[-117.22049,34.00757],[-117.1744,34.09858],[-117.19005,34.15133],[-117.17993,34.17888],[-117.2473,34.26167],[-117.28899,34.27849],[-117.27886,34.32641],[-117.23847,34.37551],[-117.22396,34.42942],[-117.14599,34.47602],[-117.15301,34.54075],[-117.10813,34.5754],[-117.10798,34.61615],[-117.07453,34.66879],[-117.08738,34.71197],[-117.07428,34.72991],[-116.98735,34.7476],[-116.94806,34.78101],[-116.90178,34.77003],[-116.85863,34.72789],[-116.79344,34.73594],[-116.76567,34.76694],[-116.76393,34.80289],[-116.7319,34.81948],[-116.69067,34.88873],[-116.6885,34.96542],[-116.81839,35.07163],[-116.86769,35.09225],[-116.971,35.0867],[-117.03526,35.03299],[-117.09918,35.04036],[-117.1356,35.01768],[-117.17337,35.02015],[-117.2316,34.96751],[-117.26785,35.0059],[-117.31434,35.01672],[-117.31723,35.04668],[-117.36375,35.07785],[-117.40013,35.13657],[-117.42059,35.24442],[-117.48778,35.32226],[-117.42654,35.38583],[-117.42219,35.43257],[-117.38127,35.44097],[-117.35349,35.47213],[-117.35348,35.51287],[-117.38861,35.54643],[-117.36665,35.55602],[-117.32566,35.54402],[-117.22458,35.57989],[-117.18048,35.63974],[-117.17887,35.69606],[-117.14648,35.73315],[-117.14047,35.77508],[-117.18885,35.81113],[-117.34313,35.82566],[-117.34605,35.87599],[-117.41667,35.90234],[-117.46811,35.86636],[-117.4607,35.82202],[-117.5004,35.82917],[-117.53121,35.80756],[-117.61053,35.80141],[-117.67792,35.7569],[-117.69534,35.7125],[-117.66733,35.68263],[-117.71134,35.68369],[-117.73489,35.69919],[-117.70289,35.75682],[-117.77075,35.81411],[-117.75935,35.87767],[-117.78747,35.90752],[-117.79371,35.96742],[-117.84406,36.00795],[-117.91618,35.99802],[-117.91196,36.02441],[-117.862,36.04502],[-117.79909,36.12439],[-117.80825,36.17349],[-117.79091,36.23827],[-117.74667,36.25761],[-117.67117,36.23748],[-117.56634,36.28446],[-117.46572,36.26423],[-117.40216,36.32299],[-117.39774,36.36973],[-117.44814,36.41045],[-117.49853,36.4104],[-117.58458,36.44382],[-117.64684,36.44128],[-117.69414,36.41118],[-117.68558,36.48431],[-117.72015,36.57409],[-117.85152,36.66945],[-117.86369,36.70775],[-117.91461,36.74825],[-117.91661,36.81415],[-117.95708,36.8415],[-117.96544,36.94692],[-118.02563,36.99571],[-117.99056,37.0846],[-118.01096,37.18755],[-118.07913,37.26023],[-118.11527,37.27317],[-118.10105,37.34757],[-118.12258,37.39416],[-118.16636,37.41063],[-118.16839,37.45615],[-118.04869,37.52168],[-117.98912,37.59514],[-117.85778,37.56585],[-117.84196,37.67617],[-117.77447,37.74595],[-117.77483,37.80707],[-117.6936,37.89482],[-117.66335,37.9009],[-117.66173,37.87574],[-117.58601,37.86034],[-117.53462,37.8808],[-117.51956,37.91438],[-117.41663,37.97559],[-117.34239,37.92407],[-117.30453,37.92645],[-117.22432,37.89641],[-117.19403,37.90236],[-117.11517,37.93816],[-117.10446,37.9657],[-117.02857,37.99066],[-117.00717,38.02534],[-116.93602,38.00352],[-116.85396,38.02953],[-116.81093,38.09883],[-116.86655,38.1746],[-116.96818,38.21097],[-117.00172,38.1943],[-117.01411,38.1512],[-117.0581,38.16811],[-117.04264,38.22199],[-117.08501,38.27484],[-117.14889,38.29296],[-117.1746,38.35413],[-117.36966,38.41781],[-117.50691,38.40095],[-117.55409,38.36612],[-117.58436,38.29896],[-117.60871,38.29411],[-117.70956,38.36575],[-117.77511,38.36793],[-117.88968,38.401],[-117.95962,38.37668],[-117.9967,38.43041],[-117.97879,38.47485],[-118.00808,38.50465],[-118.09701,38.53766],[-118.14287,38.53854],[-118.17312,38.51196],[-118.24466,38.49224],[-118.28384,38.45358],[-118.28489,38.41761],[-118.23859,38.37604],[-118.23808,38.3353],[-118.25922,38.32075],[-118.3369,38.32009],[-118.39733,38.28719],[-118.39482,38.2213],[-118.42293,38.1695],[-118.41209,38.15642],[-118.36649,38.15564],[-118.33691,38.10557],[-118.36243,38.08497],[-118.36501,38.05378],[-118.42392,38.03645],[-118.44461,38.0015],[-118.54221,37.94537],[-118.5488,37.88777],[-118.57542,37.85153],[-118.56744,37.82764],[-118.61971,37.7911],[-118.60251,37.75894],[-118.62302,37.72395],[-118.61995,37.63769],[-118.7337,37.51648],[-118.70853,37.46046],[-118.65822,37.4251],[-118.65747,37.38436],[-118.61005,37.33817],[-118.52083,37.3008],[-118.46822,37.29655],[-118.47667,37.16702],[-118.41226,37.06818],[-118.39757,36.98443],[-118.3625,36.93562],[-118.37539,36.89715],[-118.35737,36.78346],[-118.30124,36.70845],[-118.2914,36.63902],[-118.18342,36.5596],[-118.21824,36.49102],[-118.19538,36.43966],[-118.21855,36.39394],[-118.16595,36.32842],[-118.14602,36.26625],[-118.16457,36.20619],[-118.14206,36.1752],[-118.09906,36.15872],[-118.10279,36.09158],[-118.04199,36.05842],[-118.02073,35.99144],[-118.04234,35.94097],[-118.04305,35.70608],[-117.99716,35.65962],[-118.04077,35.6198],[-118.04186,35.42565],[-118.01815,35.38984],[-118.03959,35.33937],[-118.07887,35.32594],[-118.21766,35.21466],[-118.2485,35.23358],[-118.32283,35.23294],[-118.36533,35.24932],[-118.61254,35.37974],[-118.67538,35.38139],[-118.78713,35.41831],[-118.84533,35.40553],[-118.872,35.35361],[-118.81106,35.30052],[-118.88701,35.30426],[-118.9288,35.27968],[-118.948,35.22426],[-118.93037,35.15141],[-118.88893,35.11965],[-118.81276,35.09554],[-118.71577,35.12199],[-118.68716,35.14872],[-118.6334,35.15537],[-118.54621,35.07728],[-118.65016,35.03412],[-118.69345,34.9377],[-118.76822,34.90078],[-118.91011,35.08938],[-118.97205,35.12681],[-119.03155,35.1187],[-119.20464,35.28485],[-119.16188,35.32514],[-119.1549,35.45471],[-119.19081,35.544],[-119.2602,35.6207],[-119.29413,35.62849],[-119.29523,35.66922],[-119.33878,35.70559],[-119.33031,35.71773],[-119.2194,35.68615],[-119.17482,35.72167],[-119.17422,35.81398],[-119.19388,35.83522],[-119.25608,35.85212],[-119.20503,35.8686],[-119.17789,35.90022],[-119.17463,36.00336],[-119.24337,36.03934],[-119.44541,36.04041],[-119.50763,36.00083]]]}},{"type":"Feature","properties":{"channel":"deFacto","holder":"ncr","holderLabel":"De Facto NCR control","name":null,"nameConfidence":"notApplicable","mergedTerritories":false,"boundarySource":"drawn","era":2253,"areaKm2":7872.0,"sourceComponent":"ncr-4"},"geometry":{"type":"Polygon","coordinates":[[[-121.67866,38.8487],[-121.70159,38.82262],[-121.70083,38.78665],[-121.60258,38.73764],[-121.60315,38.72202],[-121.63942,38.71343],[-121.66232,38.68735],[-121.66067,38.56383],[-121.67803,38.52356],[-121.63146,38.48817],[-121.55004,38.48167],[-121.53187,38.43436],[-121.53294,38.35153],[-121.57016,38.31173],[-121.55317,38.23319],[-121.52668,38.1982],[-121.44801,38.18074],[-121.46054,38.0591],[-121.45034,38.01509],[-121.418,37.98149],[-121.43535,37.94126],[-121.39588,37.88873],[-121.33911,37.87639],[-121.2993,37.73627],[-121.24813,37.68651],[-121.19155,37.6741],[-121.10073,37.72641],[-120.89728,37.73794],[-120.82759,37.79532],[-120.84686,37.84749],[-120.92148,37.8559],[-121.05677,37.92221],[-121.13326,37.93521],[-121.18116,37.92397],[-121.20203,37.94484],[-121.20964,37.99975],[-121.17481,38.02855],[-121.15775,38.10471],[-121.18271,38.17102],[-121.15379,38.19841],[-121.14824,38.23578],[-121.25659,38.40117],[-121.13515,38.49653],[-121.11994,38.52583],[-121.13068,38.55426],[-121.07629,38.56688],[-121.05679,38.60231],[-121.00196,38.57893],[-120.91195,38.58424],[-120.85249,38.6185],[-120.76671,38.61756],[-120.69954,38.68435],[-120.68002,38.75569],[-120.69846,38.78752],[-120.76043,38.83003],[-120.83182,38.84463],[-120.92287,38.91133],[-120.81802,38.96619],[-120.75234,39.03776],[-120.75513,39.06286],[-120.70559,39.08953],[-120.67531,39.1324],[-120.67908,39.17786],[-120.60338,39.24124],[-120.62822,39.30767],[-120.62051,39.34028],[-120.65132,39.36936],[-120.76281,39.40083],[-120.91514,39.38174],[-121.00762,39.3452],[-121.09888,39.28823],[-121.14251,39.2112],[-121.12015,39.16997],[-121.23441,39.03533],[-121.24981,38.95442],[-121.30085,38.93224],[-121.32639,38.89535],[-121.43072,38.84001],[-121.60963,38.87535],[-121.67866,38.8487]]]}},{"type":"Feature","properties":{"channel":"deFacto","holder":"ncr","holderLabel":"De Facto NCR control","name":null,"nameConfidence":"notApplicable","mergedTerritories":false,"boundarySource":"drawn","era":2253,"areaKm2":5288.7,"sourceComponent":"ncr-2"},"geometry":{"type":"Polygon","coordinates":[[[-122.29453,39.88068],[-122.30095,39.71355],[-122.27729,39.68818],[-122.17643,39.67091],[-121.95365,39.66698],[-121.91452,39.68657],[-121.90076,39.73632],[-121.99359,39.81777],[-121.99167,39.88025],[-122.03892,39.93112],[-122.03514,39.98888],[-122.0664,40.03319],[-122.0636,40.12692],[-122.12151,40.17012],[-122.19462,40.18384],[-122.218,40.22486],[-122.16437,40.24273],[-122.12642,40.28273],[-122.13033,40.35938],[-122.07894,40.36632],[-122.03468,40.40774],[-122.05615,40.51127],[-122.11248,40.54976],[-122.08912,40.57593],[-121.98784,40.66167],[-121.94051,40.66236],[-121.86728,40.70006],[-121.83511,40.73852],[-121.71054,40.7673],[-121.60964,40.82147],[-121.59105,40.87734],[-121.71067,40.93768],[-121.78318,40.93132],[-121.79704,40.94879],[-121.85654,40.96088],[-121.89644,40.94132],[-121.91186,40.91191],[-121.97277,40.94429],[-122.03134,40.92033],[-122.13509,40.97369],[-122.22975,40.98773],[-122.28785,40.97926],[-122.37791,40.93216],[-122.46048,40.93334],[-122.58057,40.82711],[-122.58553,40.78967],[-122.55942,40.75964],[-122.59152,40.70536],[-122.56544,40.67533],[-122.6053,40.6399],[-122.63374,40.56056],[-122.59566,40.51788],[-122.52441,40.49351],[-122.493,40.43369],[-122.39366,40.39009],[-122.37285,40.32259],[-122.30805,40.29661],[-122.28694,40.24471],[-122.33285,40.2079],[-122.32639,40.14217],[-122.30531,40.09027],[-122.24692,40.06278],[-122.24161,40.033],[-122.29165,39.99003],[-122.30749,39.92933],[-122.29453,39.88068]]]}},{"type":"Feature","properties":{"channel":"deFacto","holder":"ncr","holderLabel":"De Facto NCR control","name":null,"nameConfidence":"notApplicable","mergedTerritories":false,"boundarySource":"drawn","era":2253,"areaKm2":4192.1,"sourceComponent":"ncr-1"},"geometry":{"type":"Polygon","coordinates":[[[-120.36381,41.81879],[-120.4,41.73392],[-120.37795,41.56901],[-120.41311,41.49974],[-120.36512,41.46382],[-120.30454,41.46657],[-120.30089,41.38512],[-120.27109,41.36069],[-120.23866,41.23919],[-120.19274,41.20795],[-120.15132,41.20656],[-120.17301,41.15567],[-120.14078,41.07012],[-120.04838,41.02315],[-119.98368,41.03183],[-119.96286,41.06707],[-119.91602,41.0873],[-119.8634,41.16518],[-119.85941,41.2276],[-119.83668,41.25806],[-119.69411,41.2778],[-119.64596,41.22122],[-119.57051,41.2011],[-119.5361,41.21853],[-119.52587,41.2463],[-119.47703,41.26158],[-119.45935,41.30626],[-119.52841,41.42007],[-119.5935,41.50396],[-119.65485,41.52195],[-119.62558,41.55369],[-119.66549,41.64282],[-119.61389,41.72534],[-119.63512,41.78247],[-119.76552,41.83741],[-119.87465,41.83512],[-120.00624,41.67396],[-120.04796,41.6754],[-120.14425,41.6036],[-120.23484,41.62538],[-120.19664,41.74143],[-120.23836,41.81475],[-120.30382,41.8419],[-120.36381,41.81879]]]}},{"type":"Feature","properties":{"channel":"deFacto","holder":"ncr","holderLabel":"De Facto NCR control","name":null,"nameConfidence":"notApplicable","mergedTerritories":false,"boundarySource":"drawn","era":2253,"areaKm2":1975.0,"sourceComponent":"ncr-7"},"geometry":{"type":"Polygon","coordinates":[[[-120.01448,36.82518],[-120.03659,36.77907],[-120.03683,36.70713],[-120.01167,36.67178],[-119.95023,36.66007],[-119.95994,36.56033],[-119.94575,36.53789],[-119.90045,36.51738],[-119.84742,36.5294],[-119.73994,36.51264],[-119.59119,36.59732],[-119.57476,36.64202],[-119.60559,36.67615],[-119.52471,36.75571],[-119.48164,36.76016],[-119.43488,36.79103],[-119.37915,36.92633],[-119.45442,36.99684],[-119.64208,37.02184],[-119.74162,36.95857],[-119.79975,36.86857],[-119.86416,36.83354],[-119.98233,36.84274],[-120.01448,36.82518]]]}},{"type":"Feature","properties":{"channel":"deFacto","holder":"ncr","holderLabel":"De Facto NCR control","name":null,"nameConfidence":"notApplicable","mergedTerritories":false,"boundarySource":"drawn","era":2253,"areaKm2":1617.3,"sourceComponent":"ncr-3"},"geometry":{"type":"Polygon","coordinates":[[[-121.27663,40.35583],[-121.30338,40.30333],[-121.27805,40.27301],[-121.21926,40.26062],[-121.17773,40.27521],[-121.12149,40.25189],[-121.07105,40.19116],[-120.8809,40.15162],[-120.83317,40.16747],[-120.7795,40.22067],[-120.7679,40.33135],[-120.62479,40.32713],[-120.55036,40.3796],[-120.52921,40.43055],[-120.55787,40.47053],[-120.6159,40.49888],[-120.84942,40.50879],[-120.89773,40.5289],[-120.95193,40.51163],[-120.9966,40.52221],[-121.1498,40.44647],[-121.16611,40.40155],[-121.14701,40.3698],[-121.22449,40.378],[-121.27663,40.35583]]]}},{"type":"Feature","properties":{"channel":"deFacto","holder":"ncr","holderLabel":"De Facto NCR control","name":null,"nameConfidence":"notApplicable","mergedTerritories":false,"boundarySource":"drawn","era":2253,"areaKm2":1560.3,"sourceComponent":"ncr-6"},"geometry":{"type":"Polygon","coordinates":[[[-121.97461,36.63832],[-122.00574,36.56858],[-121.9621,36.53805],[-121.97744,36.47739],[-121.95187,36.42688],[-121.90834,36.39632],[-121.81991,36.38201],[-121.75461,36.42909],[-121.62414,36.45592],[-121.59964,36.49288],[-121.62144,36.53402],[-121.56517,36.53742],[-121.4884,36.57158],[-121.45265,36.64732],[-121.50555,36.6861],[-121.4962,36.72964],[-121.54395,36.8058],[-121.71594,36.83622],[-121.81001,36.81321],[-121.85558,36.66253],[-121.88896,36.64914],[-121.93132,36.65936],[-121.97461,36.63832]]]}},{"type":"Feature","properties":{"channel":"deFacto","holder":"ncr","holderLabel":"De Facto NCR control","name":null,"nameConfidence":"notApplicable","mergedTerritories":false,"boundarySource":"drawn","era":2253,"areaKm2":535.8,"sourceComponent":"ncr-11"},"geometry":{"type":"Polygon","coordinates":[[[-116.53746,31.94661],[-116.51691,31.91528],[-116.44478,31.88948],[-116.40435,31.8927],[-116.37615,31.9188],[-116.33703,31.92679],[-116.27333,31.99564],[-116.277,32.03044],[-116.24575,32.06725],[-116.25472,32.12128],[-116.33289,32.1257],[-116.38493,32.09985],[-116.42094,32.12297],[-116.47136,32.11264],[-116.53521,32.02329],[-116.53746,31.94661]]]}},{"type":"Feature","properties":{"channel":"deFacto","holder":"ncr","holderLabel":"De Facto NCR control","name":null,"nameConfidence":"notApplicable","mergedTerritories":false,"boundarySource":"drawn","era":2253,"areaKm2":406.9,"sourceComponent":"ncr-10"},"geometry":{"type":"Polygon","coordinates":[[[-118.57474,33.48652],[-118.59858,33.46586],[-118.6009,33.43467],[-118.54624,33.39576],[-118.51642,33.39729],[-118.52412,33.34447],[-118.48803,33.30652],[-118.32871,33.28056],[-118.29771,33.29762],[-118.28271,33.34689],[-118.35474,33.42293],[-118.44633,33.46396],[-118.47619,33.46245],[-118.52369,33.49789],[-118.57474,33.48652]]]}},{"type":"Feature","properties":{"channel":"deFacto","holder":"ncr","holderLabel":"De Facto NCR control","name":null,"nameConfidence":"notApplicable","mergedTerritories":false,"boundarySource":"drawn","era":2253,"areaKm2":372.8,"sourceComponent":"ncr-8"},"geometry":{"type":"Polygon","coordinates":[[[-114.86997,35.2198],[-114.89614,35.17965],[-114.88383,35.15658],[-114.77973,35.13491],[-114.75009,35.06944],[-114.68054,35.0617],[-114.66602,35.09969],[-114.67621,35.13832],[-114.60934,35.21094],[-114.63149,35.31822],[-114.70076,35.3008],[-114.77551,35.21154],[-114.84321,35.23475],[-114.86997,35.2198]]]}},{"type":"Feature","properties":{"channel":"deFacto","holder":"ncr","holderLabel":"De Facto NCR control","name":null,"nameConfidence":"notApplicable","mergedTerritories":false,"boundarySource":"drawn","era":2253,"areaKm2":307.6,"sourceComponent":"ncr-9"},"geometry":{"type":"Polygon","coordinates":[[[-114.57713,35.25206],[-114.60601,35.22164],[-114.57982,35.14542],[-114.60993,35.11983],[-114.61404,35.08876],[-114.57459,35.05535],[-114.50047,35.05337],[-114.4159,35.12898],[-114.41423,35.16971],[-114.52424,35.26145],[-114.57713,35.25206]]]}},{"type":"Feature","properties":{"channel":"deFacto","holder":"enclave","holderLabel":"De Facto Enclave control","name":"Navarro","nameConfidence":"marker","mergedTerritories":false,"boundarySource":"drawn","era":2253,"areaKm2":1178.7,"sourceComponent":"enclave-1"},"geometry":{"type":"Polygon","coordinates":[[[-123.79486,39.25502],[-123.81118,39.19881],[-123.7791,39.17061],[-123.77326,39.12528],[-123.6771,39.07187],[-123.64524,39.028],[-123.53727,38.97755],[-123.37654,39.00794],[-123.29951,39.07932],[-123.29685,39.13712],[-123.37088,39.17041],[-123.33246,39.19048],[-123.31985,39.2404],[-123.35765,39.28283],[-123.42187,39.30822],[-123.66991,39.27654],[-123.71417,39.28606],[-123.79486,39.25502]]]}},{"type":"Feature","properties":{"channel":"deFacto","holder":"bos","holderLabel":"De Facto Brotherhood control","name":"Lost Hills","nameConfidence":"printed","mergedTerritories":false,"boundarySource":"drawn","era":2253,"areaKm2":2967.5,"sourceComponent":"bos-1"},"geometry":{"type":"Polygon","coordinates":[[[-120.01825,36.01818],[-120.03679,35.96257],[-120.02699,35.66187],[-120.04074,35.52005],[-120.01436,35.47995],[-119.96718,35.47032],[-119.90878,35.3914],[-119.85425,35.37831],[-119.78628,35.39906],[-119.64895,35.49201],[-119.6076,35.57321],[-119.52612,35.59167],[-119.52437,35.67922],[-119.55153,35.70384],[-119.51394,35.72259],[-119.5298,35.95483],[-119.50177,36.00214],[-119.52319,36.02809],[-119.58564,36.04479],[-119.98811,36.0405],[-120.01825,36.01818]]]}},{"type":"Feature","properties":{"channel":"deFacto","holder":"bos","holderLabel":"De Facto Brotherhood control","name":"Maxson Bunker and HELIOS One","nameConfidence":"marker","mergedTerritories":false,"boundarySource":"drawn","era":2253,"areaKm2":285.6,"sourceComponent":"bos-2"},"geometry":{"type":"Polygon","coordinates":[[[-115.22328,35.88446],[-115.24889,35.8646],[-115.2501,35.82386],[-115.21454,35.78479],[-115.13897,35.75807],[-115.03191,35.79774],[-114.99239,35.88079],[-115.0121,35.9076],[-115.06606,35.92316],[-115.10489,35.906],[-115.11606,35.87866],[-115.14565,35.87329],[-115.20226,35.89843],[-115.22328,35.88446]]]}},{"type":"Feature","properties":{"channel":"deFacto","holder":"shi","holderLabel":"De Facto Shi control","name":"San Francisco","nameConfidence":"printed","mergedTerritories":false,"boundarySource":"drawn","era":2253,"areaKm2":1591.1,"sourceComponent":"shi-1"},"geometry":{"type":"Polygon","coordinates":[[[-122.51226,37.75692],[-122.52705,37.71181],[-122.50213,37.68176],[-122.55318,37.59652],[-122.55081,37.5246],[-122.52409,37.48985],[-122.47152,37.47191],[-122.47444,37.42976],[-122.42561,37.3384],[-122.44515,37.25586],[-122.40088,37.2255],[-122.29949,37.21453],[-122.23497,37.21504],[-122.16594,37.2373],[-122.10372,37.29403],[-122.1065,37.33472],[-122.14661,37.37138],[-122.08653,37.4172],[-122.06697,37.48405],[-122.15417,37.52467],[-122.2251,37.58996],[-122.34999,37.62636],[-122.34212,37.70594],[-122.36698,37.73602],[-122.44686,37.77317],[-122.51226,37.75692]]]}},{"type":"Feature","properties":{"channel":"deFacto","holder":"raiders","holderLabel":"De Facto raider control","name":"Baja Bandits","nameConfidence":"printed","mergedTerritories":false,"boundarySource":"drawn","era":2253,"areaKm2":36735.3,"sourceComponent":"raiders-baja-bandits"},"geometry":{"type":"Polygon","coordinates":[[[-116.24779,32.11761],[-116.24575,32.06725],[-116.277,32.03044],[-116.27333,31.99564],[-116.32718,31.93389],[-116.40435,31.8927],[-116.40062,31.85791],[-116.35517,31.82151],[-116.37538,31.76658],[-116.35627,31.74002],[-116.43431,31.724],[-116.5032,31.6539],[-116.65899,31.62156],[-116.68142,31.59654],[-116.69309,31.53311],[-116.61098,31.42826],[-116.52154,31.38081],[-116.49319,31.32064],[-116.38813,31.2154],[-116.33602,31.08904],[-116.36527,30.9611],[-116.35057,30.92859],[-116.31514,30.90545],[-116.2642,30.9109],[-116.2187,30.82888],[-116.09621,30.76268],[-116.06233,30.65797],[-116.08809,30.42938],[-116.06136,30.39428],[-116.02207,30.37697],[-115.9837,30.38484],[-115.968,30.34746],[-115.90556,30.32978],[-115.83428,30.27836],[-115.83337,30.18726],[-115.86025,30.13613],[-115.82575,30.09245],[-115.81353,30.02394],[-115.84789,29.93578],[-115.82019,29.89579],[-115.7594,29.88283],[-115.73177,29.84282],[-115.70929,29.69022],[-115.61699,29.64308],[-114.48997,29.86955],[-114.46345,29.92513],[-114.52136,29.97477],[-114.55358,30.05963],[-114.59712,30.09683],[-114.63139,30.16613],[-114.61036,30.2207],[-114.59678,30.44573],[-114.60916,30.51922],[-114.65346,30.58159],[-114.67625,30.67333],[-114.66615,30.84211],[-114.6818,30.90488],[-114.77919,30.99257],[-114.77659,31.02847],[-114.83433,31.07311],[-114.85382,31.15033],[-114.83268,31.20495],[-114.84976,31.27252],[-114.81103,31.39623],[-114.82569,31.45415],[-114.81736,31.53666],[-114.75433,31.63456],[-114.77285,31.66142],[-114.8113,31.67439],[-114.79295,31.76384],[-114.835,31.83684],[-114.9469,31.90671],[-114.99236,31.92337],[-115.03722,31.91483],[-115.08644,31.94592],[-115.12259,31.94912],[-115.13446,31.97216],[-115.18937,32.00213],[-115.25303,32.02026],[-115.30606,32.02015],[-115.37881,31.96047],[-115.43053,31.95547],[-115.46872,31.98856],[-115.53116,32.0017],[-115.61653,31.99002],[-115.69332,31.9242],[-115.77166,32.04053],[-115.79496,32.12719],[-115.84204,32.14828],[-115.85805,32.18568],[-115.89826,32.20305],[-115.95873,32.18593],[-116.00195,32.19251],[-116.03899,32.15464],[-116.08948,32.14451],[-116.20263,32.14706],[-116.24779,32.11761]]]}},{"type":"Feature","properties":{"channel":"deFacto","holder":"raiders","holderLabel":"De Facto raider control","name":"80s","nameConfidence":"printed","mergedTerritories":false,"boundarySource":"drawn","era":2253,"areaKm2":31385.3,"sourceComponent":"raiders-80s"},"geometry":{"type":"Polygon","coordinates":[[[-119.01275,39.94943],[-119.13583,39.88285],[-119.159,39.81656],[-119.0983,39.75758],[-119.04206,39.74883],[-118.95058,39.69621],[-118.78544,39.67923],[-118.67108,39.71297],[-118.62392,39.76863],[-118.55606,39.80292],[-118.40022,39.79367],[-118.25657,39.76133],[-118.18828,39.77503],[-117.97812,39.93934],[-117.96603,39.98255],[-117.91616,39.99239],[-117.87601,40.0513],[-117.79658,40.09238],[-117.73614,40.19086],[-117.73489,40.24719],[-117.63006,40.29302],[-117.59086,40.2955],[-117.60002,40.22238],[-117.57484,40.18647],[-117.4511,40.15427],[-117.43229,40.11713],[-117.39161,40.09438],[-117.32438,40.09198],[-117.25241,40.1159],[-117.19592,40.18773],[-117.18316,40.2716],[-117.14064,40.32545],[-117.09978,40.34334],[-117.06663,40.3852],[-116.97384,40.40769],[-116.89372,40.40738],[-116.85934,40.38327],[-116.77619,40.37328],[-116.63881,40.44439],[-116.54352,40.39581],[-116.44781,40.38789],[-116.3389,40.42291],[-116.30705,40.44899],[-116.21243,40.46605],[-116.13262,40.44484],[-116.05502,40.47394],[-116.0169,40.41477],[-115.90906,40.38827],[-115.72745,40.49128],[-115.69491,40.47164],[-115.62249,40.47415],[-115.54775,40.44661],[-115.53535,40.38289],[-115.44871,40.33711],[-115.27039,40.31719],[-115.2262,40.32476],[-115.14417,40.38433],[-115.08869,40.39882],[-115.03315,40.45884],[-114.84815,40.48489],[-114.8143,40.50572],[-114.7371,40.468],[-114.63435,40.47998],[-114.58056,40.52424],[-114.56118,40.57293],[-114.78177,41.34064],[-114.83936,41.37668],[-114.94065,41.35487],[-114.98124,41.37849],[-115.06537,41.38978],[-115.25613,41.26155],[-115.41902,41.24403],[-115.46149,41.20638],[-115.60794,41.20151],[-115.67979,41.12826],[-115.81669,41.04868],[-115.91007,40.91566],[-115.96284,40.89114],[-115.97789,40.85297],[-116.01302,40.83661],[-116.13396,40.88112],[-116.22805,40.83894],[-116.25574,40.88476],[-116.32643,40.91778],[-116.42621,40.91504],[-116.51303,40.93489],[-116.59427,40.89472],[-116.70648,40.9098],[-116.81824,40.98589],[-116.93391,40.98998],[-116.94945,41.03797],[-117.00159,41.0741],[-117.2014,41.12849],[-117.23152,41.15849],[-117.2378,41.19804],[-117.28227,41.23044],[-117.34272,41.22927],[-117.47463,41.15852],[-117.59852,41.14516],[-117.6367,41.15826],[-117.7781,41.15664],[-117.82239,41.12771],[-117.86162,41.06403],[-117.96625,41.05395],[-118.07019,40.98266],[-118.08731,40.95379],[-118.13929,40.92829],[-118.22641,40.80902],[-118.27986,40.78823],[-118.30536,40.80361],[-118.35909,40.80316],[-118.50094,40.68799],[-118.54684,40.60723],[-118.53818,40.56297],[-118.57251,40.54583],[-118.59686,40.50003],[-118.56293,40.36376],[-118.63137,40.32946],[-118.7189,40.23497],[-118.76171,40.10861],[-118.81899,40.08152],[-118.92004,39.98909],[-119.01275,39.94943]]]}},{"type":"Feature","properties":{"channel":"deFacto","holder":"raiders","holderLabel":"De Facto raider control","name":"Rusty Hooks","nameConfidence":"printed","mergedTerritories":false,"boundarySource":"drawn","era":2253,"areaKm2":12755.3,"sourceComponent":"raiders-rusty-hooks"},"geometry":{"type":"Polygon","coordinates":[[[-114.40043,32.75673],[-114.41341,32.71394],[-114.35509,32.6235],[-114.32644,32.53272],[-114.26512,32.45293],[-114.16826,32.41995],[-114.13338,32.3505],[-114.05694,32.30367],[-113.96719,32.27433],[-113.89703,32.27675],[-113.86834,32.23139],[-113.80932,32.20656],[-113.70552,32.06853],[-113.60145,32.02634],[-113.52139,32.03533],[-113.39746,32.10733],[-113.32304,32.19077],[-113.32307,32.21596],[-113.24619,32.28966],[-113.22582,32.35362],[-113.18616,32.3604],[-113.15667,32.38558],[-113.13854,32.38363],[-113.06958,32.28955],[-113.00512,32.26521],[-112.90431,32.28724],[-112.78893,32.27131],[-112.72991,32.29624],[-112.67908,32.2795],[-112.62241,32.28888],[-112.50588,32.3986],[-112.64271,33.03033],[-112.69275,33.06742],[-112.73284,33.06084],[-112.75129,33.03766],[-112.79247,33.03591],[-113.07248,33.11518],[-113.17212,33.03291],[-113.28076,33.03968],[-113.31959,33.00283],[-113.43955,32.98229],[-113.50449,32.93078],[-113.49859,32.88137],[-113.54536,32.87833],[-113.57515,32.90342],[-113.63451,32.9032],[-113.79037,32.83559],[-113.83454,32.79754],[-113.9417,32.79878],[-114.02556,32.75358],[-114.11801,32.76734],[-114.1518,32.73603],[-114.19397,32.73855],[-114.22892,32.71204],[-114.28039,32.728],[-114.33346,32.77395],[-114.36998,32.77743],[-114.40043,32.75673]]]}},{"type":"Feature","properties":{"channel":"deFacto","holder":"raiders","holderLabel":"De Facto raider control","name":"Khans","nameConfidence":"printed","mergedTerritories":false,"boundarySource":"inferred","era":2253,"areaKm2":12236.1,"sourceComponent":"raiders-khans"},"geometry":{"type":"Polygon","coordinates":[[[-117.51956,37.91438],[-117.52251,37.88321],[-117.58601,37.86034],[-117.64963,37.87817],[-117.73275,37.85635],[-117.77483,37.80707],[-117.77447,37.74595],[-117.84196,37.67617],[-117.85778,37.56585],[-117.69312,37.47178],[-117.54865,37.46014],[-117.55455,37.41818],[-117.51239,37.38589],[-117.41621,37.38477],[-117.35761,37.42194],[-117.31552,37.40994],[-117.2645,37.34878],[-117.34113,37.24697],[-117.33217,37.17746],[-117.2738,37.13308],[-117.17803,37.11138],[-117.18863,37.06347],[-117.059,36.95172],[-117.04722,36.91334],[-117.09068,36.86912],[-117.08953,36.78283],[-117.02275,36.72991],[-116.81998,36.76982],[-116.66747,36.97747],[-116.61357,36.98789],[-116.61335,37.00827],[-116.5683,37.02712],[-116.51747,37.02673],[-116.47811,37.06477],[-116.43183,37.05839],[-116.36126,37.07694],[-116.29319,37.12542],[-116.26024,37.31446],[-116.31924,37.38455],[-116.27354,37.42365],[-116.16601,37.64186],[-116.19382,37.69249],[-116.26838,37.7496],[-116.26167,37.79148],[-116.30318,37.84462],[-116.31263,37.91902],[-116.44342,37.9909],[-116.55865,37.98941],[-116.60434,37.97056],[-116.632,37.9348],[-116.74125,37.9139],[-116.77782,37.88654],[-116.86729,37.86421],[-116.919,37.82369],[-116.99166,37.80958],[-117.00781,37.90311],[-117.06517,37.94283],[-117.11667,37.94296],[-117.22432,37.89641],[-117.37116,37.93366],[-117.41663,37.97559],[-117.51956,37.91438]]]}},{"type":"Feature","properties":{"channel":"deFacto","holder":"raiders","holderLabel":"De Facto raider control","name":"Jackals","nameConfidence":"printed","mergedTerritories":false,"boundarySource":"drawn","era":2253,"areaKm2":11689.5,"sourceComponent":"raiders-jackals"},"geometry":{"type":"Polygon","coordinates":[[[-115.44135,35.4391],[-115.48249,35.43145],[-115.53962,35.37011],[-115.7234,35.25446],[-115.81525,35.1204],[-115.82825,35.05706],[-115.78152,35.00004],[-115.8098,34.96929],[-115.82278,34.90596],[-115.7766,34.82856],[-115.80033,34.80375],[-115.81776,34.73449],[-115.79449,34.67301],[-115.87573,34.59149],[-115.85734,34.50374],[-115.7802,34.46784],[-115.71779,34.48485],[-115.64653,34.44775],[-115.55746,34.43426],[-115.51373,34.45268],[-115.46657,34.43625],[-115.27331,34.48771],[-115.22117,34.543],[-115.14627,34.53664],[-115.06363,34.59241],[-114.96158,34.57573],[-114.97584,34.53769],[-114.9308,34.45993],[-114.79829,34.37284],[-114.6681,34.38635],[-114.63831,34.41196],[-114.57569,34.42829],[-114.53799,34.47045],[-114.47779,34.49639],[-114.44582,34.53747],[-114.45586,34.64686],[-114.48669,34.67169],[-114.50507,34.71896],[-114.57474,34.75201],[-114.59242,34.81962],[-114.63759,34.85197],[-114.67213,34.93679],[-114.6864,35.06065],[-114.75009,35.06944],[-114.77259,35.13114],[-114.84936,35.14258],[-114.89614,35.17965],[-114.86082,35.23157],[-114.77551,35.21154],[-114.70076,35.3008],[-114.63149,35.31822],[-114.67111,35.46791],[-114.75005,35.50945],[-115.0576,35.50458],[-115.09818,35.51744],[-115.17535,35.4831],[-115.19363,35.4595],[-115.24596,35.47014],[-115.44135,35.4391]]]}},{"type":"Feature","properties":{"channel":"deFacto","holder":"raiders","holderLabel":"De Facto raider control","name":"Cannibals","nameConfidence":"printed","mergedTerritories":false,"boundarySource":"drawn","era":2253,"areaKm2":10988.3,"sourceComponent":"raiders-cannibals"},"geometry":{"type":"Polygon","coordinates":[[[-124.3002,43.19579],[-124.35957,43.09253],[-124.33789,43.01446],[-124.30152,42.98172],[-124.33755,42.93633],[-124.32667,42.88167],[-124.34545,42.79881],[-124.31764,42.75356],[-124.25599,42.72712],[-124.26642,42.67241],[-124.18561,42.5569],[-124.10515,42.51945],[-124.00571,42.53351],[-123.9824,42.56006],[-123.98019,42.6335],[-123.91022,42.65062],[-123.8762,42.68495],[-123.84436,42.69271],[-123.76386,42.67066],[-123.69169,42.68296],[-123.52423,42.67138],[-123.47322,42.68364],[-123.43465,42.72407],[-123.30641,42.80145],[-123.26165,42.8121],[-123.13003,42.80177],[-123.06907,42.75908],[-122.96317,42.74252],[-122.90849,42.71388],[-122.85762,42.71025],[-122.72531,42.74633],[-122.62857,42.7999],[-122.5412,42.80975],[-122.49996,42.84516],[-122.4422,42.85845],[-122.4073,42.89235],[-122.35148,42.91032],[-122.32894,42.95688],[-122.34096,42.98518],[-122.30106,43.04086],[-122.34446,43.09307],[-122.27756,43.11866],[-122.25933,43.15902],[-122.26491,43.18879],[-122.30277,43.21124],[-122.30995,43.26135],[-122.49909,43.40463],[-122.55049,43.40841],[-122.61315,43.38887],[-122.67884,43.42559],[-122.73027,43.42929],[-122.82964,43.39598],[-122.97276,43.43018],[-123.11673,43.41733],[-123.17168,43.47713],[-123.30871,43.51245],[-123.36897,43.50343],[-123.47065,43.42741],[-123.63742,43.19529],[-123.71035,43.15178],[-123.77691,43.07851],[-123.89426,43.08655],[-123.99454,43.11946],[-124.02015,43.14447],[-124.06715,43.15385],[-124.1142,43.21009],[-124.16556,43.2288],[-124.22332,43.2303],[-124.3002,43.19579]]]}},{"type":"Feature","properties":{"channel":"deFacto","holder":"raiders","holderLabel":"De Facto raider control","name":"Vipers","nameConfidence":"printed","mergedTerritories":false,"boundarySource":"inferred","era":2253,"areaKm2":7439.7,"sourceComponent":"raiders-vipers"},"geometry":{"type":"Polygon","coordinates":[[[-116.76575,36.84144],[-116.81998,36.76982],[-117.01679,36.73109],[-117.00351,36.70827],[-116.84346,36.61773],[-116.82447,36.57569],[-116.73898,36.50093],[-116.59855,36.45208],[-116.54314,36.49841],[-116.50819,36.44421],[-116.32421,36.3527],[-116.21058,36.32876],[-116.12289,36.26426],[-116.07856,36.26254],[-116.07828,36.19662],[-115.97943,36.11389],[-115.81078,36.33331],[-115.64878,36.35842],[-115.6061,36.40687],[-115.55113,36.41195],[-115.47531,36.3651],[-115.4572,36.32283],[-115.3777,36.307],[-115.34275,36.33871],[-115.29645,36.35222],[-115.25353,36.40053],[-115.23709,36.45415],[-115.17152,36.51158],[-115.1862,36.56462],[-115.31316,36.59229],[-115.33453,36.62386],[-115.36982,36.6377],[-115.39608,36.70891],[-115.44092,36.75646],[-115.60459,36.82278],[-115.66263,36.82731],[-115.76722,36.75219],[-115.92187,36.76395],[-115.96472,36.7813],[-115.99024,36.84754],[-116.08911,36.90508],[-116.12787,36.90793],[-116.15958,36.88672],[-116.22934,36.90904],[-116.31002,36.90387],[-116.35536,36.86475],[-116.51876,36.79784],[-116.53716,36.75364],[-116.49587,36.72095],[-116.50948,36.70309],[-116.59232,36.74805],[-116.57539,36.79707],[-116.61323,36.88123],[-116.61357,36.98789],[-116.66747,36.97747],[-116.76575,36.84144]]]}},{"type":"Feature","properties":{"channel":"deFacto","holder":"raiders","holderLabel":"De Facto raider control","name":null,"nameConfidence":"none","mergedTerritories":false,"boundarySource":"drawn","era":2253,"areaKm2":7322.6,"sourceComponent":"raiders-unnamed-1"},"geometry":{"type":"Polygon","coordinates":[[[-119.30535,38.41287],[-119.42067,38.23938],[-119.39905,38.17744],[-119.34017,38.13895],[-119.42018,38.07036],[-119.44745,38.01831],[-119.48632,37.99958],[-119.53362,37.91235],[-119.62184,37.92377],[-119.67598,37.91186],[-119.73639,37.86262],[-119.73165,37.81237],[-119.68824,37.78093],[-119.63854,37.78676],[-119.56518,37.76188],[-119.5335,37.76371],[-119.49209,37.79329],[-119.38933,37.79522],[-119.3647,37.78009],[-119.34822,37.73244],[-119.24716,37.68267],[-119.17732,37.66707],[-119.09764,37.67914],[-119.0771,37.58117],[-119.00368,37.53555],[-118.94649,37.53759],[-118.88402,37.50491],[-118.85844,37.50526],[-118.8125,37.54063],[-118.7277,37.51775],[-118.61995,37.63769],[-118.62302,37.72395],[-118.60251,37.75894],[-118.61971,37.7911],[-118.56744,37.82764],[-118.57542,37.85153],[-118.5488,37.88777],[-118.54221,37.94537],[-118.44461,38.0015],[-118.42392,38.03645],[-118.36501,38.05378],[-118.36243,38.08497],[-118.33691,38.10557],[-118.36649,38.15564],[-118.42133,38.16472],[-118.39482,38.2213],[-118.40052,38.29675],[-118.4753,38.30681],[-118.62108,38.19979],[-118.62467,38.22971],[-118.57563,38.29617],[-118.57832,38.36206],[-118.60496,38.40252],[-118.69405,38.43505],[-118.76698,38.41977],[-118.83857,38.34333],[-118.90811,38.31842],[-118.98953,38.34722],[-119.01969,38.39712],[-119.08304,38.42972],[-119.2193,38.4467],[-119.30535,38.41287]]]}},{"type":"Feature","properties":{"channel":"deFacto","holder":"raiders","holderLabel":"De Facto raider control","name":null,"nameConfidence":"none","mergedTerritories":false,"boundarySource":"drawn","era":2253,"areaKm2":3879.4,"sourceComponent":"raiders-unnamed-2"},"geometry":{"type":"Polygon","coordinates":[[[-119.86148,40.3188],[-119.88758,40.26187],[-119.84971,40.21355],[-119.56626,40.17142],[-119.52816,40.01032],[-119.50374,39.97961],[-119.45176,39.96499],[-119.36939,39.97727],[-119.32535,39.96605],[-119.26046,39.98992],[-119.18421,40.05709],[-119.18643,40.13857],[-119.23057,40.20618],[-119.23909,40.28635],[-119.1851,40.4922],[-119.20671,40.53381],[-119.16287,40.54289],[-119.05505,40.63683],[-119.02927,40.67796],[-119.02741,40.72952],[-119.04848,40.75079],[-119.11526,40.76778],[-119.24262,40.69025],[-119.29955,40.58622],[-119.24485,40.54637],[-119.28413,40.54332],[-119.32065,40.60744],[-119.37029,40.63295],[-119.29737,40.67376],[-119.26545,40.71625],[-119.27462,40.76045],[-119.34148,40.7773],[-119.34442,40.8228],[-119.40113,40.86736],[-119.4549,40.8664],[-119.48569,40.83946],[-119.54852,40.8263],[-119.64481,40.77528],[-119.71998,40.66707],[-119.71053,40.6229],[-119.6611,40.56157],[-119.59265,40.54014],[-119.63399,40.50576],[-119.69639,40.40021],[-119.75529,40.37741],[-119.77775,40.34697],[-119.86148,40.3188]]]}},{"type":"Feature","properties":{"channel":"deFacto","holder":"raiders","holderLabel":"De Facto raider control","name":"Khans","nameConfidence":"printed","mergedTerritories":false,"boundarySource":"inferred","era":2253,"areaKm2":975.9,"sourceComponent":"raiders-khans-2"},"geometry":{"type":"Polygon","coordinates":[[[-115.88246,36.23365],[-115.97488,36.11982],[-115.89677,36.04327],[-115.80381,35.97963],[-115.73326,35.97258],[-115.69871,35.93849],[-115.61959,35.92284],[-115.53946,35.94787],[-115.52199,35.99672],[-115.56105,36.02495],[-115.56407,36.08014],[-115.61371,36.10134],[-115.6227,36.15543],[-115.77465,36.22851],[-115.73213,36.27701],[-115.73393,36.32738],[-115.67395,36.35882],[-115.81078,36.33331],[-115.88246,36.23365]]]}},{"type":"Feature","properties":{"channel":"deFacto","holder":"raiders","holderLabel":"De Facto raider control","name":"Khans","nameConfidence":"printed","mergedTerritories":false,"boundarySource":"drawn","era":2253,"areaKm2":569.0,"sourceComponent":"raiders-khans-3"},"geometry":{"type":"Polygon","coordinates":[[[-115.52256,36.08783],[-115.55326,36.0416],[-115.5333,36.01489],[-115.48052,36.00439],[-115.52492,35.94043],[-115.48054,35.89291],[-115.41603,35.88456],[-115.36813,35.91364],[-115.3437,35.8928],[-115.29369,35.89185],[-115.21684,35.95147],[-115.21702,36.04258],[-115.28179,36.0966],[-115.32734,36.10347],[-115.35893,36.08249],[-115.43604,36.06832],[-115.46918,36.09768],[-115.52256,36.08783]]]}},{"type":"Feature","properties":{"channel":"deFacto","holder":"other","holderLabel":"De Facto control, other factions","name":"New Reno","nameConfidence":"printed","mergedTerritories":false,"boundarySource":"drawn","era":2253,"areaKm2":2224.3,"sourceComponent":"other-2"},"geometry":{"type":"Polygon","coordinates":[[[-119.96824,39.3153],[-119.87608,39.20709],[-119.75209,39.19301],[-119.62576,39.24598],[-119.59983,39.30284],[-119.54862,39.3446],[-119.56905,39.40175],[-119.53476,39.49112],[-119.58945,39.55119],[-119.53043,39.64585],[-119.60269,39.80987],[-119.65528,39.84479],[-119.82821,39.84356],[-119.90956,39.81059],[-119.93794,39.77878],[-119.93464,39.73329],[-119.8899,39.70193],[-119.87084,39.6496],[-119.93345,39.62062],[-119.97057,39.57661],[-119.96206,39.51686],[-119.98162,39.46126],[-119.9572,39.43065],[-119.91956,39.41832],[-119.97059,39.37639],[-119.96824,39.3153]]]}},{"type":"Feature","properties":{"channel":"deFacto","holder":"other","holderLabel":"De Facto control, other factions","name":"Arroyo","nameConfidence":"printed","mergedTerritories":false,"boundarySource":"drawn","era":2253,"areaKm2":2052.0,"sourceComponent":"other-1"},"geometry":{"type":"Polygon","coordinates":[[[-123.95165,41.95846],[-123.93494,41.92095],[-123.87215,41.88961],[-123.74223,41.89558],[-123.65449,41.85469],[-123.56008,41.87776],[-123.47985,41.94927],[-123.4878,41.99931],[-123.46227,42.03668],[-123.47461,42.06487],[-123.44494,42.09285],[-123.33559,42.09847],[-123.29523,42.13416],[-123.29486,42.16541],[-123.33026,42.19845],[-123.31072,42.24989],[-123.34806,42.30325],[-123.53109,42.35265],[-123.60084,42.33575],[-123.67037,42.35007],[-123.71265,42.33457],[-123.93877,42.11783],[-123.95165,41.95846]]]}},{"type":"Feature","properties":{"channel":"deJure","holder":"ncr","holderLabel":"De Jure NCR border","name":null,"nameConfidence":"notApplicable","era":2253,"areaKm2":77168.9,"sourceComponent":"dejure-42"},"geometry":{"type":"Polygon","coordinates":[[[-120.115,36.80229],[-120.17242,36.78403],[-120.18932,36.75961],[-120.15226,36.727],[-120.14401,36.63129],[-120.16295,36.35982],[-120.14799,36.28108],[-120.17257,36.0802],[-120.15428,36.02792],[-120.08421,36.00814],[-120.03425,35.97342],[-120.04586,35.73454],[-120.02775,35.68224],[-120.04203,35.63272],[-120.02736,35.55396],[-120.04459,35.3497],[-120.02581,35.04084],[-120.04508,34.93364],[-119.96962,34.89477],[-119.94602,34.84379],[-119.87212,34.84558],[-119.72485,34.77704],[-119.7564,34.72358],[-119.82191,34.73406],[-119.86788,34.72339],[-119.94845,34.66869],[-119.94037,34.64491],[-119.87744,34.62365],[-119.84826,34.57399],[-119.72141,34.5829],[-119.68473,34.56574],[-119.58048,34.60515],[-119.48839,34.56989],[-119.37772,34.59004],[-119.31925,34.61872],[-119.198,34.62569],[-119.15982,34.65991],[-119.11642,34.65945],[-119.04363,34.70139],[-118.9672,34.71336],[-118.87276,34.7651],[-118.66109,34.91413],[-118.61623,35.00576],[-118.56871,35.03148],[-118.50924,35.03933],[-118.46773,34.98704],[-118.43999,34.97773],[-118.39518,34.99256],[-118.35254,34.95581],[-118.37428,34.84894],[-118.36092,34.8263],[-118.37191,34.78305],[-118.34701,34.76291],[-118.28774,34.77064],[-118.24554,34.75422],[-118.16314,34.76686],[-118.10214,34.74932],[-118.027,34.7654],[-117.8575,34.75554],[-117.83006,34.76645],[-117.76041,34.74037],[-117.74579,34.71286],[-117.76008,34.67925],[-117.72667,34.65061],[-117.71775,34.6015],[-117.78237,34.53176],[-117.80347,34.44059],[-117.79318,34.40708],[-117.83187,34.37336],[-117.90105,34.37902],[-117.90782,34.32146],[-117.74335,34.24428],[-117.71608,34.25516],[-117.67577,34.24331],[-117.49463,34.25087],[-117.46011,34.23773],[-117.31059,34.24854],[-117.25023,34.23051],[-117.20996,34.23885],[-117.17407,34.22081],[-117.06049,34.22893],[-116.96732,34.18188],[-116.94419,34.20695],[-117.01294,34.25395],[-117.00122,34.29705],[-116.8944,34.34935],[-116.82238,34.35379],[-116.63424,34.58994],[-116.5819,34.62072],[-116.49938,34.63206],[-116.4188,34.71405],[-116.34254,34.68338],[-116.2616,34.67896],[-116.2329,34.66427],[-116.21203,34.61251],[-116.16188,34.58678],[-116.10254,34.59327],[-116.0739,34.57854],[-116.00431,34.59204],[-115.98864,34.73207],[-116.00222,34.93241],[-115.988,35.29538],[-116.00343,35.32794],[-115.99249,35.44167],[-115.9641,35.47246],[-115.86876,35.48554],[-115.82807,35.47297],[-115.73857,35.48482],[-115.6979,35.47221],[-115.60839,35.48395],[-115.56187,35.47238],[-115.47821,35.48292],[-115.43171,35.47129],[-115.34803,35.48172],[-115.30155,35.47004],[-115.21786,35.48037],[-114.85554,35.46523],[-114.82738,35.47536],[-114.71824,35.4595],[-114.66344,35.32264],[-114.65349,35.23846],[-114.65758,35.20739],[-114.72313,35.12991],[-114.7096,35.102],[-114.7307,35.04258],[-114.70034,34.88115],[-114.63914,34.81125],[-114.62268,34.74847],[-114.54338,34.70201],[-114.53332,34.66337],[-114.50248,34.63855],[-114.50033,34.58334],[-114.46121,34.54989],[-114.43498,34.44843],[-114.22565,34.31885],[-114.28505,34.24267],[-114.39354,34.19306],[-114.46342,34.13507],[-114.51539,34.05497],[-114.55335,34.03801],[-114.60439,33.97823],[-114.6142,33.94611],[-114.59172,33.85919],[-114.60354,33.81154],[-114.57459,33.74602],[-114.61017,33.67383],[-114.60998,33.60309],[-114.69408,33.48659],[-114.76035,33.46431],[-114.79616,33.41724],[-114.78041,33.37968],[-114.79096,33.28164],[-114.74938,33.21345],[-114.7701,33.10847],[-114.82032,33.04858],[-114.79254,33.0335],[-114.75836,33.03983],[-114.66893,32.97038],[-114.61076,32.97603],[-114.56352,32.95436],[-114.54263,32.87226],[-114.61313,32.79864],[-114.70771,32.79634],[-114.7652,32.76544],[-114.8727,32.62905],[-114.87475,32.56795],[-114.89241,32.5444],[-114.93641,32.53107],[-115.04571,32.54081],[-115.02565,32.46363],[-115.03636,32.39074],[-115.07774,32.32215],[-115.10841,32.28088],[-115.18038,32.26207],[-115.27654,32.17778],[-115.29484,32.02232],[-115.2417,31.97686],[-115.17122,31.95498],[-115.14063,31.90516],[-115.08893,31.91001],[-115.04222,31.88857],[-115.02601,31.91696],[-115.10827,31.96199],[-115.12638,32.00914],[-115.22497,32.02566],[-115.23813,32.05351],[-115.2202,32.14304],[-115.16966,32.1983],[-115.05521,32.23532],[-114.94846,32.46302],[-114.80204,32.5158],[-114.79126,32.5431],[-114.81055,32.59514],[-114.7131,32.72454],[-114.64303,32.75268],[-114.57889,32.73416],[-114.4792,32.83332],[-114.47522,32.93513],[-114.4944,32.98723],[-114.5441,33.01858],[-114.61617,33.02054],[-114.70189,33.07555],[-114.67836,33.21642],[-114.73505,33.29701],[-114.70549,33.36819],[-114.72119,33.40576],[-114.69182,33.43138],[-114.64026,33.44082],[-114.54837,33.57385],[-114.53092,33.69328],[-114.50305,33.74887],[-114.50845,33.79338],[-114.53318,33.81924],[-114.51475,33.88828],[-114.53216,33.9559],[-114.45096,34.01601],[-114.38901,34.12817],[-114.23462,34.21119],[-114.15868,34.27005],[-114.14069,34.31866],[-114.34033,34.43495],[-114.34902,34.46878],[-114.39511,34.50607],[-114.39842,34.56612],[-114.43627,34.59476],[-114.43962,34.65481],[-114.46795,34.66998],[-114.48632,34.71725],[-114.5276,34.73516],[-114.56906,34.8238],[-114.63605,34.8927],[-114.6561,35.01551],[-114.63289,35.09045],[-114.64434,35.13391],[-114.5887,35.17922],[-114.58252,35.22582],[-114.61326,35.41247],[-114.64448,35.43726],[-114.6852,35.52102],[-115.04778,35.53674],[-115.13156,35.52654],[-115.17805,35.5383],[-115.26181,35.528],[-115.30832,35.5397],[-115.58385,35.52909],[-115.62453,35.54175],[-115.71412,35.52999],[-115.75482,35.5426],[-115.84439,35.53074],[-115.88511,35.5433],[-115.93215,35.53436],[-115.98739,35.55426],[-116.00073,35.77497],[-115.98815,35.81796],[-116.00959,35.84939],[-115.99109,35.8935],[-115.99167,36.09127],[-116.03552,36.1134],[-116.06994,36.16776],[-116.14176,36.19976],[-116.17631,36.25408],[-116.24826,36.28602],[-116.27418,36.33183],[-116.36238,36.37583],[-116.39718,36.43008],[-116.46941,36.46187],[-116.49554,36.50762],[-116.5841,36.55145],[-116.60294,36.59353],[-116.69167,36.63726],[-116.72686,36.69141],[-116.79951,36.72297],[-116.84967,36.78434],[-116.82989,37.03232],[-116.94475,37.07597],[-116.96554,37.10242],[-116.98417,38.61489],[-116.9563,38.67112],[-116.89469,38.7236],[-116.87434,38.78343],[-116.88784,38.82664],[-116.94754,38.85085],[-117.17936,38.84189],[-117.22231,38.85394],[-117.25149,38.84319],[-117.29446,38.85521],[-117.32363,38.84444],[-117.36661,38.85643],[-117.39577,38.84564],[-117.43876,38.8576],[-117.46792,38.8468],[-117.51092,38.85873],[-117.54006,38.84791],[-117.58308,38.85982],[-117.61221,38.84897],[-117.65524,38.86085],[-117.68436,38.84999],[-117.7274,38.86184],[-117.75651,38.85096],[-118.09438,38.86485],[-118.18175,38.85226],[-118.22488,38.86392],[-118.25391,38.85291],[-118.58576,38.86656],[-118.63596,38.84083],[-118.67921,38.77561],[-118.6019,38.74054],[-118.55374,38.7914],[-118.49421,38.8088],[-118.23476,38.79553],[-118.20575,38.80654],[-117.86815,38.79299],[-117.7808,38.80533],[-117.73778,38.7935],[-117.70869,38.80438],[-117.66569,38.79251],[-117.63659,38.80337],[-117.5936,38.79149],[-117.56449,38.80233],[-117.52151,38.79041],[-117.49239,38.80123],[-117.44943,38.78929],[-117.4203,38.80009],[-117.37734,38.78812],[-117.3482,38.7989],[-117.30526,38.7869],[-117.27611,38.79767],[-117.23319,38.78564],[-117.05986,38.79369],[-117.01234,38.78755],[-116.97874,38.76347],[-116.99275,38.72517],[-117.05116,38.68341],[-117.06068,38.61033],[-117.03155,37.37948],[-117.04068,37.03676],[-116.99898,37.00427],[-116.94964,37.00888],[-116.91691,36.98478],[-116.93307,36.78831],[-116.91252,36.74148],[-116.82207,36.69313],[-116.79566,36.64745],[-116.70685,36.6038],[-116.67172,36.54965],[-116.59931,36.518],[-116.57311,36.47227],[-116.48466,36.42844],[-116.46593,36.38634],[-116.37766,36.34242],[-116.34291,36.28816],[-116.27092,36.25629],[-116.24503,36.21048],[-116.15711,36.16638],[-116.13864,36.12422],[-116.06274,36.07778],[-116.06205,35.55521],[-116.06729,35.50853],[-116.12086,35.45763],[-116.17678,35.4367],[-116.26551,35.46522],[-116.27183,35.53],[-116.2446,35.58605],[-116.27924,35.61997],[-116.28032,35.64515],[-116.3167,35.66349],[-116.46793,35.64929],[-116.65393,35.66868],[-116.8051,35.654],[-116.89292,35.6772],[-116.93078,35.7205],[-116.89785,35.81863],[-116.92715,35.83314],[-116.98901,35.81061],[-117.08006,35.82287],[-117.10337,35.87926],[-117.11034,35.98474],[-117.13531,36.00517],[-117.53609,36.00529],[-117.56405,35.99445],[-117.68049,36.00616],[-117.76441,35.9939],[-117.87499,36.00661],[-117.96476,35.99297],[-118.00611,36.00471],[-118.0852,35.95747],[-118.12939,35.95837],[-118.20247,35.91228],[-118.2571,35.92622],[-118.29819,35.91748],[-118.35746,35.94572],[-118.40442,35.93568],[-118.44891,35.95682],[-118.49587,35.94674],[-118.5611,35.9736],[-118.57198,36.00704],[-118.50525,36.07249],[-118.48114,36.13386],[-118.5351,36.18363],[-118.57666,36.19515],[-118.60874,36.25471],[-118.69236,36.29806],[-118.70336,36.33149],[-118.73638,36.35504],[-118.74662,36.42443],[-118.79742,36.44414],[-118.88827,36.39376],[-118.91935,36.39212],[-118.9845,36.45468],[-118.96068,36.51617],[-118.98253,36.56259],[-118.92589,36.62095],[-118.86122,36.65543],[-118.82939,36.76973],[-118.77681,36.82196],[-118.77445,36.85315],[-118.8121,36.87064],[-118.82324,36.90405],[-118.79912,36.9655],[-118.74042,37.01899],[-118.72215,37.07915],[-118.78895,37.12624],[-118.81289,37.19784],[-118.80381,37.26628],[-118.73329,37.34269],[-118.70894,37.40412],[-118.75368,37.46109],[-118.99379,37.56326],[-119.04323,37.61406],[-119.07323,37.6076],[-119.09784,37.56646],[-119.20138,37.49286],[-119.20792,37.45559],[-119.29375,37.34983],[-119.32018,37.22109],[-119.36775,37.1543],[-119.40943,37.14514],[-119.4398,37.15895],[-119.48085,37.12939],[-119.51224,37.12758],[-119.54072,37.08026],[-119.72217,36.9578],[-119.79051,36.86039],[-119.82272,36.84288],[-119.898,36.82076],[-120.06682,36.82868],[-120.115,36.80229]]]}},{"type":"Feature","properties":{"channel":"deJure","holder":"ncr","holderLabel":"De Jure NCR border","name":null,"nameConfidence":"notApplicable","era":2253,"areaKm2":3806.0,"sourceComponent":"dejure-2"},"geometry":{"type":"Polygon","coordinates":[[[-120.16165,39.87899],[-120.19525,39.8254],[-120.16352,39.8118],[-120.10969,39.8287],[-120.07273,39.80082],[-120.08748,39.24293],[-120.05432,39.22455],[-120.00611,39.25566],[-119.99421,39.38663],[-119.98977,40.02937],[-120.00898,40.31787],[-119.95549,40.35507],[-119.89689,40.34199],[-119.77949,40.35173],[-119.74759,40.33801],[-119.69323,40.35472],[-119.66102,40.37695],[-119.56975,40.51421],[-119.46017,40.5834],[-119.36451,40.59829],[-119.28536,40.6404],[-119.24602,40.64345],[-119.04101,40.76768],[-118.86995,40.81799],[-118.72805,40.83654],[-118.65028,40.90335],[-118.57494,40.93892],[-118.56176,40.99779],[-118.50928,41.07982],[-118.50436,41.16256],[-118.46703,41.21087],[-118.34879,41.28024],[-118.26238,41.48109],[-118.27126,41.54574],[-118.2499,41.6214],[-118.2863,41.70621],[-118.33164,41.73821],[-118.32112,41.78623],[-118.38998,41.9822],[-118.50447,41.99553],[-118.59597,41.98262],[-118.79257,41.99477],[-118.8229,41.98361],[-119.17727,41.99425],[-119.26863,41.98081],[-119.31404,41.99205],[-119.34428,41.98076],[-119.38969,41.99197],[-119.41992,41.98065],[-119.46535,41.99184],[-119.49556,41.9805],[-119.541,41.99165],[-119.72249,41.97975],[-119.78254,41.99291],[-120.03323,41.98148],[-120.07877,41.99242],[-120.10887,41.98093],[-120.15442,41.99184],[-120.18451,41.98033],[-120.23007,41.99121],[-120.31483,41.97832],[-120.32483,41.95049],[-120.2547,41.92946],[-120.22464,41.94099],[-120.08897,41.92864],[-119.76289,41.94057],[-119.71745,41.9295],[-119.6873,41.94089],[-119.64187,41.9298],[-119.6117,41.94117],[-119.56628,41.93004],[-119.53611,41.9414],[-119.4907,41.93024],[-119.46051,41.94158],[-119.41512,41.93039],[-119.38491,41.94171],[-119.33953,41.93049],[-119.30931,41.94179],[-119.26395,41.93054],[-119.23372,41.94182],[-119.18836,41.93055],[-119.15812,41.9418],[-119.11278,41.9305],[-119.08252,41.94174],[-119.02266,41.92822],[-118.62083,41.93681],[-118.57559,41.9253],[-118.52432,41.93541],[-118.45143,41.90375],[-118.44232,41.83911],[-118.40798,41.79987],[-118.41642,41.72669],[-118.33819,41.63988],[-118.35642,41.575],[-118.34108,41.51161],[-118.41325,41.32882],[-118.45236,41.28531],[-118.49678,41.2765],[-118.55651,41.23395],[-118.59005,41.1557],[-118.58296,41.11622],[-118.64259,40.99692],[-118.75159,40.90338],[-119.08031,40.82104],[-119.31962,40.67938],[-119.49063,40.64877],[-119.64338,40.54993],[-119.76225,40.39645],[-119.82088,40.40959],[-119.85031,40.39817],[-119.90896,40.41126],[-120.03444,40.4048],[-120.12598,40.45179],[-120.1205,40.50947],[-120.15972,40.50613],[-120.18832,40.43828],[-120.13052,40.40972],[-120.08263,40.35331],[-120.08935,40.1721],[-120.07,40.11981],[-120.0821,39.91689],[-120.11219,39.88979],[-120.16165,39.87899]]]}},{"type":"Feature","properties":{"channel":"deJure","holder":"ncr","holderLabel":"De Jure NCR border","name":null,"nameConfidence":"notApplicable","era":2253,"areaKm2":3227.1,"sourceComponent":"dejure-55"},"geometry":{"type":"Polygon","coordinates":[[[-121.25696,37.22555],[-121.247,37.18152],[-121.29568,37.0874],[-121.25027,37.05184],[-121.23507,36.99361],[-121.15452,36.91488],[-121.14227,36.88172],[-121.01239,36.82499],[-120.95169,36.83421],[-120.88649,36.81356],[-120.81444,36.7739],[-120.80065,36.73596],[-120.74565,36.7077],[-120.57969,36.72595],[-120.5299,36.71183],[-120.43975,36.72761],[-120.39758,36.71681],[-120.32174,36.75488],[-120.31838,36.78135],[-120.38087,36.81321],[-120.39274,36.84645],[-120.45111,36.88438],[-120.45972,36.94409],[-120.49362,36.96711],[-120.55415,37.08167],[-120.74192,37.15636],[-120.81315,37.26327],[-120.84211,37.27195],[-120.90984,37.24578],[-120.95242,37.25638],[-120.98033,37.24466],[-121.03828,37.26192],[-121.16872,37.23106],[-121.23855,37.2454],[-121.25696,37.22555]]]}},{"type":"Feature","properties":{"channel":"deJure","holder":"ncr","holderLabel":"De Jure NCR border","name":null,"nameConfidence":"notApplicable","era":2253,"areaKm2":3181.5,"sourceComponent":"dejure-1"},"geometry":{"type":"Polygon","coordinates":[[[-124.1065,41.49287],[-124.00451,41.45068],[-123.96305,41.34127],[-123.9174,41.31623],[-123.89678,41.2537],[-123.84705,41.23487],[-123.83264,41.20203],[-123.76026,41.1628],[-123.7525,41.05028],[-123.7113,41.01891],[-123.71155,40.97203],[-123.65635,40.87654],[-123.53498,40.83386],[-123.50856,40.78842],[-123.36685,40.74547],[-123.25429,40.69004],[-123.12446,40.70625],[-123.08775,40.68407],[-123.07384,40.65113],[-122.93495,40.59672],[-122.76383,40.62773],[-122.72533,40.60073],[-122.74906,40.54318],[-122.71648,40.5303],[-122.60277,40.56798],[-122.52699,40.64826],[-122.42151,40.67337],[-122.36022,40.65685],[-122.28144,40.68066],[-122.23646,40.67057],[-122.18676,40.68228],[-122.15422,40.66924],[-122.09208,40.68382],[-121.88374,40.82542],[-121.85586,40.85771],[-121.85186,40.91547],[-121.80382,40.93173],[-121.75059,40.91817],[-121.65442,40.95059],[-121.49675,40.91436],[-121.33415,40.95127],[-121.25172,40.8977],[-121.25743,40.86032],[-121.21874,40.84843],[-121.19238,40.8853],[-121.09784,40.92199],[-121.02795,41.0046],[-121.01695,41.06372],[-121.05216,41.15376],[-121.01867,41.29516],[-120.95236,41.33561],[-120.80365,41.35811],[-120.7269,41.35437],[-120.58639,41.41592],[-120.52854,41.40792],[-120.42742,41.42981],[-120.39493,41.45225],[-120.33269,41.59415],[-120.35731,41.71224],[-120.32468,41.77062],[-120.37559,41.7957],[-120.43185,41.76306],[-120.40168,41.66672],[-120.40518,41.60427],[-120.47006,41.48744],[-120.54048,41.45676],[-120.61469,41.47149],[-120.70742,41.4101],[-120.80239,41.42531],[-120.89152,41.39025],[-120.94754,41.39334],[-121.01763,41.36236],[-121.10142,41.3489],[-121.11285,41.32574],[-121.08933,41.24853],[-121.12358,41.17905],[-121.08825,41.08903],[-121.09037,41.04218],[-121.179,40.95531],[-121.25279,40.96964],[-121.26332,41.01367],[-121.3284,41.04025],[-121.37852,41.02891],[-121.43862,40.97402],[-121.51746,40.96641],[-121.66655,41.01493],[-121.79215,40.97058],[-121.90013,41.01798],[-121.95113,40.97516],[-121.95837,40.94247],[-121.93058,40.90757],[-121.94647,40.86254],[-122.00787,40.81207],[-122.06392,40.79899],[-122.13376,40.7361],[-122.27203,40.72427],[-122.32093,40.74378],[-122.38347,40.71345],[-122.50071,40.71666],[-122.90094,40.66202],[-123.00127,40.68955],[-123.0211,40.73661],[-123.07198,40.77613],[-123.13576,40.78134],[-123.22675,40.75391],[-123.36,40.80949],[-123.43407,40.82242],[-123.49119,40.89147],[-123.59617,40.92788],[-123.62851,41.03425],[-123.67172,41.07035],[-123.66903,41.17503],[-123.76005,41.20967],[-123.78682,41.25505],[-123.86142,41.28333],[-123.85092,41.32238],[-123.90482,41.36621],[-123.92541,41.45999],[-123.98155,41.50848],[-124.04195,41.50382],[-124.08361,41.51944],[-124.1065,41.49287]]]}}],"extraction":{"openingSurvivalPct":{"ncr":90.4,"enclave":90.2,"bos":24.0,"shi":90.9,"raiders":95.9,"other":90.3},"survivalNote":"Percent of colour-matched pixels that survive an opening of radius 3. A genuine fill survives 90%+. A channel far below that is matching line work rather than territory - this is how the Brotherhood swatch was caught claiming every graticule hairline and place label on the sheet.","deJure":{"rawPx":47255,"closingSweepPx":{"4":219882,"6":324622,"7":325692,"8":327882,"10":542474,"12":544298,"14":548688},"chosenRadius":7,"isLowerBound":true,"note":"The hatched extent, not the full area the drawn border encloses. The sweep has two plateaus - 6-8 merges hatch strokes, 10-14 floods the border curve's interior - and the sheet hatches only part of what its border surrounds. Treat as a lower bound."},"componentsPerChannel":{"ncr":11,"enclave":1,"bos":2,"shi":1,"raiders":11,"other":2,"deJure":4}}}
