{"_doc":"DERIVED. The NCR's administrative tier, taken from the ADMINISTRATIVE MAP inset on ncr-2253-newwest.png and registered to the main sheet by its Pacific coastline. EVERY feature is dated 2253. LOWER ACCURACY THAN THE CONTROL LAYERS: one inset pixel is about 2.4 km, so boundaries here are worth roughly 3 km against 0.78 km for anything taken from the main sheet. Rebuild with tools/ncr-2253-admin.py.","era":2253,"type":"FeatureCollection","features":[{"type":"Feature","properties":{"channel":"administrative","tier":"state","tierLabel":"State","name":"Shady","era":2253,"areaKm2":62496.1,"sourceComponent":"state1","accuracyKm":2.42},"geometry":{"type":"Polygon","coordinates":[[[-119.6146,38.65294],[-119.47879,38.18581],[-119.26811,38.07351],[-119.50891,37.86323],[-119.49153,37.7316],[-119.07084,37.66504],[-118.99442,37.5237],[-118.76722,37.43712],[-118.81436,37.15678],[-118.71979,37.04189],[-118.85031,36.67602],[-119.00959,36.48371],[-118.92259,36.39],[-118.68698,36.35092],[-118.55635,35.95135],[-118.30889,35.86938],[-117.98608,35.98255],[-117.15589,35.97357],[-117.13693,35.8205],[-116.96874,35.80945],[-116.95023,35.65634],[-116.79575,35.59758],[-116.34353,35.64169],[-116.28831,35.45116],[-116.19862,35.42382],[-116.10584,35.57581],[-116.07791,36.05046],[-116.86569,36.65863],[-116.87661,36.97003],[-117.08041,36.99715],[-117.09991,37.06052],[-117.1139,38.64895],[-117.05288,38.72795],[-118.48453,38.80195],[-118.59222,38.77971],[-118.64267,38.58915],[-118.74997,38.56676],[-118.91484,38.71237],[-119.5565,38.73328],[-119.6146,38.65294]],[[-119.01005,37.90348],[-119.14988,37.89602],[-119.23185,37.96856],[-119.12071,38.06011],[-118.92733,38.07885],[-118.89158,37.97379],[-119.01005,37.90348]]]}},{"type":"Feature","properties":{"channel":"administrative","tier":"state","tierLabel":"State","name":"Maxson","era":2253,"areaKm2":28830.8,"sourceComponent":"state2","accuracyKm":2.42},"geometry":{"type":"Polygon","coordinates":[[[-120.14131,36.68229],[-120.14248,36.0487],[-119.52495,36.03123],[-119.48935,35.92637],[-119.50431,35.56185],[-119.77575,35.38712],[-119.97602,35.40879],[-120.03816,35.34917],[-120.02152,34.90083],[-119.70414,34.77109],[-119.73771,34.62781],[-119.2544,34.64815],[-118.79975,34.84005],[-118.64356,35.03205],[-118.34938,35.05102],[-118.23607,35.21033],[-118.34636,35.29909],[-118.34882,35.47849],[-118.63794,35.43849],[-118.6994,35.62773],[-118.61804,36.14064],[-118.71644,36.18695],[-118.732,36.31869],[-119.02645,36.36734],[-119.06862,36.49335],[-118.77925,37.05169],[-118.87393,37.16653],[-118.8129,37.40485],[-119.07358,37.50666],[-119.32703,37.0907],[-119.4652,37.08285],[-119.82923,36.75319],[-120.05943,36.76883],[-120.14131,36.68229]],[[-119.05533,35.12128],[-119.2338,35.32941],[-119.14068,35.46296],[-118.9287,35.4874],[-118.83615,35.3726],[-119.05533,35.12128]]]}},{"type":"Feature","properties":{"channel":"administrative","tier":"state","tierLabel":"State","name":"Vault City","era":2253,"areaKm2":25430.4,"sourceComponent":"state3","accuracyKm":2.42},"geometry":{"type":"Polygon","coordinates":[[[-120.37522,41.83476],[-120.40643,41.44322],[-120.57708,41.33829],[-121.04554,41.30323],[-121.04997,41.00731],[-121.24074,40.80561],[-120.93632,40.71513],[-120.68069,40.7492],[-120.51484,40.62713],[-120.04255,40.79752],[-119.98378,40.71968],[-120.16913,40.49883],[-120.06747,40.38513],[-119.80498,40.39631],[-119.4808,40.64558],[-118.98334,40.74868],[-118.70255,40.96339],[-118.62996,41.18059],[-118.38152,41.40996],[-118.4731,41.84188],[-118.58003,41.88831],[-120.22301,41.9125],[-120.37522,41.83476]]]}},{"type":"Feature","properties":{"channel":"administrative","tier":"state","tierLabel":"State","name":"Los Angeles","era":2253,"areaKm2":25020.7,"sourceComponent":"state4","accuracyKm":2.42},"geometry":{"type":"Polygon","coordinates":[[[-120.18482,34.50061],[-119.67854,34.37046],[-119.44472,34.40175],[-119.20161,34.07376],[-119.04192,33.99728],[-118.82249,34.06918],[-118.49903,33.98348],[-118.39461,33.73652],[-118.06102,33.69707],[-117.68916,33.44031],[-117.60803,33.52496],[-117.28833,33.52521],[-117.14453,33.39835],[-116.88222,33.3183],[-116.738,33.37029],[-116.6238,33.52785],[-116.49811,33.55326],[-116.3054,33.43536],[-116.12206,33.53886],[-116.22725,33.62979],[-116.19324,33.79301],[-116.70729,34.00336],[-116.80841,33.98284],[-116.9905,34.14725],[-117.36351,34.22709],[-117.75573,34.18943],[-117.91447,34.26787],[-117.78306,34.54289],[-117.8285,34.69046],[-118.30032,34.72427],[-118.39246,34.92923],[-118.55353,35.00671],[-118.9873,34.66316],[-119.76001,34.53228],[-119.97214,34.59586],[-120.18482,34.50061]]]}},{"type":"Feature","properties":{"channel":"administrative","tier":"state","tierLabel":"State","name":"Redding","era":2253,"areaKm2":22012.3,"sourceComponent":"state5","accuracyKm":2.42},"geometry":{"type":"Polygon","coordinates":[[[-122.56176,40.58956],[-122.59056,40.51424],[-123.00849,40.36746],[-122.94896,40.15359],[-122.77918,40.10364],[-122.72061,39.88965],[-122.83228,39.65695],[-122.68223,39.57953],[-122.03187,39.5766],[-121.97375,39.72695],[-122.11297,39.85331],[-122.08188,39.9973],[-121.42752,39.9909],[-121.39497,39.90754],[-121.52493,39.78662],[-121.3329,39.67202],[-121.07533,39.8445],[-120.3255,39.80849],[-120.11161,39.94587],[-120.13854,40.09832],[-120.24382,40.14323],[-120.34523,40.09838],[-120.52524,40.26249],[-120.14196,40.34638],[-120.23189,40.50784],[-120.1454,40.59445],[-120.25933,40.66027],[-120.4361,40.57647],[-120.6877,40.61169],[-120.85576,40.50635],[-120.84911,40.64387],[-121.2986,40.72441],[-121.29285,40.86195],[-121.79099,40.90727],[-122.04239,40.71236],[-122.56176,40.58956]],[[-121.22343,40.15121],[-121.31854,40.24303],[-121.17109,40.32199],[-121.03268,40.19448],[-121.22343,40.15121]]]}},{"type":"Feature","properties":{"channel":"administrative","tier":"state","tierLabel":"State","name":"Hub","era":2253,"areaKm2":19261.5,"sourceComponent":"state6","accuracyKm":2.42},"geometry":{"type":"Polygon","coordinates":[[[-118.09567,35.28527],[-118.34816,34.96132],[-118.32694,34.80847],[-117.76512,34.74876],[-117.71933,34.51146],[-117.82622,34.33162],[-117.71803,34.24233],[-117.09764,34.23729],[-116.50962,34.71435],[-116.35626,34.74466],[-116.1606,34.62649],[-116.09594,34.68378],[-116.09689,35.35405],[-116.35351,35.39375],[-116.34481,35.55199],[-116.44089,35.60036],[-116.8991,35.57698],[-116.96543,35.25007],[-117.19666,35.2032],[-117.44062,35.37745],[-117.74898,35.31347],[-117.85225,35.38165],[-118.09567,35.28527]]]}},{"type":"Feature","properties":{"channel":"administrative","tier":"state","tierLabel":"State","name":"Dayglow","era":2253,"areaKm2":19167.9,"sourceComponent":"state7","accuracyKm":2.42},"geometry":{"type":"Polygon","coordinates":[[[-117.63276,33.42992],[-117.30752,33.05029],[-117.23941,32.81804],[-117.30781,32.69146],[-117.1283,32.61732],[-117.05468,32.45353],[-116.93702,32.50059],[-116.81986,32.45782],[-116.63965,32.56223],[-116.22031,32.46867],[-116.13859,32.55216],[-115.67966,32.59839],[-115.47152,32.50501],[-115.06782,32.56006],[-114.97107,32.48921],[-114.82101,32.71786],[-114.59277,32.8492],[-114.78667,32.99153],[-115.12343,32.97304],[-115.53406,33.22926],[-115.80029,33.04365],[-115.90259,33.2246],[-116.17385,33.4392],[-116.28755,33.37184],[-116.56146,33.49572],[-116.7008,33.33312],[-116.92005,33.2657],[-117.18221,33.34566],[-117.30091,33.47773],[-117.39486,33.43553],[-117.54527,33.49343],[-117.63276,33.42992]]]}},{"type":"Feature","properties":{"channel":"administrative","tier":"state","tierLabel":"State","name":"Junktown","era":2253,"areaKm2":7778.4,"sourceComponent":"state8","accuracyKm":2.42},"geometry":{"type":"Polygon","coordinates":[[[-118.58066,35.85608],[-118.62067,35.5548],[-118.34332,35.54715],[-118.30181,35.33115],[-118.19818,35.26341],[-117.87199,35.44488],[-117.73637,35.36101],[-117.51795,35.45125],[-117.36988,35.41442],[-117.1837,35.25067],[-117.0164,35.3294],[-117.00828,35.66711],[-117.19536,35.74145],[-117.27917,35.92625],[-118.0245,35.92955],[-118.23701,35.81721],[-118.54269,35.90928],[-118.58066,35.85608]]]}},{"type":"Feature","properties":{"channel":"administrative","tier":"territory","tierLabel":"Territory","name":"Sacramento","era":2253,"areaKm2":60921.7,"sourceComponent":"territory1","accuracyKm":2.42},"geometry":{"type":"Polygon","coordinates":[[[-122.03187,39.87254],[-121.91149,39.71891],[-121.92631,39.53336],[-122.62996,39.52383],[-122.72305,39.31853],[-122.57387,39.24097],[-122.31387,38.66604],[-122.05431,38.52402],[-122.0197,38.21369],[-121.67296,38.13792],[-121.43521,38.19448],[-121.43516,37.96733],[-121.73504,37.85017],[-121.60053,37.72335],[-121.63881,37.37316],[-121.17178,37.18971],[-120.7833,37.21315],[-120.27487,36.74214],[-120.04814,36.81663],[-119.86987,36.78921],[-119.71227,36.98278],[-119.37481,37.14789],[-119.24374,37.4247],[-119.08788,37.54866],[-119.24382,37.67278],[-119.40231,37.63828],[-119.53707,37.69904],[-119.55737,37.92034],[-119.40826,38.06573],[-119.51729,38.13228],[-119.69797,38.72513],[-120.14468,38.9208],[-120.22117,39.13006],[-120.11712,39.24354],[-120.13917,39.78152],[-120.65125,39.73614],[-120.97796,39.82124],[-121.20574,39.72395],[-121.43823,39.48865],[-121.61926,39.65103],[-121.49261,39.93044],[-121.97563,39.95411],[-122.03187,39.87254]]]}},{"type":"Feature","properties":{"channel":"administrative","tier":"territory","tierLabel":"Territory","name":"Mojave","era":2253,"areaKm2":37487.1,"sourceComponent":"territory2","accuracyKm":2.42},"geometry":{"type":"Polygon","coordinates":[[[-116.04527,35.36397],[-116.0345,34.56163],[-116.19362,34.55298],[-116.47185,34.6771],[-117.03449,34.20545],[-116.14867,33.82417],[-116.15166,33.64477],[-115.84292,33.39263],[-115.10954,33.02025],[-114.89795,33.01538],[-114.81102,33.18747],[-114.84964,33.33624],[-114.60732,33.62571],[-114.61916,33.97976],[-114.27161,34.28683],[-114.53093,34.46314],[-114.54954,34.63787],[-114.72807,34.80617],[-114.72283,35.29703],[-114.77699,35.39867],[-114.92363,35.4391],[-115.90232,35.43598],[-116.04527,35.36397]]]}},{"type":"Feature","properties":{"channel":"administrative","tier":"territory","tierLabel":"Territory","name":"Monterey","era":2253,"areaKm2":27712.9,"sourceComponent":"territory3","accuracyKm":2.42},"geometry":{"type":"Polygon","coordinates":[[[-121.90603,37.10345],[-121.97803,36.99474],[-121.80525,36.76416],[-121.8276,36.59944],[-121.95861,36.49883],[-121.937,36.36764],[-121.20003,35.66219],[-121.14703,35.51618],[-120.88326,35.39848],[-120.87446,35.2192],[-120.65233,35.13655],[-120.63845,34.55082],[-120.46896,34.45564],[-119.84185,34.69403],[-119.81251,34.76863],[-120.11192,34.92492],[-120.03997,35.91403],[-120.172,35.97401],[-120.20864,36.07864],[-120.19327,36.67039],[-120.40478,36.71217],[-120.66425,36.65177],[-121.17055,36.80416],[-121.34911,37.05659],[-121.34376,37.19413],[-121.52897,37.30872],[-121.90603,37.10345]]]}},{"type":"Feature","properties":{"channel":"administrative","tier":"territory","tierLabel":"Territory","name":"Baja","era":2253,"areaKm2":13678.0,"sourceComponent":"territory4","accuracyKm":2.42},"geometry":{"type":"Polygon","coordinates":[[[-117.03035,32.36902],[-117.05543,32.27411],[-116.87718,32.19953],[-116.89694,31.99381],[-116.75601,31.95612],[-116.51299,31.738],[-115.04056,31.65147],[-114.87366,31.70556],[-114.86527,31.77398],[-115.3123,32.00047],[-115.32655,32.15383],[-115.04851,32.38542],[-115.08165,32.51286],[-115.48508,32.45776],[-115.63769,32.53963],[-115.5696,32.2851],[-115.63258,32.22813],[-115.86705,32.51686],[-116.1021,32.51477],[-116.25818,32.41631],[-116.65248,32.51483],[-116.78308,32.42067],[-116.99913,32.44279],[-117.03035,32.36902]]]}},{"type":"Feature","properties":{"channel":"administrative","tier":"territory","tierLabel":"Territory","name":"San Francisco","era":2253,"areaKm2":5706.5,"sourceComponent":"territory5","accuracyKm":2.42},"geometry":{"type":"Polygon","coordinates":[[[-123.1699,38.40782],[-122.85929,38.14341],[-122.81046,37.9502],[-122.58698,37.82358],[-122.49862,37.89117],[-122.57431,38.0092],[-122.50219,38.11831],[-122.22433,38.07275],[-122.07247,38.20089],[-122.07464,38.42804],[-122.27443,38.49337],[-122.51303,38.79973],[-123.09735,38.58611],[-123.1699,38.40782]]]}},{"type":"Feature","properties":{"channel":"administrative","tier":"territory","tierLabel":"Territory","name":"San Francisco","era":2253,"areaKm2":2967.4,"sourceComponent":"territory6","accuracyKm":2.42},"geometry":{"type":"Polygon","coordinates":[[[-122.33302,37.90935],[-122.18666,37.53533],[-121.97161,37.49703],[-121.96388,37.18029],[-121.84393,37.16415],[-121.69335,37.29176],[-121.66891,37.75239],[-121.97135,37.79296],[-121.90655,37.92248],[-121.99141,37.99293],[-122.33302,37.90935]]]}},{"type":"Feature","properties":{"channel":"administrative","tier":"military","tierLabel":"Military Territory","name":"Navarro","era":2253,"areaKm2":6086.9,"sourceComponent":"military1","accuracyKm":2.42},"geometry":{"type":"MultiPolygon","coordinates":[[[[-123.75285,39.24349],[-123.70177,38.84427],[-123.43005,38.68482],[-123.34358,38.54668],[-123.22092,38.53207],[-123.01698,38.67484],[-122.64583,38.76709],[-122.61782,38.84242],[-122.74933,38.87845],[-122.94147,38.99063],[-122.97548,39.07354],[-122.87739,39.12071],[-122.57989,38.96579],[-122.6625,39.2421],[-123.2374,39.35099],[-123.3536,39.27609],[-123.69046,39.30523],[-123.75285,39.24349]]],[[[-122.66117,38.87738],[-122.58288,38.8282],[-122.51982,38.88928],[-122.59814,38.93851],[-122.66117,38.87738]]]]}},{"type":"Feature","properties":{"channel":"administrative","tier":"military","tierLabel":"Military Territory","name":"Mariposa","era":2253,"areaKm2":2229.9,"sourceComponent":"military2","accuracyKm":2.42},"geometry":{"type":"Polygon","coordinates":[[[-121.26053,37.12319],[-121.13405,36.85826],[-120.86973,36.83015],[-120.65338,36.69963],[-120.46419,36.72105],[-120.43466,36.79581],[-120.57622,36.8762],[-120.59543,37.00765],[-120.78975,37.07564],[-120.82026,37.15917],[-121.26053,37.12319]]]}},{"type":"Feature","properties":{"channel":"administrative","tier":"special","tierLabel":"Special Status Territory","name":"Tribal Reservation","era":2253,"areaKm2":17195.5,"sourceComponent":"special1","accuracyKm":2.42},"geometry":{"type":"Polygon","coordinates":[[[-124.16313,40.88139],[-124.41467,40.35798],[-124.36003,40.23429],[-123.84858,39.81478],[-123.7789,39.37429],[-123.63714,39.3188],[-122.99672,39.41091],[-122.87378,39.32711],[-122.76676,39.35345],[-122.70199,39.48343],[-122.89459,39.66449],[-122.78181,39.96604],[-123.09092,40.27874],[-123.01611,40.45698],[-122.82568,40.50325],[-122.79715,40.57864],[-123.06841,40.5813],[-123.23878,40.69962],[-123.55559,40.73585],[-123.7362,40.87411],[-123.76256,41.07371],[-124.08154,41.38371],[-124.17284,41.24605],[-124.10874,41.0328],[-124.16313,40.88139]]]}},{"type":"Feature","properties":{"channel":"administrative","tier":"special","tierLabel":"Special Status Territory","name":"Lost Hills","era":2253,"areaKm2":2148.0,"sourceComponent":"special2","accuracyKm":2.42},"geometry":{"type":"Polygon","coordinates":[[[-119.84861,36.00311],[-120.01426,35.91995],[-120.02988,35.64503],[-120.00486,35.49255],[-119.86669,35.41142],[-119.57684,35.61315],[-119.54799,35.93575],[-119.84861,36.00311]]]}},{"type":"Feature","properties":{"channel":"administrative","tier":"special","tierLabel":"Special Status Territory","name":"Necropolis","era":2253,"areaKm2":263.4,"sourceComponent":"special3","accuracyKm":2.42},"geometry":{"type":"Polygon","coordinates":[[[-119.09422,35.40567],[-119.16874,35.29887],[-118.98771,35.24901],[-118.94545,35.37103],[-119.09422,35.40567]]]}}],"registration":{"coastPoints":634,"scale":4.4034,"offsetPx":[-45.3,33.89],"residualMedianPx":1.87,"residualP90Px":5.13,"anisotropy":1.0013,"anisotropyNote":"Separate x and y scale, fitted freely, come back equal. The inset is a uniform reduction of the main map and therefore shares its projection - which is what permits the main map's conic to be applied to inset pixels at all."},"accuracy":{"insetKmPerPx":2.419,"mainSheetKmPerPx":0.54941,"note":"The registration is not the limit. It fits to about 1 km; one inset pixel is about 2.4 km. Do not record these boundaries as equal in quality to the control layers taken from the main sheet."},"rosterCheck":{"drawn":{"state":8,"territory":6,"military":2,"special":3},"distinctNames":{"state":8,"territory":5,"military":2,"special":3},"panelStates":{"state":8,"territory":5,"military":2,"special":3}}}
