{"_doc":"DERIVED from savannah-2313.png through tools/savannah-2313-extract.py, using the registration in savannah-2313-georef.json. Who holds the ground: the state core, its two occupied territories, the dissident settlements free and occupied, and the three tribal areas. `entityType` carries what each one IS and must not be flattened to 'faction'.","era":2313,"eraRole":"detail source","eraNote":"EVERY feature is dated 2313. Misfits' present is about 2302, so this sheet is ELEVEN YEARS AHEAD of it. Owner's ruling: use it as-is to describe the south-east in more detail, mutating where it disagrees - not as a dated observation to be projected.","publication":"REPOSITORY MATERIAL ONLY. The sheet carries no printed licence, so nothing derived from it is published until the owner rules. A creator name is not a licence.","registrationKm":0.737,"boundaryExclusion":{"lon":[-91.0,-88.8],"lat":[28.9,30.5],"where":"Louisiana marsh and Mississippi delta, lon -91.0 to -88.8, lat 28.9 to 30.5","downgradeTo":"names and containment only","why":"Holds 207 of the 214 points worse than 15 km and every point worse than 20 km, including the 33.8 km worst case. Both directions fail here at once -- the sheet draws land where there is water and omits Lake Pontchartrain, Lake Borgne, Mississippi Sound and the delta birdfoot -- which is the signature of a simplified trace, not a registration error."},"type":"FeatureCollection","features":[{"type":"Feature","properties":{"channel":"control","name":"North Carolina Territory","nameConfidence":"printed","entityType":"occupiedTerritory","entityNote":"Ground the state has taken and holds under occupation, drawn in a lighter shade than its core spheres. Not an internal division.","isPolity":false,"parentPolity":"The States of Savannah","holderLabel":"Occupied territory","frontier":"east","era":2313,"eraRole":"detail source","boundarySource":"drawn","areaKm2":95432.9,"clippedBySheetEdge":false,"positionToleranceKm":0.737,"sourceComponent":"territory-1"},"geometry":{"type":"MultiPolygon","coordinates":[[[[-80.07494,36.83136],[-80.1079,36.84455],[-80.15735,36.90169],[-80.16834,36.90169],[-80.18482,36.87532],[-80.24526,36.86653],[-80.26175,36.84455],[-80.31669,36.82256],[-80.31669,36.79617],[-80.33867,36.75656],[-80.32218,36.70812],[-80.4101,36.63761],[-80.44856,36.64202],[-80.46504,36.62879],[-80.49801,36.63761],[-80.54196,36.6332],[-80.55845,36.64643],[-80.59141,36.64202],[-80.62987,36.65965],[-80.67383,36.6332],[-80.73427,36.62438],[-80.75075,36.60233],[-80.77822,36.59792],[-80.78372,36.57586],[-80.82218,36.54497],[-80.8991,36.54938],[-80.91558,36.53614],[-80.91558,36.4964],[-80.95954,36.45663],[-80.94855,36.41243],[-80.96503,36.38589],[-81.07492,36.39032],[-81.20679,36.34165],[-81.22327,36.34608],[-81.33865,36.23093],[-81.39909,36.18659],[-81.42657,36.18216],[-81.49799,36.1378],[-81.50349,36.10229],[-81.45953,36.06233],[-81.45404,36.04012],[-81.50349,35.99568],[-81.56393,35.97345],[-81.57492,35.96011],[-81.54195,35.95566],[-81.487,35.97345],[-81.44854,36.00012],[-81.37712,36.00901],[-81.35514,35.99123],[-81.36063,35.97789],[-81.45953,35.93342],[-81.487,35.91117],[-81.487,35.89337],[-81.45404,35.87556],[-81.39909,35.87556],[-81.33865,35.89782],[-81.30569,35.89782],[-81.25074,35.8533],[-81.23975,35.85775],[-81.23975,35.88447],[-81.28371,35.92007],[-81.26173,35.97345],[-81.17932,36.00012],[-81.15734,35.98679],[-81.14635,35.96011],[-81.12987,35.95566],[-81.11888,35.969],[-81.12987,36.00457],[-81.0969,36.02234],[-81.05844,36.00457],[-81.05294,35.96011],[-81.03097,35.96011],[-81.02547,35.98679],[-80.998,36.00457],[-81.00349,36.02234],[-80.98152,36.04012],[-80.98152,36.08453],[-80.94306,36.09341],[-80.88262,36.05789],[-80.83866,36.049],[-80.75075,35.96011],[-80.69581,35.94676],[-80.65185,35.89782],[-80.6079,35.87111],[-80.57493,35.81321],[-80.51449,35.78201],[-80.48152,35.77756],[-80.44306,35.73297],[-80.33867,35.71512],[-80.32218,35.67496],[-80.28922,35.63925],[-80.2068,35.58565],[-80.18482,35.5007],[-80.16834,35.48281],[-80.1079,35.45596],[-80.08592,35.40672],[-80.05845,35.37984],[-80.05845,35.344],[-80.08043,35.31262],[-80.09142,35.24085],[-80.05296,35.19147],[-80.06944,35.1196],[-80.04197,35.10611],[-80.03647,35.08813],[-80.07494,35.04316],[-80.07494,35.00266],[-80.02549,35.01616],[-79.9101,35.01166],[-79.85516,34.96665],[-79.85516,34.89908],[-79.89362,34.84499],[-79.89911,34.8044],[-79.88263,34.78184],[-79.83867,34.77281],[-79.80021,34.73218],[-79.80571,34.69605],[-79.83867,34.64634],[-79.83867,34.58756],[-79.78373,34.46534],[-79.73428,34.38829],[-79.69033,34.35655],[-79.66835,34.32479],[-79.64637,34.32025],[-79.58044,34.27032],[-79.55296,34.22491],[-79.53099,34.16128],[-79.5145,34.14764],[-79.50901,34.02478],[-79.47055,33.94277],[-79.39363,33.88349],[-79.30572,33.78765],[-79.19583,33.7237],[-79.19033,33.70542],[-79.16286,33.6917],[-79.09693,33.58191],[-79.09693,33.51323],[-79.16286,33.45824],[-79.18484,33.41697],[-79.22879,33.38486],[-79.25627,33.33438],[-79.25077,33.30224],[-79.19583,33.29306],[-79.18484,33.24252],[-79.16835,33.33897],[-79.14088,33.3711],[-79.1189,33.44907],[-79.07495,33.51323],[-79.03099,33.54529],[-78.94858,33.63683],[-78.76726,33.77852],[-78.69034,33.81505],[-78.57496,33.84699],[-78.58045,33.86068],[-78.55847,33.87893],[-78.52001,33.86525],[-78.52001,33.88349],[-78.47606,33.90174],[-78.41562,33.90174],[-78.37716,33.91998],[-78.26177,33.91998],[-78.19035,33.94733],[-78.09145,33.91086],[-78.04749,33.92909],[-78.01452,33.92454],[-77.99255,33.93365],[-77.97057,33.95644],[-77.95409,34.00201],[-77.94859,34.07485],[-77.92661,34.08396],[-77.90464,34.05665],[-77.87716,34.05665],[-77.83321,34.15673],[-77.83321,34.18401],[-77.78376,34.22036],[-77.7398,34.29756],[-77.69585,34.30664],[-77.66837,34.35201],[-77.61343,34.36562],[-77.55299,34.42909],[-77.52552,34.42909],[-77.45959,34.47893],[-77.31673,34.53779],[-77.30574,34.55589],[-77.27278,34.56494],[-77.21234,34.60565],[-77.13541,34.62826],[-77.1519,34.66894],[-77.11344,34.72315],[-77.08596,34.72315],[-77.06948,34.70508],[-77.08047,34.6825],[-77.06399,34.6825],[-76.89366,34.7367],[-76.72883,34.72767],[-76.74531,34.74573],[-76.73982,34.76378],[-76.68487,34.78635],[-76.6519,34.7683],[-76.66839,34.71863],[-76.63542,34.71863],[-76.62993,34.75024],[-76.60795,34.7683],[-76.58597,34.76378],[-76.5585,34.72767],[-76.50905,34.72767],[-76.50905,34.7683],[-76.49257,34.77732],[-76.47059,34.7683],[-76.44861,34.81342],[-76.40466,34.84048],[-76.38817,34.86753],[-76.32224,34.88556],[-76.32224,34.89908],[-76.34422,34.9126],[-76.33872,34.92612],[-76.32224,34.93513],[-76.28927,34.93062],[-76.27828,34.94864],[-76.30576,34.98466],[-76.30576,35.00716],[-76.32224,35.00266],[-76.30576,34.98016],[-76.31674,34.96215],[-76.33323,34.95764],[-76.36619,34.97115],[-76.38817,34.94413],[-76.42663,34.94864],[-76.43762,34.96215],[-76.43213,35.03866],[-76.45411,35.07014],[-76.46509,35.06565],[-76.45411,35.04316],[-76.47608,35.02516],[-76.48707,34.99366],[-76.54202,34.99816],[-76.58048,34.96215],[-76.60245,34.97566],[-76.64092,34.97566],[-76.66839,34.94413],[-76.7508,34.9081],[-76.80575,34.92612],[-76.84421,34.91711],[-76.86619,34.93963],[-76.89915,34.93513],[-76.91564,34.94413],[-76.92113,34.96215],[-76.98707,35.01166],[-77.02003,35.06565],[-77.00904,35.08363],[-76.99256,35.08813],[-76.93212,35.07014],[-76.91564,35.05216],[-76.92113,35.03416],[-76.89915,35.02966],[-76.88267,35.01166],[-76.8497,35.01616],[-76.81124,34.97566],[-76.77278,34.98016],[-76.7563,35.00266],[-76.72333,35.00716],[-76.70685,35.02966],[-76.66289,35.04316],[-76.64092,35.07014],[-76.60795,35.07464],[-76.60795,35.09712],[-76.57498,35.10162],[-76.54751,35.13308],[-76.5585,35.16003],[-76.58597,35.13308],[-76.62993,35.15105],[-76.6574,35.14656],[-76.67938,35.16453],[-76.67388,35.18249],[-76.6519,35.19596],[-76.62443,35.18698],[-76.60245,35.20943],[-76.53103,35.19147],[-76.53652,35.21841],[-76.49257,35.24982],[-76.48158,35.27225],[-76.49806,35.28571],[-76.50356,35.31262],[-76.53652,35.30365],[-76.58048,35.32158],[-76.59147,35.32158],[-76.59147,35.30365],[-76.57498,35.2902],[-76.58048,35.27674],[-76.60245,35.26328],[-76.64092,35.27225],[-76.6519,35.28571],[-76.64092,35.33055],[-76.66289,35.33503],[-76.69037,35.32158],[-76.72333,35.344],[-76.72333,35.3664],[-76.77278,35.38432],[-76.78927,35.38432],[-76.81674,35.36192],[-76.83872,35.37984],[-76.84421,35.41567],[-76.91014,35.43358],[-76.95959,35.4291],[-76.99256,35.46491],[-77.06399,35.48281],[-77.08047,35.50518],[-77.08047,35.52754],[-77.06399,35.54542],[-77.02003,35.54095],[-76.97608,35.49176],[-76.9541,35.49176],[-76.92113,35.46939],[-76.87718,35.47386],[-76.83872,35.46044],[-76.81124,35.46939],[-76.76729,35.43806],[-76.71784,35.43806],[-76.69037,35.42463],[-76.66289,35.44253],[-76.64641,35.43358],[-76.64092,35.40672],[-76.58048,35.39776],[-76.60245,35.42015],[-76.60795,35.48728],[-76.64641,35.51412],[-76.64092,35.53648],[-76.61894,35.54989],[-76.60245,35.54095],[-76.56399,35.54989],[-76.53103,35.53648],[-76.47059,35.55436],[-76.44861,35.53648],[-76.47059,35.49623],[-76.49806,35.49176],[-76.55301,35.50518],[-76.54751,35.48281],[-76.52553,35.48728],[-76.50356,35.46939],[-76.52553,35.45149],[-76.52004,35.40672],[-76.50356,35.41119],[-76.48158,35.39328],[-76.47059,35.41567],[-76.42663,35.41119],[-76.39916,35.43358],[-76.37718,35.42015],[-76.36619,35.3888],[-76.34422,35.40672],[-76.32773,35.40224],[-76.28927,35.34848],[-76.25631,35.344],[-76.23433,35.36192],[-76.21784,35.34848],[-76.16839,35.35296],[-76.14092,35.33951],[-76.13543,35.35296],[-76.08048,35.3664],[-76.05851,35.42015],[-76.02554,35.4291],[-75.97609,35.49176],[-75.97609,35.51412],[-75.89367,35.58118],[-75.89917,35.60352],[-75.88818,35.61692],[-75.86071,35.61692],[-75.84972,35.59012],[-75.82225,35.59458],[-75.80576,35.57671],[-75.78378,35.57671],[-75.77829,35.60352],[-75.72884,35.62585],[-75.73983,35.64818],[-75.7728,35.66604],[-75.77829,35.68835],[-75.75631,35.7062],[-75.71785,35.69728],[-75.71785,35.71959],[-75.73983,35.74635],[-75.72335,35.82212],[-75.78378,35.93787],[-75.83323,35.969],[-75.84422,35.96455],[-75.83323,35.94676],[-75.84422,35.92452],[-75.8662,35.92007],[-75.88268,35.92897],[-75.90466,35.91117],[-75.93213,35.91562],[-75.9651,35.88447],[-75.9706,35.75081],[-75.99807,35.66604],[-76.02005,35.64818],[-76.04202,35.64818],[-76.064,35.66604],[-76.04752,35.68389],[-76.05851,35.71066],[-76.04752,35.74635],[-76.064,35.76418],[-76.04752,35.8043],[-76.064,35.81766],[-76.0695,35.85775],[-76.04752,35.87556],[-76.04202,35.90227],[-76.02005,35.91562],[-76.02005,35.92452],[-76.04202,35.92007],[-76.064,35.93787],[-76.05301,35.95566],[-76.02005,35.95566],[-76.05301,35.98679],[-76.13543,35.99123],[-76.22883,35.97345],[-76.28927,35.95121],[-76.28378,35.93787],[-76.30576,35.92007],[-76.36619,35.93342],[-76.39916,35.97345],[-76.44312,35.97345],[-76.53652,35.93342],[-76.59147,35.92452],[-76.6519,35.92452],[-76.70685,35.93787],[-76.71784,35.96011],[-76.68487,36.00012],[-76.70685,36.01346],[-76.71234,36.04456],[-76.72883,36.05789],[-76.73432,36.10673],[-76.76179,36.13336],[-76.7563,36.20876],[-76.71784,36.24422],[-76.70685,36.28852],[-76.76729,36.34608],[-76.93212,36.39474],[-76.9486,36.43011],[-76.97058,36.43454],[-76.98157,36.45222],[-77.02553,36.45663],[-77.12443,36.43896],[-77.16289,36.4478],[-77.47058,36.45222],[-77.49805,36.47431],[-77.52552,36.47873],[-77.53651,36.50081],[-77.58046,36.48756],[-77.6409,36.52289],[-77.67387,36.51848],[-77.71233,36.47873],[-77.77277,36.47873],[-77.79475,36.49198],[-77.88266,36.50965],[-77.92112,36.4964],[-77.99804,36.51406],[-78.01452,36.53614],[-78.11342,36.54497],[-78.18485,36.60233],[-78.2343,36.59351],[-78.27826,36.60674],[-78.31672,36.56704],[-78.35518,36.56704],[-78.37716,36.58469],[-78.41012,36.57586],[-78.42661,36.5891],[-78.47056,36.56704],[-78.49254,36.58469],[-78.48704,36.59792],[-78.531,36.60674],[-78.56946,36.64202],[-78.62441,36.65965],[-78.64089,36.68609],[-78.70133,36.67287],[-78.75078,36.6949],[-78.94308,36.68609],[-78.98154,36.67728],[-79.00352,36.65524],[-79.04748,36.66406],[-79.06396,36.65084],[-79.09143,36.65084],[-79.10792,36.61556],[-79.12989,36.60233],[-79.3222,36.60233],[-79.34418,36.61997],[-79.34418,36.68609],[-79.36615,36.71693],[-79.39363,36.71693],[-79.4156,36.6949],[-79.46505,36.70371],[-79.43758,36.67728],[-79.43209,36.63761],[-79.44857,36.61997],[-79.52549,36.61556],[-79.65736,36.63761],[-79.74527,36.68609],[-79.78373,36.68609],[-79.86065,36.70812],[-79.87164,36.72133],[-79.87164,36.77416],[-79.89911,36.77416],[-79.92109,36.79177],[-79.90461,36.82256],[-79.9101,36.84895],[-79.99252,36.84455],[-80.03647,36.80057],[-80.05845,36.80497],[-80.07494,36.83136]]],[[[-79.17385,33.24252],[-79.17934,33.24252],[-79.17934,33.22414],[-79.17385,33.22414],[-79.17385,33.24252]]]]}},{"type":"Feature","properties":{"channel":"control","name":"East Florida Territory","nameConfidence":"printed","entityType":"occupiedTerritory","entityNote":"Ground the state has taken and holds under occupation, drawn in a lighter shade than its core spheres. Not an internal division.","isPolity":false,"parentPolity":"The States of Savannah","holderLabel":"Occupied territory","frontier":"south","era":2313,"eraRole":"detail source","boundarySource":"drawn","areaKm2":23622.6,"clippedBySheetEdge":false,"positionToleranceKm":0.737,"sourceComponent":"territory-7"},"geometry":{"type":"Polygon","coordinates":[[[-83.72324,30.57978],[-83.72873,30.50406],[-83.71774,30.46145],[-83.7562,30.33823],[-83.81115,30.29555],[-83.90455,30.26708],[-83.97049,30.26708],[-83.97049,30.16737],[-83.94851,30.14362],[-83.94851,30.10085],[-83.96499,30.07708],[-83.81664,29.9867],[-83.73423,29.96766],[-83.70126,29.93433],[-83.62983,29.901],[-83.60236,29.83906],[-83.56939,29.81523],[-83.5639,29.76754],[-83.54192,29.73892],[-83.51445,29.71984],[-83.48148,29.71984],[-83.465,29.6912],[-83.39357,29.65779],[-83.39357,29.53357],[-83.38258,29.51923],[-83.35511,29.49532],[-83.31116,29.48097],[-83.29467,29.44748],[-83.23423,29.43791],[-83.20676,29.41877],[-83.19028,29.37569],[-83.14083,29.34217],[-83.12984,29.32301],[-83.13533,29.29426],[-83.11336,29.29905],[-83.06391,29.26551],[-83.04742,29.1744],[-82.9705,29.18879],[-82.93753,29.1744],[-82.8716,29.1696],[-82.84413,29.18879],[-82.82765,29.1696],[-82.80567,29.1696],[-82.62985,29.38527],[-82.5749,29.42834],[-82.51996,29.44748],[-82.45952,29.4427],[-82.39908,29.41877],[-82.28919,29.30384],[-82.20128,29.25592],[-82.14084,29.24633],[-82.12436,29.26551],[-82.12436,29.33259],[-82.16282,29.4092],[-82.16282,29.66256],[-82.14084,29.68643],[-82.11337,29.758],[-82.06392,29.80092],[-81.99249,29.83906],[-81.76173,29.88671],[-81.6903,29.88671],[-81.65184,29.86765],[-81.63535,29.82953],[-81.64085,29.78662],[-81.67381,29.75323],[-81.72326,29.72938],[-81.75074,29.66734],[-81.75074,29.5957],[-81.72876,29.57659],[-81.6903,29.57659],[-81.64085,29.60525],[-81.5914,29.61003],[-81.53645,29.64824],[-81.45404,29.63391],[-81.26723,29.72938],[-81.27272,29.86289],[-81.31118,29.87242],[-81.30569,29.90576],[-81.32217,29.91052],[-81.34964,29.95814],[-81.33865,30.02476],[-81.35514,30.08658],[-81.34415,30.10085],[-81.3881,30.25759],[-81.42657,30.26708],[-81.46503,30.37142],[-81.4925,30.37616],[-81.52547,30.35246],[-81.57492,30.37142],[-81.61338,30.33823],[-81.67931,30.39986],[-81.67381,30.41881],[-81.62437,30.44724],[-81.55294,30.42355],[-81.49799,30.46145],[-81.46503,30.45671],[-81.44854,30.48039],[-81.46503,30.50406],[-81.51448,30.48513],[-81.54195,30.50406],[-81.54744,30.523],[-81.62437,30.54666],[-81.77271,30.46618],[-81.89909,30.43776],[-82.06392,30.36668],[-82.23974,30.35246],[-82.31666,30.39512],[-82.51996,30.39986],[-82.59688,30.39038],[-82.64633,30.37142],[-82.72875,30.31926],[-82.80017,30.31452],[-83.00347,30.41881],[-83.09138,30.43303],[-83.16281,30.39512],[-83.19028,30.39986],[-83.22874,30.45198],[-83.25621,30.52773],[-83.30017,30.53246],[-83.37709,30.51353],[-83.39907,30.5372],[-83.49247,30.55612],[-83.53093,30.57978],[-83.6573,30.57505],[-83.70126,30.60343],[-83.71774,30.5987],[-83.72324,30.57978]]]}},{"type":"Feature","properties":{"channel":"control","name":"Organized Dissident Settlements","nameConfidence":"printed","entityType":"displacedPopulation","entityNote":"NOT A POLITY. 'Dissidents' is the label the state applies to anyone who resisted it, who could be imprisoned, enslaved or killed without trial. This belt is those refugees, driven out by the state's expansion, settled along a major river and now raiding back.","isPolity":false,"parentPolity":null,"holderLabel":"Dissident settlements","frontier":"west","era":2313,"eraRole":"detail source","boundarySource":"drawn","areaKm2":162505.3,"clippedBySheetEdge":false,"positionToleranceKm":0.737,"sourceComponent":"dissident-free-1","boundaryPartlyExcluded":true,"excludedVertexPct":33.94,"excludedZone":"Louisiana marsh and Mississippi delta, lon -91.0 to -88.8, lat 28.9 to 30.5","excludedDowngradeTo":"names and containment only","excludedWhy":"Holds 207 of the 214 points worse than 15 km and every point worse than 20 km, including the 33.8 km worst case. Both directions fail here at once -- the sheet draws land where there is water and omits Lake Pontchartrain, Lake Borgne, Mississippi Sound and the delta birdfoot -- which is the signature of a simplified trace, not a registration error."},"geometry":{"type":"MultiPolygon","coordinates":[[[[-93.38245,30.22436],[-93.38794,30.17687],[-93.34948,30.14362],[-93.28904,30.20062],[-93.27256,30.2386],[-93.2341,30.24809],[-93.21212,30.22911],[-93.21761,30.21012],[-93.27256,30.17212],[-93.29454,30.12461],[-93.31651,30.11035],[-93.30553,30.07708],[-93.27805,30.06757],[-93.26157,30.03427],[-93.26157,29.9629],[-93.22311,29.92957],[-93.22311,29.89624],[-93.16267,29.89624],[-93.14619,29.91052],[-93.18465,29.9629],[-93.16816,29.99621],[-93.11871,29.99146],[-93.10773,29.94386],[-93.06927,29.93433],[-93.09674,29.90576],[-93.07476,29.88671],[-93.07476,29.86765],[-93.11871,29.83429],[-93.14069,29.85336],[-93.22311,29.85336],[-93.27256,29.82953],[-93.31102,29.82953],[-93.3275,29.81046],[-93.30003,29.78185],[-93.18465,29.78185],[-93.09124,29.758],[-93.06927,29.76277],[-93.06377,29.77708],[-93.0363,29.77708],[-92.99784,29.758],[-92.98685,29.72938],[-92.87696,29.69598],[-92.78905,29.65301],[-92.76707,29.66734],[-92.77257,29.71507],[-92.75059,29.72461],[-92.71213,29.70075],[-92.71213,29.67211],[-92.7396,29.65779],[-92.7341,29.63391],[-92.66817,29.60525],[-92.6407,29.61958],[-92.59674,29.59092],[-92.5418,29.5957],[-92.52532,29.58136],[-92.50883,29.5957],[-92.51982,29.63391],[-92.49784,29.64346],[-92.49235,29.66256],[-92.50334,29.67688],[-92.60224,29.71984],[-92.62422,29.76754],[-92.61323,29.79139],[-92.56378,29.81999],[-92.51982,29.81999],[-92.48686,29.77708],[-92.44839,29.79139],[-92.40444,29.79139],[-92.38796,29.77708],[-92.37697,29.71984],[-92.45389,29.65301],[-92.41543,29.61481],[-92.41543,29.5957],[-92.43191,29.58614],[-92.42642,29.56703],[-92.344,29.54313],[-92.26158,29.54313],[-92.23961,29.56225],[-92.16818,29.59092],[-92.14071,29.59092],[-92.12422,29.60525],[-92.15719,29.68643],[-92.20114,29.70552],[-92.21763,29.75323],[-92.12972,29.77708],[-92.09675,29.758],[-92.00884,29.79616],[-91.99236,29.82476],[-91.9484,29.85336],[-91.96488,29.87718],[-91.9539,29.92481],[-91.92093,29.93433],[-91.90994,29.88671],[-91.92642,29.86765],[-91.90994,29.84859],[-91.86598,29.84383],[-91.8495,29.88671],[-91.81653,29.88671],[-91.77258,29.86289],[-91.78906,29.81523],[-91.78357,29.78185],[-91.79456,29.76754],[-91.83302,29.76277],[-91.83302,29.73892],[-91.81653,29.73415],[-91.78906,29.758],[-91.74511,29.758],[-91.71214,29.77231],[-91.6517,29.77231],[-91.64621,29.758],[-91.61324,29.75323],[-91.60775,29.64824],[-91.54731,29.64346],[-91.52533,29.58614],[-91.49236,29.58136],[-91.46489,29.53835],[-91.43742,29.55269],[-91.43742,29.59092],[-91.40995,29.63869],[-91.40995,29.66256],[-91.37149,29.67211],[-91.34401,29.65301],[-91.34401,29.63391],[-91.38247,29.61481],[-91.40445,29.55747],[-91.39896,29.52879],[-91.31105,29.49054],[-91.29456,29.49532],[-91.27808,29.55269],[-91.24511,29.57181],[-91.26709,29.60047],[-91.2616,29.65301],[-91.21215,29.65779],[-91.20116,29.64824],[-91.21215,29.61958],[-91.18468,29.60047],[-91.17369,29.55269],[-91.19017,29.53357],[-91.24511,29.50966],[-91.25061,29.46184],[-91.19566,29.42834],[-91.19017,29.4092],[-91.1627,29.39484],[-91.1572,29.36611],[-91.11874,29.33738],[-91.06929,29.36611],[-91.01984,29.35175],[-90.98688,29.38527],[-90.92644,29.39005],[-90.90446,29.4092],[-90.84402,29.42356],[-90.82204,29.42356],[-90.80556,29.39963],[-90.7671,29.41399],[-90.71215,29.39005],[-90.67369,29.4427],[-90.60227,29.42356],[-90.5693,29.44748],[-90.5638,29.46662],[-90.48688,29.46184],[-90.4649,29.48575],[-90.42095,29.4714],[-90.38249,29.49532],[-90.34403,29.48097],[-90.34403,29.45227],[-90.42644,29.43791],[-90.43194,29.41399],[-90.42095,29.39484],[-90.34952,29.38048],[-90.33304,29.39963],[-90.29458,29.39963],[-90.2726,29.38527],[-90.25612,29.39963],[-90.23414,29.39963],[-90.22315,29.37569],[-90.19018,29.36132],[-90.1737,29.36611],[-90.1737,29.39005],[-90.15172,29.4092],[-90.15722,29.42356],[-90.20667,29.42834],[-90.20667,29.45705],[-90.19018,29.46662],[-90.20117,29.49054],[-90.25612,29.5001],[-90.26161,29.50966],[-90.21766,29.57181],[-90.1737,29.59092],[-90.20117,29.66256],[-90.21766,29.66734],[-90.26161,29.65301],[-90.26711,29.63869],[-90.30007,29.63869],[-90.34403,29.66734],[-90.38798,29.67211],[-90.38798,29.68643],[-90.3715,29.69598],[-90.38249,29.74846],[-90.4704,29.78662],[-90.49787,29.78185],[-90.50337,29.80092],[-90.48688,29.81999],[-90.49787,29.84859],[-90.54183,29.86765],[-90.62974,29.87242],[-90.61875,29.90576],[-90.63523,29.95338],[-90.59128,29.9629],[-90.5693,29.98194],[-90.54183,29.97718],[-90.54183,29.95814],[-90.52534,29.94386],[-90.52534,29.901],[-90.50886,29.87718],[-90.4704,29.85812],[-90.45392,29.81046],[-90.43743,29.80092],[-90.38249,29.81046],[-90.3715,29.77708],[-90.33853,29.74369],[-90.26161,29.77231],[-90.24513,29.79139],[-90.25062,29.81046],[-90.31106,29.84383],[-90.25612,29.86289],[-90.24513,29.87718],[-90.20667,29.86765],[-90.16271,29.83429],[-90.16821,29.81523],[-90.14073,29.79139],[-90.14623,29.73415],[-90.16821,29.71984],[-90.16821,29.69598],[-90.11326,29.68166],[-90.09128,29.70552],[-90.05832,29.70552],[-90.05282,29.65779],[-90.03634,29.64346],[-89.98139,29.67688],[-90.00337,29.71984],[-90.03084,29.74369],[-90.03084,29.78662],[-89.99238,29.87242],[-89.96491,29.901],[-90.03634,29.94386],[-90.06931,29.94386],[-90.06931,29.95338],[-90.05282,29.96766],[-90.03084,29.96766],[-89.98689,29.94386],[-89.93194,29.93433],[-89.89348,29.901],[-89.89348,29.85336],[-89.87151,29.81523],[-89.79458,29.81523],[-89.7836,29.78185],[-89.80557,29.76277],[-89.80008,29.74369],[-89.7836,29.73415],[-89.73415,29.74369],[-89.72865,29.71984],[-89.70667,29.70552],[-89.70667,29.69598],[-89.72865,29.6912],[-89.73415,29.66734],[-89.71217,29.63391],[-89.6792,29.63869],[-89.6792,29.67688],[-89.65722,29.69598],[-89.66821,29.79139],[-89.75612,29.81046],[-89.75612,29.83429],[-89.73415,29.85336],[-89.73964,29.86765],[-89.79458,29.89624],[-89.80557,29.92005],[-89.83305,29.92481],[-89.877,29.9629],[-89.86601,29.98194],[-89.86601,30.00097],[-89.88249,30.01049],[-89.877,30.03903],[-89.81107,30.06757],[-89.85502,30.11511],[-89.88799,30.11511],[-89.90447,30.08658],[-89.99788,30.02952],[-90.19018,30.01049],[-90.24513,30.03427],[-90.29458,30.02952],[-90.38249,30.0533],[-90.43743,30.09609],[-90.43743,30.17212],[-90.45941,30.17687],[-90.49787,30.15787],[-90.5638,30.15787],[-90.60227,30.18637],[-90.60776,30.21961],[-90.58578,30.2386],[-90.58029,30.29555],[-90.51985,30.32401],[-90.51435,30.36194],[-90.47589,30.36194],[-90.45392,30.33823],[-90.40996,30.32401],[-90.39348,30.30029],[-90.366,30.29555],[-90.34403,30.30978],[-90.30007,30.31452],[-90.24513,30.37616],[-90.20667,30.39512],[-90.1737,30.39512],[-90.12974,30.37616],[-90.06381,30.36668],[-89.94843,30.27657],[-89.91546,30.27657],[-89.88799,30.25759],[-89.84953,30.25284],[-89.84403,30.2386],[-89.7836,30.21961],[-89.71766,30.17687],[-89.60228,30.19112],[-89.5858,30.20537],[-89.60777,30.34772],[-89.65173,30.41408],[-89.6792,30.43303],[-89.71766,30.44724],[-89.81656,30.44724],[-89.98139,30.51353],[-90.03084,30.51826],[-90.04733,30.5372],[-90.11326,30.56085],[-90.16821,30.5987],[-90.23963,30.62234],[-90.27809,30.66016],[-90.33304,30.68379],[-90.36051,30.78297],[-90.36051,30.87261],[-90.33853,30.99044],[-90.34403,31.0893],[-90.32754,31.10812],[-90.31656,31.19276],[-90.29458,31.22565],[-90.28908,31.28671],[-90.30007,31.5961],[-90.23414,31.68497],[-90.22864,31.79245],[-90.18469,31.84847],[-90.19568,31.89513],[-90.18469,31.96508],[-90.13524,32.04429],[-90.08029,32.0955],[-90.01436,32.2025],[-89.98689,32.22574],[-89.93194,32.3233],[-89.90447,32.41611],[-89.88799,32.43466],[-89.84953,32.44394],[-89.80008,32.49493],[-89.79458,32.63385],[-89.77261,32.68935],[-89.73964,32.71709],[-89.71766,32.88336],[-89.64074,32.96176],[-89.64074,33.04931],[-89.54733,33.11376],[-89.53635,33.14137],[-89.56382,33.21035],[-89.56382,33.35274],[-89.53635,33.41697],[-89.47591,33.46282],[-89.47591,33.50406],[-89.50887,33.52697],[-89.50887,33.54529],[-89.53085,33.5636],[-89.56931,33.6414],[-89.56931,33.71456],[-89.62975,33.87893],[-89.6847,33.96556],[-89.69019,33.99745],[-89.71217,34.01567],[-89.71217,34.36562],[-89.75612,34.46534],[-89.75612,34.56042],[-89.73964,34.58756],[-89.73964,34.7367],[-89.66272,34.83146],[-89.49239,34.92612],[-89.43745,34.97115],[-89.40997,35.01616],[-89.40448,35.21392],[-89.36052,35.27674],[-89.31107,35.31262],[-89.2891,35.37536],[-89.23415,35.40672],[-89.11877,35.43806],[-88.97591,35.44701],[-88.94295,35.46044],[-88.91548,35.49176],[-88.80009,35.55883],[-88.73416,35.61245],[-88.72866,35.66604],[-88.75614,35.72851],[-88.78361,35.74189],[-88.96492,35.74189],[-88.9869,35.72851],[-89.02536,35.73743],[-89.06382,35.71959],[-89.10229,35.71959],[-89.14075,35.68389],[-89.17371,35.6705],[-89.27811,35.65711],[-89.32206,35.61692],[-89.42646,35.61692],[-89.42646,35.67496],[-89.34404,35.75972],[-89.34404,35.92007],[-89.32206,35.969],[-89.32756,36.05345],[-89.36602,36.09785],[-89.53085,36.1378],[-89.55283,36.17329],[-89.63525,36.2265],[-89.72865,36.25308],[-89.92096,36.27081],[-90.14073,36.27081],[-90.24513,36.28852],[-90.28908,36.27966],[-90.3715,36.23093],[-90.41545,36.16442],[-90.49238,36.11117],[-90.54183,36.11117],[-90.61875,36.15555],[-90.65721,36.16442],[-90.73963,36.24422],[-90.80556,36.27081],[-90.94841,36.27081],[-90.99237,36.25752],[-91.01435,36.27966],[-91.04182,36.28409],[-91.08028,36.27081],[-91.09676,36.25308],[-91.17918,36.2265],[-91.20116,36.19546],[-91.20116,36.16442],[-91.19566,36.11117],[-91.17369,36.07121],[-91.24511,36.00012],[-91.29456,35.92897],[-91.30006,35.78647],[-91.33852,35.75526],[-91.36599,35.69282],[-91.42094,35.64818],[-91.43192,35.63032],[-91.43192,35.57224],[-91.4539,35.5633],[-91.47588,35.52754],[-91.49786,35.5186],[-91.50885,35.49623],[-91.57478,35.44253],[-91.60225,35.39328],[-91.64621,35.34848],[-91.71763,35.3171],[-91.7561,35.26328],[-91.78357,35.25431],[-91.855,35.18249],[-91.9484,35.14656],[-92.00884,35.09263],[-92.06378,35.07464],[-92.11323,35.03866],[-92.1462,35.03416],[-92.2451,34.98466],[-92.39345,34.86303],[-92.43741,34.83597],[-92.48686,34.82244],[-92.49235,34.76378],[-92.42092,34.6599],[-92.34949,34.60113],[-92.30004,34.53326],[-92.26158,34.38376],[-92.16818,34.2567],[-92.09126,34.1931],[-92.03082,34.10216],[-91.99785,34.07485],[-91.84401,33.99745],[-91.64071,33.81505],[-91.60225,33.70999],[-91.59676,33.61853],[-91.57478,33.58191],[-91.5528,33.49032],[-91.5583,33.34356],[-91.58577,33.32061],[-91.64621,33.21495],[-91.66269,33.15057],[-91.73961,33.00785],[-91.83302,32.9341],[-91.93741,32.92026],[-91.9539,32.87874],[-92.01983,32.81412],[-92.04181,32.76331],[-92.12422,32.71247],[-92.1462,32.66623],[-92.1462,32.60608],[-92.19016,32.56904],[-92.19016,32.46712],[-92.12972,32.35579],[-92.12972,32.26756],[-92.1462,32.24433],[-92.1462,32.20715],[-92.07477,32.10016],[-92.03631,32.06757],[-91.97038,31.97906],[-91.92642,31.93711],[-91.87697,31.92312],[-91.86049,31.90446],[-91.83302,31.85314],[-91.83302,31.78778],[-91.86598,31.75041],[-91.97587,31.71302],[-92.04181,31.65692],[-92.10225,31.49777],[-92.17917,31.42278],[-92.25059,31.40402],[-92.32752,31.40402],[-92.37147,31.42278],[-92.44839,31.42278],[-92.55828,31.35712],[-92.57477,31.33365],[-92.55828,31.12693],[-92.59674,31.07518],[-92.62971,30.99044],[-92.71762,30.88676],[-92.72861,30.7263],[-92.77257,30.63652],[-92.80004,30.61761],[-92.833,30.56559],[-92.87696,30.54666],[-92.90993,30.50406],[-92.97586,30.45198],[-93.17915,30.34772],[-93.28904,30.30503],[-93.33849,30.27657],[-93.38245,30.22436]]],[[[-90.19568,29.33259],[-90.16271,29.33259],[-90.16271,29.35654],[-90.19568,29.35654],[-90.19568,29.33259]]]]}},{"type":"Feature","properties":{"channel":"control","name":"Occupied Dissident Settlements","nameConfidence":"printed","entityType":"occupiedSettlements","entityNote":"Dissident settlements inside an occupied territory, held by the state. Same ink as the free dissident belt in the west and a materially different situation.","isPolity":false,"parentPolity":"The States of Savannah","holderLabel":"Dissident settlements","frontier":null,"era":2313,"eraRole":"detail source","boundarySource":"drawn","areaKm2":27059.7,"clippedBySheetEdge":false,"positionToleranceKm":0.737,"sourceComponent":"dissident-occupied-1"},"geometry":{"type":"Polygon","coordinates":[[[-80.05845,36.24865],[-80.14636,36.1999],[-80.23427,36.19546],[-80.28922,36.17773],[-80.30021,36.16442],[-80.34416,36.06677],[-80.25076,36.00901],[-80.24526,35.96455],[-80.26175,35.88892],[-80.28922,35.86666],[-80.29471,35.83994],[-80.32768,35.79984],[-80.31669,35.75972],[-80.26175,35.74189],[-80.20131,35.7731],[-80.15735,35.77756],[-80.12988,35.75526],[-80.08043,35.74189],[-80.04197,35.69728],[-79.80021,35.62139],[-79.77274,35.62585],[-79.75626,35.65264],[-79.7123,35.67496],[-79.60791,35.7062],[-79.53099,35.7062],[-79.46505,35.66157],[-79.41011,35.64372],[-79.38264,35.61245],[-79.3222,35.58118],[-79.27275,35.51412],[-79.23978,35.49623],[-79.21231,35.44701],[-79.14088,35.41119],[-79.13539,35.33055],[-79.09693,35.2588],[-78.93209,35.2588],[-78.93209,35.23636],[-78.97055,35.23636],[-78.98704,35.2229],[-78.98704,35.08813],[-79.02,35.08813],[-79.0255,35.23187],[-79.08044,35.24085],[-79.09693,35.22739],[-79.09693,35.16453],[-79.1189,35.12409],[-79.13539,34.97115],[-79.09143,34.92612],[-78.97605,34.89007],[-78.90462,34.89007],[-78.84968,34.9081],[-78.81671,34.93513],[-78.78374,34.97115],[-78.77276,35.00266],[-78.73429,35.00716],[-78.51452,34.93062],[-78.43759,34.93062],[-78.38265,34.96215],[-78.30023,34.92161],[-78.27826,34.81793],[-78.25628,34.79988],[-78.22331,34.71412],[-78.16837,34.65086],[-78.07496,34.49252],[-78.07496,34.35201],[-78.09694,34.32933],[-78.10243,34.22491],[-78.1409,34.14309],[-78.1409,34.0703],[-78.16287,34.04299],[-78.19035,33.95189],[-78.09145,33.91086],[-78.06397,33.91542],[-78.05848,33.92909],[-78.01452,33.92454],[-77.99255,33.93365],[-77.97057,33.95644],[-77.95409,34.00201],[-77.95409,34.12035],[-77.97057,34.14309],[-77.95958,34.21128],[-77.9376,34.19764],[-77.91013,34.12035],[-77.91013,34.06575],[-77.88815,34.0521],[-77.87167,34.06575],[-77.8387,34.14309],[-77.83321,34.18855],[-77.78376,34.22036],[-77.7398,34.28848],[-77.76178,34.32479],[-77.81123,34.34294],[-77.8387,34.46081],[-77.8442,34.55589],[-77.86617,34.60565],[-77.86617,34.72767],[-77.90464,34.83597],[-77.89365,34.96215],[-77.91562,34.98466],[-77.98156,34.99816],[-78.01452,35.01616],[-78.05848,35.07014],[-78.08046,35.06565],[-78.10243,35.03866],[-78.1354,35.03866],[-78.1354,35.05665],[-78.11342,35.06115],[-78.09145,35.08813],[-78.1354,35.18698],[-78.15738,35.19147],[-78.19584,35.178],[-78.20133,35.08813],[-78.2343,35.08813],[-78.2343,35.1196],[-78.25628,35.13308],[-78.28375,35.09712],[-78.32221,35.08363],[-78.38265,35.10162],[-78.39913,35.13757],[-78.39913,35.18249],[-78.36067,35.20943],[-78.31122,35.21392],[-78.25078,35.16453],[-78.2343,35.178],[-78.2343,35.20943],[-78.10793,35.20943],[-78.09694,35.16453],[-78.07496,35.15105],[-78.05298,35.17351],[-78.04749,35.20494],[-78.00903,35.20943],[-78.06397,35.09263],[-78.05848,35.07464],[-78.042,35.07014],[-78.00903,35.08363],[-77.89914,35.17351],[-77.87716,35.20494],[-77.8442,35.2229],[-77.76727,35.23636],[-77.61892,35.23636],[-77.4486,35.13308],[-77.4486,35.12409],[-77.37168,35.08813],[-77.31124,35.08813],[-77.23981,35.07014],[-77.1464,35.07014],[-77.12992,35.08813],[-77.08047,35.08363],[-77.0475,35.11061],[-77.0475,35.178],[-77.10794,35.19147],[-77.1519,35.24085],[-77.2508,35.2902],[-77.27278,35.31262],[-77.38816,35.35744],[-77.39915,35.37088],[-77.39915,35.43806],[-77.36069,35.48728],[-77.30025,35.50518],[-77.26728,35.52754],[-77.2508,35.57224],[-77.18486,35.54095],[-77.13541,35.49176],[-77.08596,35.47834],[-77.06948,35.49176],[-77.08047,35.50518],[-77.07498,35.5633],[-77.03102,35.54095],[-77.00904,35.55436],[-77.02553,35.59012],[-77.17937,35.66604],[-77.27827,35.67943],[-77.32772,35.69728],[-77.32223,35.72851],[-77.33321,35.75081],[-77.31673,35.79093],[-77.31673,35.83548],[-77.33871,35.8622],[-77.37717,35.88001],[-77.43211,35.88447],[-77.47058,35.92452],[-77.50904,35.94232],[-77.62442,35.95121],[-77.71782,36.00901],[-77.81123,36.00901],[-77.86617,36.02679],[-77.95409,36.02234],[-78.042,35.97345],[-78.19035,35.94232],[-78.38815,35.85775],[-78.46507,35.97345],[-78.56946,36.00457],[-78.73429,36.0179],[-78.77276,36.06677],[-78.86067,36.09785],[-78.91561,36.10229],[-79.00352,36.1378],[-79.08594,36.12892],[-79.15187,36.10673],[-79.28374,36.12892],[-79.39912,36.12005],[-79.43758,36.13336],[-79.5145,36.13336],[-79.56945,36.12449],[-79.6134,36.14224],[-79.69582,36.20433],[-79.82769,36.20876],[-79.89362,36.24422],[-79.98153,36.26638],[-80.01999,36.26638],[-80.05845,36.24865]]]}},{"type":"Feature","properties":{"channel":"control","name":"Occupied Dissident Settlements","nameConfidence":"printed","entityType":"occupiedSettlements","entityNote":"Dissident settlements inside an occupied territory, held by the state. Same ink as the free dissident belt in the west and a materially different situation.","isPolity":false,"parentPolity":"The States of Savannah","holderLabel":"Dissident settlements","frontier":null,"era":2313,"eraRole":"detail source","boundarySource":"drawn","areaKm2":2841.4,"clippedBySheetEdge":false,"positionToleranceKm":0.737,"sourceComponent":"dissident-occupied-2"},"geometry":{"type":"Polygon","coordinates":[[[-82.76171,30.25759],[-82.72325,30.14362],[-82.69578,30.13887],[-82.64633,30.09134],[-82.62435,30.09609],[-82.61336,30.12936],[-82.54194,30.15312],[-82.51996,30.17212],[-82.40457,30.18162],[-82.26721,30.21961],[-82.15732,30.22911],[-82.10787,30.25284],[-81.99249,30.27657],[-81.89909,30.27182],[-81.89359,30.23385],[-81.86612,30.19112],[-81.86063,30.09609],[-81.84964,30.08183],[-81.75074,30.07708],[-81.72876,30.08658],[-81.71228,30.04379],[-81.6903,30.03427],[-81.61338,30.03903],[-81.54195,30.02952],[-81.41558,30.07708],[-81.3936,30.09609],[-81.36613,30.08183],[-81.34415,30.09609],[-81.38261,30.24809],[-81.39909,30.26233],[-81.41558,30.25284],[-81.43206,30.26233],[-81.43206,30.2908],[-81.46503,30.37142],[-81.4925,30.37616],[-81.51997,30.35246],[-81.57492,30.37142],[-81.5914,30.3572],[-81.60239,30.30503],[-81.61887,30.30503],[-81.63535,30.32401],[-81.63535,30.36668],[-81.72876,30.41881],[-81.72326,30.43776],[-81.65733,30.42355],[-81.63535,30.44724],[-81.57492,30.43776],[-81.55294,30.42355],[-81.49799,30.46145],[-81.48151,30.45198],[-81.45953,30.46145],[-81.45404,30.49933],[-81.47602,30.50406],[-81.50898,30.48039],[-81.53645,30.49459],[-81.54744,30.523],[-81.61338,30.54666],[-81.77271,30.46618],[-81.93755,30.42355],[-81.9815,30.32875],[-82.11886,30.31926],[-82.31117,30.26233],[-82.48699,30.27657],[-82.55842,30.25284],[-82.60237,30.25284],[-82.62435,30.27657],[-82.74523,30.27657],[-82.76171,30.25759]]]}},{"type":"Feature","properties":{"channel":"control","name":"Inhospitable Mountain/Hill Tribes","nameConfidence":"printed","entityType":"tribalArea","entityNote":"Ground held by tribes the sheet names collectively; no government is implied.","isPolity":false,"parentPolity":null,"holderLabel":"Mountain and hill tribes","frontier":"north","era":2313,"eraRole":"detail source","boundarySource":"drawn","areaKm2":99199.3,"clippedBySheetEdge":true,"positionToleranceKm":0.737,"sourceComponent":"mountainTribes-1"},"geometry":{"type":"Polygon","coordinates":[[[-86.73419,34.95314],[-86.76166,34.92161],[-86.65177,34.95314],[-86.50342,34.97115],[-86.40452,34.91711],[-86.39903,34.89908],[-86.4265,34.87655],[-86.43749,34.84499],[-86.43199,34.78635],[-86.37705,34.74121],[-86.36606,34.69153],[-86.43199,34.70508],[-86.45946,34.72767],[-86.5254,34.74573],[-86.54188,34.70508],[-86.54188,34.6373],[-86.5199,34.58756],[-86.48144,34.56946],[-86.43749,34.56494],[-86.38804,34.56946],[-86.37705,34.59661],[-86.33859,34.63278],[-86.31661,34.63278],[-86.30013,34.61922],[-86.30013,34.57851],[-86.34408,34.51063],[-86.34958,34.43816],[-86.29463,34.36109],[-86.2232,34.36562],[-86.21771,34.4155],[-86.19024,34.45628],[-86.1243,34.51515],[-86.09134,34.52421],[-86.08584,34.55137],[-86.03639,34.56494],[-85.99244,34.60113],[-85.97595,34.64182],[-85.89903,34.6599],[-85.84409,34.68701],[-85.80013,34.68701],[-85.75618,34.67798],[-85.68475,34.6373],[-85.60783,34.61017],[-85.61332,34.46081],[-85.60233,34.41096],[-85.62981,34.32933],[-85.65178,34.30664],[-85.65178,34.28394],[-85.61332,34.27486],[-85.62981,34.25216],[-85.60233,34.25216],[-85.58036,34.26578],[-85.54189,34.26578],[-85.53091,34.24762],[-85.51442,34.26124],[-85.41003,34.2567],[-85.29464,34.28394],[-85.15179,34.37469],[-85.10234,34.45628],[-85.0474,34.46534],[-85.06388,34.57851],[-85.00893,34.6373],[-85.01992,34.72767],[-85.00893,34.74121],[-85.01443,34.84048],[-85.00344,34.90359],[-84.98696,34.92161],[-84.943,34.93513],[-84.83311,34.92612],[-84.73421,34.89458],[-84.72872,34.86753],[-84.69575,34.84048],[-84.69575,34.8044],[-84.72322,34.76378],[-84.72322,34.71863],[-84.70125,34.68701],[-84.67927,34.59661],[-84.63531,34.56494],[-84.61334,34.53326],[-84.49246,34.54231],[-84.34411,34.46081],[-84.27818,34.46534],[-84.27268,34.48346],[-84.28367,34.48799],[-84.28916,34.52874],[-84.24521,34.55589],[-84.17928,34.55589],[-84.10785,34.62374],[-83.99246,34.62374],[-83.92104,34.64634],[-83.88258,34.67346],[-83.80565,34.66442],[-83.78917,34.67798],[-83.78917,34.70508],[-83.7617,34.72767],[-83.63533,34.78635],[-83.59687,34.78184],[-83.47599,34.7367],[-83.40456,34.75927],[-83.37159,34.75475],[-83.36061,34.74573],[-83.3661,34.69605],[-83.32764,34.6825],[-83.33863,34.62826],[-83.32214,34.62826],[-83.29467,34.64634],[-83.28368,34.67798],[-83.27269,34.67798],[-83.27269,34.69153],[-83.25621,34.69605],[-83.25621,34.7096],[-83.22324,34.7367],[-83.17929,34.74573],[-83.11336,34.78635],[-83.07489,34.84499],[-83.0694,34.9126],[-82.99797,34.98016],[-82.976,34.98016],[-82.93753,34.95314],[-82.84962,34.95764],[-82.82765,34.94413],[-82.82215,34.92612],[-82.7727,34.96665],[-82.70677,34.96665],[-82.69578,34.98016],[-82.66831,34.98016],[-82.65182,34.95764],[-82.65182,34.9126],[-82.62985,34.9126],[-82.60237,34.93963],[-82.59138,34.98916],[-82.53644,35.00716],[-82.52545,35.03866],[-82.44853,35.04766],[-82.36062,35.10611],[-82.33864,35.13757],[-82.2782,35.13757],[-82.25073,35.16902],[-82.22875,35.17351],[-82.22875,35.18698],[-82.26172,35.20943],[-82.26721,35.23636],[-82.23974,35.26777],[-82.1848,35.28571],[-82.25622,35.29916],[-82.26721,35.33055],[-82.20677,35.39776],[-82.22326,35.42463],[-82.19579,35.43806],[-82.19579,35.45596],[-82.14084,35.48281],[-82.14084,35.5007],[-82.10787,35.5186],[-82.0859,35.55883],[-82.05293,35.54542],[-82.06392,35.48728],[-82.00348,35.52307],[-81.92656,35.50965],[-81.8826,35.53648],[-81.8826,35.54542],[-81.93755,35.54095],[-81.91008,35.63478],[-81.92656,35.63478],[-81.99799,35.54989],[-82.01996,35.54542],[-82.03645,35.5633],[-82.03645,35.58565],[-82.00348,35.59458],[-82.00348,35.61245],[-81.96502,35.63478],[-81.99799,35.62585],[-82.04744,35.63032],[-82.12436,35.58565],[-82.17381,35.57671],[-82.19579,35.59458],[-82.19579,35.62139],[-82.17381,35.65264],[-82.14634,35.6705],[-82.11337,35.67496],[-82.0859,35.69728],[-82.07491,35.72405],[-82.01996,35.74635],[-81.987,35.77756],[-81.8881,35.81321],[-81.86612,35.83103],[-81.86612,35.85775],[-81.80019,35.88892],[-81.75623,35.88447],[-81.72326,35.91117],[-81.71777,35.94676],[-81.67381,35.98234],[-81.61887,35.99568],[-81.58041,36.02234],[-81.48151,36.06233],[-81.51448,36.09785],[-81.50898,36.14224],[-81.43206,36.19103],[-81.39909,36.19546],[-81.36063,36.23536],[-81.32217,36.25308],[-81.23426,36.3505],[-81.1958,36.35493],[-81.07492,36.39916],[-80.97053,36.39032],[-80.96503,36.42569],[-80.97602,36.4478],[-80.92108,36.50523],[-80.92657,36.54055],[-80.91558,36.54938],[-80.89361,36.55821],[-80.82767,36.54938],[-80.78921,36.58027],[-80.77822,36.60674],[-80.75075,36.60674],[-80.74526,36.62879],[-80.71778,36.64202],[-80.68482,36.63761],[-80.63537,36.66847],[-80.59141,36.65084],[-80.55845,36.65524],[-80.53647,36.63761],[-80.51449,36.64643],[-80.48702,36.63761],[-80.45405,36.64643],[-80.4101,36.64202],[-80.4101,36.65965],[-80.37163,36.67287],[-80.33317,36.70812],[-80.34966,36.75656],[-80.32218,36.83136],[-80.27273,36.84895],[-80.25076,36.87532],[-80.18482,36.88411],[-80.17933,36.91047],[-80.15186,36.91047],[-80.12988,36.94561],[-84.87157,36.94561],[-84.943,36.90169],[-85.09685,36.84895],[-85.22871,36.76976],[-85.32761,36.61115],[-85.35508,36.54497],[-85.42102,36.47873],[-85.51992,36.43454],[-85.6353,36.40801],[-85.69574,36.29738],[-85.69574,36.23979],[-85.72321,36.18216],[-85.80013,36.07565],[-85.86607,36.03123],[-85.86607,36.0179],[-85.9265,35.969],[-85.97595,35.88447],[-85.98694,35.83548],[-86.0309,35.76864],[-86.14079,35.69282],[-86.16277,35.62585],[-86.21771,35.5633],[-86.27265,35.44701],[-86.35507,35.38432],[-86.37705,35.35296],[-86.50891,35.28571],[-86.53089,35.20494],[-86.56386,35.178],[-86.60232,35.1196],[-86.65177,35.07914],[-86.67375,35.02966],[-86.73419,34.95314]]]}},{"type":"Feature","properties":{"channel":"control","name":"Florida Tribes","nameConfidence":"printed","entityType":"tribalArea","entityNote":"Ground held by tribes the sheet names collectively; no government is implied.","isPolity":false,"parentPolity":null,"holderLabel":"Florida tribes","frontier":"south","era":2313,"eraRole":"detail source","boundarySource":"drawn","areaKm2":20678.9,"clippedBySheetEdge":true,"positionToleranceKm":0.737,"sourceComponent":"floridaTribes-1"},"geometry":{"type":"Polygon","coordinates":[[[-82.36611,29.34217],[-82.42106,29.41877],[-82.4815,29.43791],[-82.55292,29.42834],[-82.59138,29.4092],[-82.62985,29.3709],[-82.71226,29.26071],[-82.78918,29.18399],[-82.78918,29.11201],[-82.7727,29.10721],[-82.7727,29.0784],[-82.72875,29.05919],[-82.74523,29.03037],[-82.72325,29.01596],[-82.72325,28.98232],[-82.70677,28.93905],[-82.69028,28.93905],[-82.69028,28.9102],[-82.6793,28.91982],[-82.64083,28.91982],[-82.64633,28.9102],[-82.61886,28.89577],[-82.61886,28.87653],[-82.65182,28.83322],[-82.6793,28.85728],[-82.70677,28.85728],[-82.6738,28.80915],[-82.68479,28.76581],[-82.64633,28.76099],[-82.64083,28.73691],[-82.66281,28.72727],[-82.64633,28.70318],[-82.61886,28.72245],[-82.59688,28.71282],[-82.59688,28.69354],[-82.62435,28.6839],[-82.65182,28.65015],[-82.64633,28.60192],[-82.62985,28.59228],[-82.64083,28.49574],[-82.66281,28.48126],[-82.65182,28.43778],[-82.69028,28.40396],[-82.69028,28.35562],[-82.72325,28.31209],[-82.73973,28.22014],[-82.7782,28.18625],[-82.76171,28.16688],[-82.7782,28.15234],[-82.75622,28.10389],[-82.7727,28.04086],[-82.76171,28.01661],[-82.7782,28.02632],[-82.7782,27.99236],[-80.56394,27.99236],[-80.56943,28.02632],[-80.67932,28.23951],[-80.69581,28.31693],[-80.74526,28.38462],[-80.82218,28.67908],[-80.84965,28.72727],[-80.84965,28.79952],[-80.78921,28.77063],[-80.78372,28.78026],[-80.86613,28.92463],[-80.88811,28.94386],[-80.89361,28.97271],[-80.91558,28.99193],[-80.91558,29.02076],[-80.93756,29.05919],[-80.95954,29.0736],[-80.98701,29.13601],[-80.998,29.13601],[-81.07492,29.31343],[-81.08042,29.19838],[-81.0969,29.1696],[-81.14086,29.13601],[-81.21778,29.10241],[-81.2892,29.04478],[-81.31668,28.96309],[-81.31668,28.88615],[-81.2892,28.85247],[-81.17932,28.81878],[-81.02547,28.81878],[-80.99251,28.78507],[-80.99251,28.72245],[-81.00349,28.70318],[-81.08042,28.65015],[-81.11888,28.64051],[-81.20129,28.64533],[-81.23975,28.66462],[-81.28371,28.74654],[-81.36613,28.75618],[-81.45404,28.63086],[-81.46503,28.63086],[-81.47052,28.61157],[-81.55843,28.52471],[-81.61887,28.49091],[-81.6903,28.48609],[-81.77271,28.50057],[-81.81667,28.53437],[-81.86063,28.5971],[-81.87711,28.65015],[-81.91557,28.68872],[-81.91557,28.75618],[-81.87711,28.84766],[-81.87161,28.9102],[-81.93755,29.01596],[-81.94854,29.05439],[-81.9815,29.0688],[-82.1793,29.05439],[-82.26721,29.08801],[-82.31117,29.14081],[-82.31666,29.23195],[-82.34414,29.31343],[-82.36611,29.34217]]]}},{"type":"Feature","properties":{"channel":"control","name":"Actively Hostile Florida Tribes","nameConfidence":"printed","entityType":"tribalArea","entityNote":"Ground held by tribes the sheet names collectively; no government is implied.","isPolity":false,"parentPolity":null,"holderLabel":"Actively hostile tribes","frontier":"south","era":2313,"eraRole":"detail source","boundarySource":"drawn","areaKm2":11160.3,"clippedBySheetEdge":false,"positionToleranceKm":0.737,"sourceComponent":"hostileTribes-1"},"geometry":{"type":"Polygon","coordinates":[[[-81.75623,29.66734],[-81.73425,29.72938],[-81.70678,29.75323],[-81.6903,29.75323],[-81.64634,29.80092],[-81.65184,29.84859],[-81.6903,29.87718],[-81.7837,29.87718],[-81.97601,29.83429],[-82.04744,29.80092],[-82.10238,29.758],[-82.15183,29.65779],[-82.15183,29.4092],[-82.11337,29.33259],[-82.11337,29.26551],[-82.14084,29.23674],[-82.19029,29.24154],[-82.30018,29.29905],[-82.38809,29.39963],[-82.41007,29.41399],[-82.41556,29.40441],[-82.34414,29.31343],[-82.31666,29.23195],[-82.31117,29.14081],[-82.26721,29.08801],[-82.1793,29.05439],[-82.01996,29.0688],[-81.9815,29.0688],[-81.94854,29.05439],[-81.93755,29.01596],[-81.87161,28.9102],[-81.87711,28.84766],[-81.91557,28.75618],[-81.91557,28.68872],[-81.87711,28.65015],[-81.84414,28.56815],[-81.80019,28.51989],[-81.74524,28.49091],[-81.63535,28.48609],[-81.55843,28.52471],[-81.50898,28.56815],[-81.36613,28.75618],[-81.28371,28.74654],[-81.25074,28.67908],[-81.22327,28.65497],[-81.11888,28.64051],[-81.08042,28.65015],[-81.00349,28.70318],[-80.99251,28.72245],[-80.99251,28.78507],[-81.04196,28.82359],[-81.17932,28.81878],[-81.2892,28.85247],[-81.31668,28.88615],[-81.31668,28.96309],[-81.2892,29.04478],[-81.21778,29.10241],[-81.12437,29.14561],[-81.08042,29.19838],[-81.08042,29.3278],[-81.10789,29.34696],[-81.10789,29.36611],[-81.08591,29.39005],[-81.1903,29.60047],[-81.24525,29.64824],[-81.23975,29.6912],[-81.25624,29.71984],[-81.26723,29.72461],[-81.28371,29.70552],[-81.43755,29.62914],[-81.48151,29.62436],[-81.53645,29.63869],[-81.5914,29.60047],[-81.64085,29.5957],[-81.69579,29.56703],[-81.72876,29.56703],[-81.75623,29.58614],[-81.75623,29.66734]]]}},{"type":"Feature","properties":{"channel":"control","name":"The States of Savannah","nameConfidence":"printed","entityType":"state","entityNote":"The core of the state, the union of its five trading spheres. Young - founded on a trading town that grew after 2277 - authoritarian and over-extended by 2313.","isPolity":true,"parentPolity":null,"holderLabel":"State core","capital":"Heart","era":2313,"eraRole":"detail source","boundarySource":"drawn","areaKm2":373448.7,"clippedBySheetEdge":false,"positionToleranceKm":0.737,"sourceComponent":"state-1"},"geometry":{"type":"MultiPolygon","coordinates":[[[[-88.57482,32.56904],[-88.60779,32.51346],[-88.75614,32.45321],[-88.84405,32.40219],[-88.87701,32.34651],[-88.87152,32.25827],[-88.85504,32.23504],[-88.78361,32.20715],[-88.73416,32.20715],[-88.64625,32.23504],[-88.61328,32.23504],[-88.40999,32.13273],[-88.32757,32.05826],[-88.21219,32.03031],[-88.16274,32.00702],[-88.15175,31.90913],[-88.21219,31.84847],[-88.25065,31.83447],[-88.25065,31.76442],[-88.20669,31.7177],[-88.1957,31.66159],[-88.17922,31.64289],[-88.17922,31.5961],[-88.08032,31.52119],[-88.04735,31.47903],[-88.06384,31.41809],[-88.06384,31.28201],[-88.03637,31.21155],[-88.03637,31.08459],[-88.05285,31.06577],[-88.05834,30.91976],[-88.11329,30.9009],[-88.15724,30.85846],[-88.25614,30.86789],[-88.33307,30.80184],[-88.34405,30.75936],[-88.32757,30.74047],[-88.32757,30.70741],[-88.34405,30.67434],[-88.42098,30.62707],[-88.45394,30.47092],[-88.47592,30.45671],[-88.56383,30.4425],[-88.5913,30.40934],[-88.5913,30.37142],[-88.56383,30.35246],[-88.51438,30.35246],[-88.4924,30.32401],[-88.47592,30.32401],[-88.45944,30.33349],[-88.45394,30.36194],[-88.41548,30.36194],[-88.41548,30.3809],[-88.38252,30.39038],[-88.37153,30.41408],[-88.33307,30.41881],[-88.30559,30.39512],[-88.26164,30.39986],[-88.21768,30.37616],[-88.17922,30.37142],[-88.17373,30.34298],[-88.12977,30.34772],[-88.11329,30.3809],[-88.11329,30.42355],[-88.13527,30.4425],[-88.10779,30.46618],[-88.11878,30.53246],[-88.0968,30.54666],[-88.1023,30.57505],[-88.06933,30.60815],[-88.07483,30.65071],[-88.06384,30.66488],[-88.03087,30.66961],[-88.03637,30.71213],[-88.01439,30.73103],[-87.97593,30.73103],[-87.95944,30.71213],[-87.93747,30.72158],[-87.9045,30.68379],[-87.88802,30.5372],[-87.91549,30.5088],[-87.91549,30.48986],[-87.88252,30.40934],[-87.84956,30.39038],[-87.84406,30.40934],[-87.81659,30.42355],[-87.79461,30.4046],[-87.81659,30.36668],[-87.74516,30.2908],[-87.75615,30.25759],[-87.78912,30.24335],[-87.71769,30.24809],[-87.70121,30.26233],[-87.65176,30.25759],[-87.57483,30.28131],[-87.56934,30.2908],[-87.62428,30.33823],[-87.61879,30.36668],[-87.59681,30.37616],[-87.56385,30.3572],[-87.55835,30.32875],[-87.52538,30.32875],[-87.51989,30.3572],[-87.49242,30.37616],[-87.47044,30.37142],[-87.45396,30.41408],[-87.42099,30.43303],[-87.41,30.42829],[-87.41,30.45198],[-87.38802,30.47092],[-87.34956,30.46618],[-87.32758,30.43776],[-87.36055,30.40934],[-87.39901,30.40934],[-87.42099,30.38564],[-87.40451,30.34772],[-87.44297,30.31926],[-87.40451,30.31452],[-87.38253,30.33823],[-87.33857,30.33823],[-87.30561,30.3572],[-87.27264,30.3572],[-87.28363,30.37142],[-87.27813,30.39038],[-87.20671,30.42355],[-87.15726,30.47092],[-87.15726,30.50406],[-87.22319,30.57032],[-87.2177,30.59397],[-87.20121,30.60343],[-87.15726,30.59397],[-87.12429,30.57032],[-87.08583,30.523],[-87.08583,30.47566],[-87.06935,30.45198],[-87.04737,30.60343],[-87.02539,30.62234],[-87.00341,30.61288],[-86.97045,30.57505],[-86.99242,30.50406],[-86.92649,30.46145],[-86.93748,30.43776],[-87.00341,30.39986],[-86.84407,30.41881],[-86.60781,30.40934],[-86.61331,30.4425],[-86.60232,30.45671],[-86.56386,30.47092],[-86.49243,30.47566],[-86.45397,30.5088],[-86.4265,30.49459],[-86.421,30.47092],[-86.35507,30.47092],[-86.3276,30.48986],[-86.28914,30.49459],[-86.2287,30.48986],[-86.20672,30.50406],[-86.17925,30.47092],[-86.14628,30.47566],[-86.1298,30.46618],[-86.11881,30.43303],[-86.09134,30.4046],[-86.09683,30.3809],[-86.11332,30.37142],[-86.14079,30.37616],[-86.28914,30.37142],[-86.17925,30.35246],[-86.01442,30.28606],[-85.97595,30.29555],[-85.94299,30.27657],[-85.932,30.25284],[-85.87705,30.22911],[-85.86057,30.22911],[-85.87156,30.27182],[-85.83859,30.30029],[-85.78914,30.29555],[-85.77266,30.30978],[-85.75068,30.30978],[-85.72871,30.29555],[-85.71772,30.25759],[-85.67376,30.28131],[-85.65728,30.27657],[-85.64629,30.25759],[-85.70673,30.21012],[-85.70123,30.18637],[-85.59684,30.13411],[-85.56937,30.13411],[-85.55288,30.14837],[-85.50893,30.13887],[-85.50893,30.1056],[-85.48695,30.10085],[-85.47047,30.07708],[-85.48695,30.03903],[-85.51442,30.03903],[-85.5364,30.07232],[-85.56937,30.08658],[-85.61332,30.09609],[-85.61882,30.08658],[-85.51442,30.02952],[-85.44299,29.95814],[-85.40453,29.94862],[-85.35508,29.91529],[-85.28915,29.81523],[-85.30014,29.69598],[-85.2452,29.69598],[-85.16827,29.72461],[-85.00893,29.72461],[-84.99795,29.74369],[-84.96498,29.74369],[-84.88806,29.81999],[-84.8496,29.79616],[-84.88256,29.74846],[-84.83311,29.758],[-84.71224,29.81523],[-84.67377,29.85812],[-84.63531,29.86289],[-84.53092,29.92481],[-84.49246,29.92005],[-84.454,29.9391],[-84.41004,29.9391],[-84.34411,29.91052],[-84.34411,29.94386],[-84.43202,29.95338],[-84.47597,29.99621],[-84.46499,30.01049],[-84.43751,30.01525],[-84.41554,29.99621],[-84.36059,29.9867],[-84.38257,30.02],[-84.36609,30.03903],[-84.36609,30.06281],[-84.32213,30.09134],[-84.27818,30.07232],[-84.28367,30.09609],[-84.26169,30.11511],[-84.22873,30.1056],[-84.20125,30.12936],[-84.14081,30.09609],[-84.00345,30.11986],[-83.97598,30.09134],[-83.9595,30.09609],[-83.9595,30.13887],[-83.98148,30.16737],[-83.98148,30.25759],[-83.9595,30.27657],[-83.90455,30.27657],[-83.81115,30.30503],[-83.76719,30.34298],[-83.72873,30.46145],[-83.73972,30.56559],[-83.72873,30.5987],[-83.70675,30.61288],[-83.6573,30.58451],[-83.53093,30.58924],[-83.47599,30.56085],[-83.42104,30.55612],[-83.37709,30.523],[-83.30017,30.54193],[-83.26171,30.5372],[-83.23973,30.51826],[-83.19028,30.40934],[-83.16281,30.4046],[-83.10786,30.43776],[-83.0694,30.4425],[-82.98698,30.42355],[-82.89907,30.3809],[-82.86061,30.34772],[-82.79468,30.32401],[-82.72875,30.32875],[-82.65732,30.37616],[-82.5804,30.4046],[-82.52545,30.40934],[-82.31666,30.4046],[-82.23974,30.36194],[-82.06392,30.37616],[-81.89909,30.44724],[-81.77271,30.47566],[-81.67931,30.53246],[-81.61338,30.55612],[-81.59689,30.57505],[-81.56942,30.56559],[-81.56942,30.5372],[-81.53645,30.5372],[-81.53645,30.56559],[-81.50349,30.57978],[-81.4925,30.60815],[-81.47602,30.61288],[-81.44854,30.58924],[-81.43755,30.69324],[-81.45404,30.70741],[-81.45404,30.79713],[-81.40459,30.88676],[-81.39909,30.93861],[-81.41008,30.96688],[-81.43755,30.95746],[-81.46503,30.97159],[-81.47052,30.99044],[-81.44305,31.0234],[-81.41558,31.0234],[-81.40459,31.04223],[-81.40459,31.10812],[-81.43206,31.11282],[-81.43206,31.14104],[-81.41008,31.15044],[-81.38261,31.13634],[-81.37162,31.15985],[-81.31118,31.20215],[-81.27272,31.25384],[-81.27272,31.27262],[-81.2947,31.2961],[-81.28371,31.32427],[-81.2947,31.3665],[-81.26723,31.38526],[-81.25624,31.41809],[-81.18481,31.50714],[-81.1958,31.53056],[-81.24525,31.51182],[-81.27272,31.53992],[-81.22327,31.5727],[-81.16833,31.56333],[-81.12987,31.62417],[-81.13536,31.68965],[-81.17382,31.6803],[-81.20679,31.7177],[-81.18481,31.73639],[-81.12987,31.73172],[-81.06393,31.77377],[-81.03646,31.8158],[-81.08042,31.8298],[-81.0969,31.84847],[-81.07492,31.8858],[-80.97053,31.87647],[-80.94306,31.90446],[-80.98152,31.92312],[-80.98152,31.94643],[-80.93207,31.98838],[-80.88811,31.96042],[-80.87163,31.9744],[-80.87163,31.9977],[-80.84416,32.00702],[-80.91009,32.04429],[-80.84416,32.11877],[-80.84416,32.13739],[-80.87712,32.11877],[-80.89361,32.12343],[-80.90459,32.13739],[-80.89361,32.16065],[-80.87712,32.16995],[-80.82767,32.1653],[-80.80569,32.1839],[-80.82218,32.2118],[-80.78921,32.23039],[-80.76174,32.20715],[-80.77822,32.18855],[-80.76723,32.16995],[-80.8002,32.14204],[-80.8002,32.12808],[-80.78921,32.12808],[-80.75624,32.14204],[-80.67932,32.21644],[-80.67932,32.24433],[-80.76174,32.28615],[-80.77273,32.31401],[-80.8002,32.33723],[-80.79471,32.36972],[-80.80569,32.38828],[-80.83317,32.39292],[-80.84416,32.40683],[-80.82767,32.43466],[-80.84416,32.47639],[-80.83866,32.50883],[-80.82218,32.51809],[-80.76723,32.50883],[-80.76174,32.49493],[-80.78921,32.47175],[-80.78921,32.45785],[-80.75075,32.36972],[-80.72877,32.36508],[-80.71778,32.37436],[-80.7013,32.36972],[-80.68482,32.38828],[-80.66284,32.38364],[-80.62987,32.35115],[-80.64086,32.33723],[-80.62987,32.2815],[-80.6024,32.26292],[-80.56943,32.3233],[-80.55295,32.32794],[-80.56394,32.35115],[-80.53097,32.38364],[-80.48152,32.39756],[-80.46504,32.38828],[-80.44856,32.35115],[-80.43207,32.39756],[-80.45955,32.39756],[-80.49251,32.43466],[-80.49801,32.44857],[-80.47603,32.46712],[-80.5035,32.48566],[-80.53097,32.49029],[-80.53097,32.45321],[-80.58042,32.44394],[-80.59691,32.45321],[-80.6079,32.49029],[-80.68482,32.48566],[-80.7068,32.51346],[-80.69581,32.53199],[-80.66833,32.53663],[-80.65185,32.52273],[-80.61888,32.53199],[-80.59141,32.50419],[-80.57493,32.50419],[-80.56394,32.52273],[-80.54196,32.52273],[-80.51998,32.54126],[-80.47603,32.50419],[-80.42108,32.51346],[-80.39911,32.48566],[-80.36065,32.50419],[-80.31669,32.49029],[-80.3112,32.50419],[-80.24526,32.53663],[-80.19581,32.58293],[-80.15735,32.56441],[-80.09691,32.61534],[-79.99801,32.61534],[-79.98153,32.62922],[-79.90461,32.6431],[-79.89911,32.69398],[-79.88263,32.72172],[-79.89911,32.72634],[-79.89911,32.74483],[-79.93208,32.74945],[-79.94856,32.76793],[-79.92659,32.82335],[-79.89911,32.82335],[-79.89362,32.79565],[-79.85516,32.78641],[-79.83867,32.76331],[-79.72879,32.8095],[-79.76725,32.83259],[-79.75076,32.86951],[-79.70681,32.87413],[-79.68483,32.86028],[-79.57494,32.91565],[-79.57494,32.92487],[-79.60241,32.92487],[-79.62439,32.94332],[-79.57494,33.02167],[-79.53099,33.0401],[-79.50351,33.0401],[-79.47055,33.01706],[-79.38264,33.03089],[-79.37165,33.03549],[-79.37714,33.06773],[-79.36615,33.08154],[-79.31121,33.09995],[-79.27824,33.14137],[-79.24528,33.14137],[-79.23978,33.15517],[-79.20132,33.16437],[-79.20682,33.22414],[-79.27824,33.2609],[-79.29473,33.29306],[-79.29473,33.32979],[-79.27275,33.36192],[-79.18484,33.43531],[-79.14088,33.51323],[-79.10792,33.53155],[-79.10792,33.55445],[-79.1189,33.60022],[-79.16835,33.68256],[-79.21231,33.7237],[-79.27824,33.75568],[-79.39363,33.86981],[-79.47604,33.92909],[-79.52,34.02478],[-79.52549,34.134],[-79.56395,34.22491],[-79.59143,34.27032],[-79.64088,34.30664],[-79.67384,34.31572],[-79.70681,34.36109],[-79.73978,34.37923],[-79.79472,34.46534],[-79.84417,34.57399],[-79.84417,34.66894],[-79.8167,34.69605],[-79.8112,34.72767],[-79.84966,34.7683],[-79.88263,34.77281],[-79.90461,34.79086],[-79.90461,34.84499],[-79.86065,34.9126],[-79.86615,34.96665],[-79.9101,35.00266],[-80.02549,35.00716],[-80.06395,34.99816],[-80.08592,35.01616],[-80.08592,35.04766],[-80.04746,35.09263],[-80.08043,35.12409],[-80.06395,35.18698],[-80.10241,35.23187],[-80.10241,35.29916],[-80.06944,35.34848],[-80.06944,35.37536],[-80.09142,35.39328],[-80.11889,35.45596],[-80.19032,35.49176],[-80.22878,35.59458],[-80.29471,35.63032],[-80.33867,35.67943],[-80.33867,35.7062],[-80.45405,35.72851],[-80.49251,35.7731],[-80.509,35.76864],[-80.58592,35.80875],[-80.61888,35.87111],[-80.65185,35.88447],[-80.69031,35.92897],[-80.71778,35.94676],[-80.76174,35.95566],[-80.83317,36.03567],[-80.89361,36.05345],[-80.93207,36.08009],[-80.97602,36.08009],[-80.97053,36.04012],[-80.99251,36.02679],[-80.98701,36.00901],[-81.01448,35.99123],[-81.01448,35.969],[-81.03646,35.95121],[-81.06393,35.969],[-81.06393,36.00012],[-81.10239,36.01346],[-81.12437,36.00901],[-81.10789,35.969],[-81.12987,35.95121],[-81.15734,35.96011],[-81.17382,35.99123],[-81.25074,35.969],[-81.27272,35.93342],[-81.27272,35.91562],[-81.25074,35.91117],[-81.22877,35.88447],[-81.22877,35.8622],[-81.25074,35.84439],[-81.27272,35.84884],[-81.30569,35.88892],[-81.33865,35.88892],[-81.39909,35.86666],[-81.45404,35.86666],[-81.4925,35.88447],[-81.49799,35.90672],[-81.47052,35.93787],[-81.36613,35.98234],[-81.37162,36.00012],[-81.41558,36.00012],[-81.50898,35.95566],[-81.56393,35.95121],[-81.56942,35.97789],[-81.47052,36.03123],[-81.46503,36.05345],[-81.4925,36.05345],[-81.60788,35.99123],[-81.67931,35.969],[-81.74524,35.88001],[-81.80019,35.88001],[-81.85513,35.8533],[-81.85513,35.83103],[-81.8826,35.8043],[-81.97601,35.7731],[-82.00898,35.74189],[-82.05293,35.72851],[-82.10238,35.6705],[-82.14634,35.66157],[-82.17381,35.63925],[-82.1848,35.59458],[-82.16831,35.58565],[-82.13535,35.59012],[-82.04744,35.63925],[-81.99799,35.63478],[-81.987,35.60799],[-82.00348,35.58565],[-82.02546,35.58118],[-82.01996,35.55883],[-81.92106,35.63925],[-81.90458,35.63032],[-81.89909,35.60799],[-81.92656,35.54989],[-81.90458,35.54542],[-81.89359,35.52754],[-81.92656,35.5007],[-82.00348,35.51412],[-82.05293,35.48281],[-82.07491,35.5007],[-82.06392,35.54095],[-82.0804,35.54989],[-82.09689,35.5186],[-82.12985,35.49623],[-82.13535,35.47386],[-82.1848,35.45149],[-82.20677,35.42463],[-82.19579,35.39776],[-82.25622,35.33055],[-82.24524,35.30365],[-82.20677,35.30365],[-82.1848,35.28571],[-82.19579,35.26777],[-82.23974,35.2588],[-82.25622,35.23636],[-82.25622,35.21841],[-82.21227,35.18249],[-82.22326,35.16453],[-82.24524,35.16003],[-82.2837,35.12409],[-82.33315,35.12858],[-82.43754,35.04316],[-82.51996,35.02966],[-82.53644,34.99816],[-82.5804,34.98466],[-82.59138,34.93963],[-82.62985,34.90359],[-82.65732,34.9126],[-82.6738,34.97115],[-82.70677,34.95764],[-82.76721,34.95764],[-82.81116,34.91711],[-82.84962,34.94864],[-82.93753,34.94413],[-82.99248,34.97115],[-83.05841,34.9126],[-83.06391,34.84499],[-83.10786,34.77732],[-83.1683,34.74121],[-83.22324,34.72767],[-83.28368,34.64634],[-83.32214,34.61922],[-83.34962,34.6373],[-83.33863,34.67798],[-83.37159,34.69153],[-83.37159,34.74121],[-83.38258,34.75024],[-83.47599,34.72767],[-83.62983,34.77732],[-83.76719,34.71412],[-83.78368,34.66894],[-83.80565,34.65538],[-83.88258,34.66442],[-83.91005,34.64182],[-83.99246,34.6147],[-84.10235,34.6147],[-84.16829,34.55137],[-84.2507,34.54684],[-84.27268,34.52874],[-84.27818,34.5061],[-84.26169,34.4744],[-84.27818,34.45628],[-84.34411,34.45175],[-84.454,34.5061],[-84.47597,34.52874],[-84.62432,34.52874],[-84.69026,34.59661],[-84.71224,34.68701],[-84.73421,34.71412],[-84.73421,34.76378],[-84.70674,34.8044],[-84.71224,34.8495],[-84.76169,34.89908],[-84.83311,34.91711],[-84.93751,34.92612],[-84.99245,34.90359],[-85.00344,34.84048],[-84.99795,34.74121],[-85.00893,34.72315],[-84.99795,34.70508],[-84.99795,34.6373],[-85.05289,34.57399],[-85.0419,34.46534],[-85.09135,34.45175],[-85.1463,34.36562],[-85.20673,34.33387],[-85.25069,34.29302],[-85.29464,34.27486],[-85.41003,34.24762],[-85.51442,34.25216],[-85.5364,34.23853],[-85.55288,34.2567],[-85.58036,34.2567],[-85.61332,34.24308],[-85.62981,34.25216],[-85.62981,34.27032],[-85.66277,34.28848],[-85.61332,34.41096],[-85.62431,34.46081],[-85.61882,34.60565],[-85.71772,34.64182],[-85.75618,34.66894],[-85.80013,34.67798],[-85.84409,34.67798],[-85.92101,34.64182],[-85.96497,34.6373],[-85.99244,34.58756],[-86.0254,34.56042],[-86.07485,34.54684],[-86.08584,34.51515],[-86.15178,34.48346],[-86.20672,34.4155],[-86.21771,34.36562],[-86.27815,34.34748],[-86.33309,34.38376],[-86.36056,34.43816],[-86.36056,34.5061],[-86.31661,34.56946],[-86.31111,34.6147],[-86.34958,34.6147],[-86.38804,34.56042],[-86.43749,34.55589],[-86.48144,34.56042],[-86.5199,34.57851],[-86.55287,34.6373],[-86.54738,34.72767],[-86.5199,34.75475],[-86.37705,34.70057],[-86.38804,34.7367],[-86.43199,34.76378],[-86.44298,34.78635],[-86.44298,34.86753],[-86.41001,34.9081],[-86.47595,34.95314],[-86.50891,34.96215],[-86.62979,34.94864],[-86.75067,34.91711],[-86.81111,34.74573],[-86.88254,34.6825],[-86.94297,34.67798],[-87.05836,34.70508],[-87.10781,34.70508],[-87.14627,34.67798],[-87.15726,34.65538],[-87.14627,34.46534],[-87.12429,34.42456],[-87.03089,34.37016],[-87.00891,34.32479],[-87.0144,34.25216],[-87.12429,34.18401],[-87.22319,34.13854],[-87.23967,34.10216],[-87.27813,34.10216],[-87.30011,34.12035],[-87.35506,34.0703],[-87.39352,34.05665],[-87.5089,34.0612],[-87.56385,34.09306],[-87.58582,34.12035],[-87.60231,34.12035],[-87.64077,34.09306],[-87.64626,33.92454],[-87.67373,33.88805],[-87.7067,33.80135],[-87.7067,33.61395],[-87.69571,33.54529],[-87.67923,33.51781],[-87.67373,33.40321],[-87.72318,33.35274],[-87.71769,33.20116],[-87.75066,33.10916],[-87.81109,33.06312],[-87.87703,32.96637],[-88.01439,32.88797],[-88.04735,32.84182],[-88.09131,32.8095],[-88.15724,32.71247],[-88.2012,32.67085],[-88.23417,32.65698],[-88.31658,32.56441],[-88.37702,32.53199],[-88.42098,32.53199],[-88.44845,32.54589],[-88.46493,32.57367],[-88.50339,32.59219],[-88.55284,32.58756],[-88.57482,32.56904]]],[[[-80.83866,32.00702],[-80.84416,32.00702],[-80.84416,32.00236],[-80.83866,32.00236],[-80.83866,32.00702]]]]}}],"extraction":{"openingSurvivalPct":{"sea":99.2,"unclaimed":99.7,"sphere":99.6,"territory":99.3,"dissident":99.3,"mountainTribes":99.8,"floridaTribes":99.0,"hostileTribes":99.7,"defenceMarker":99.7,"ink":9.8,"_unassignedPx":1708},"survivalNote":"Percent of colour-matched pixels surviving an opening of radius 3. Every fill on this sheet survives 99%+; the ink survives 9.8%, because it is line work and lettering. A fill channel far below 90% is matching the boundary network rather than territory.","dissidentContainmentTest":[{"px":601126,"ringTerritoryPct":0.0,"ringUnclaimedPct":48.9,"verdict":"free"},{"px":102674,"ringTerritoryPct":73.8,"ringUnclaimedPct":0.0,"verdict":"occupied"},{"px":10179,"ringTerritoryPct":61.0,"ringUnclaimedPct":0.0,"verdict":"occupied"}],"simplifyPx":1.5,"minAreaPx":1500,"unnamedComponentsDropped":{}}}
