{"_doc":"DERIVED from savannah-2313.png through tools/savannah-2313-extract.py, using the registration in savannah-2313-georef.json. Heart, the capital, drawn as a small outline rather than as a division - and the six radiation trefoils of the western defence line. The registration recorded 'no point sites at all'; these are the correction.","era":2313,"eraRole":"detail source","eraNote":"EVERY feature is dated 2313. Misfits' present is about 2302, so this sheet is ELEVEN YEARS AHEAD of it. Owner's ruling: use it as-is to describe the south-east in more detail, mutating where it disagrees - not as a dated observation to be projected.","publication":"REPOSITORY MATERIAL ONLY. The sheet carries no printed licence, so nothing derived from it is published until the owner rules. A creator name is not a licence.","registrationKm":0.737,"boundaryExclusion":{"lon":[-91.0,-88.8],"lat":[28.9,30.5],"where":"Louisiana marsh and Mississippi delta, lon -91.0 to -88.8, lat 28.9 to 30.5","downgradeTo":"names and containment only","why":"Holds 207 of the 214 points worse than 15 km and every point worse than 20 km, including the 33.8 km worst case. Both directions fail here at once -- the sheet draws land where there is water and omits Lake Pontchartrain, Lake Borgne, Mississippi Sound and the delta birdfoot -- which is the signature of a simplified trace, not a registration error."},"type":"FeatureCollection","features":[{"type":"Feature","properties":{"channel":"sites","name":"Heart","nameConfidence":"printed","siteType":"capital","note":"Drawn as a small outlined blob at the junction of four spheres, about 41 x 28 px - a CITY, not a sixth division. The author: the capital was relocated here in the late 2290s to a 'newly founded' city, with their own footnote 'Original residents displaced'.","parentPolity":"The States of Savannah","era":2313,"eraRole":"detail source","positionSource":"mechanical - centroid of the outline the sheet draws","markerSizePx":[41,28],"positionToleranceKm":0.737},"geometry":{"type":"Point","coordinates":[-83.6573,32.82659]}},{"type":"Feature","properties":{"channel":"sites","name":null,"nameConfidence":"none","collectiveLabel":"Radioactive Defense Barriers","siteType":"defenceMarker","note":"The sheet prints one three-line label beside a north-south line of radiation trefoils on the state's western flank, facing the dissidents. The individual markers are not named and none is invented here.","parentPolity":"The States of Savannah","era":2313,"eraRole":"detail source","positionSource":"mechanical - intensity centroid of the trefoil's pieces","symbolPieces":4,"positionToleranceKm":0.737,"sourceComponent":"defence-marker-1"},"geometry":{"type":"Point","coordinates":[-88.20045,35.02691]}},{"type":"Feature","properties":{"channel":"sites","name":null,"nameConfidence":"none","collectiveLabel":"Radioactive Defense Barriers","siteType":"defenceMarker","note":"The sheet prints one three-line label beside a north-south line of radiation trefoils on the state's western flank, facing the dissidents. The individual markers are not named and none is invented here.","parentPolity":"The States of Savannah","era":2313,"eraRole":"detail source","positionSource":"mechanical - intensity centroid of the trefoil's pieces","symbolPieces":4,"positionToleranceKm":0.737,"sourceComponent":"defence-marker-2"},"geometry":{"type":"Point","coordinates":[-88.70655,34.27839]}},{"type":"Feature","properties":{"channel":"sites","name":null,"nameConfidence":"none","collectiveLabel":"Radioactive Defense Barriers","siteType":"defenceMarker","note":"The sheet prints one three-line label beside a north-south line of radiation trefoils on the state's western flank, facing the dissidents. The individual markers are not named and none is invented here.","parentPolity":"The States of Savannah","era":2313,"eraRole":"detail source","positionSource":"mechanical - intensity centroid of the trefoil's pieces","symbolPieces":4,"positionToleranceKm":0.737,"sourceComponent":"defence-marker-3"},"geometry":{"type":"Point","coordinates":[-88.82192,33.27777]}},{"type":"Feature","properties":{"channel":"sites","name":null,"nameConfidence":"none","collectiveLabel":"Radioactive Defense Barriers","siteType":"defenceMarker","note":"The sheet prints one three-line label beside a north-south line of radiation trefoils on the state's western flank, facing the dissidents. The individual markers are not named and none is invented here.","parentPolity":"The States of Savannah","era":2313,"eraRole":"detail source","positionSource":"mechanical - intensity centroid of the trefoil's pieces","symbolPieces":4,"positionToleranceKm":0.737,"sourceComponent":"defence-marker-4"},"geometry":{"type":"Point","coordinates":[-89.35575,32.34593]}},{"type":"Feature","properties":{"channel":"sites","name":null,"nameConfidence":"none","collectiveLabel":"Radioactive Defense Barriers","siteType":"defenceMarker","note":"The sheet prints one three-line label beside a north-south line of radiation trefoils on the state's western flank, facing the dissidents. The individual markers are not named and none is invented here.","parentPolity":"The States of Savannah","era":2313,"eraRole":"detail source","positionSource":"mechanical - intensity centroid of the trefoil's pieces","symbolPieces":4,"positionToleranceKm":0.737,"sourceComponent":"defence-marker-5"},"geometry":{"type":"Point","coordinates":[-89.30808,31.3324]}},{"type":"Feature","properties":{"channel":"sites","name":null,"nameConfidence":"none","collectiveLabel":"Radioactive Defense Barriers","siteType":"defenceMarker","note":"The sheet prints one three-line label beside a north-south line of radiation trefoils on the state's western flank, facing the dissidents. The individual markers are not named and none is invented here.","parentPolity":"The States of Savannah","era":2313,"eraRole":"detail source","positionSource":"mechanical - intensity centroid of the trefoil's pieces","symbolPieces":4,"positionToleranceKm":0.737,"sourceComponent":"defence-marker-6"},"geometry":{"type":"Point","coordinates":[-89.14287,30.39133]}}],"extraction":{"openingSurvivalPct":{"sea":99.2,"unclaimed":99.7,"sphere":99.6,"territory":99.3,"dissident":99.3,"mountainTribes":99.8,"floridaTribes":99.0,"hostileTribes":99.7,"defenceMarker":99.7,"ink":9.8,"_unassignedPx":1708},"survivalNote":"Percent of colour-matched pixels surviving an opening of radius 3. Every fill on this sheet survives 99%+; the ink survives 9.8%, because it is line work and lettering. A fill channel far below 90% is matching the boundary network rather than territory.","dissidentContainmentTest":[{"px":601126,"ringTerritoryPct":0.0,"ringUnclaimedPct":48.9,"verdict":"free"},{"px":102674,"ringTerritoryPct":73.8,"ringUnclaimedPct":0.0,"verdict":"occupied"},{"px":10179,"ringTerritoryPct":61.0,"ringUnclaimedPct":0.0,"verdict":"occupied"}],"simplifyPx":1.5,"minAreaPx":1500,"unnamedComponentsDropped":{}}}
