{"_doc":"DERIVED from savannah-2313.png through tools/savannah-2313-extract.py, using the registration in savannah-2313-georef.json. The five TRADING SPHERES OF INFLUENCE the state divides itself into. The author's own term, and the reason this is not the control channel: a sphere is a trade division of one state, not a province and not a polity.","era":2313,"eraRole":"detail source","eraNote":"EVERY feature is dated 2313. Misfits' present is about 2302, so this sheet is ELEVEN YEARS AHEAD of it. Owner's ruling: use it as-is to describe the south-east in more detail, mutating where it disagrees - not as a dated observation to be projected.","publication":"REPOSITORY MATERIAL ONLY. The sheet carries no printed licence, so nothing derived from it is published until the owner rules. A creator name is not a licence.","registrationKm":0.737,"boundaryExclusion":{"lon":[-91.0,-88.8],"lat":[28.9,30.5],"where":"Louisiana marsh and Mississippi delta, lon -91.0 to -88.8, lat 28.9 to 30.5","downgradeTo":"names and containment only","why":"Holds 207 of the 214 points worse than 15 km and every point worse than 20 km, including the 33.8 km worst case. Both directions fail here at once -- the sheet draws land where there is water and omits Lake Pontchartrain, Lake Borgne, Mississippi Sound and the delta birdfoot -- which is the signature of a simplified trace, not a registration error."},"type":"FeatureCollection","features":[{"type":"Feature","properties":{"channel":"influence","name":"Alabama","nameConfidence":"printed","entityType":"tradingSphereOfInfluence","entityNote":"The author's own term. An internal division of one state for TRADE, not a province and not a sovereign state - a different claim about the same ink.","isPolity":false,"parentPolity":"The States of Savannah","holderLabel":"Trading sphere of influence","frontier":null,"era":2313,"eraRole":"detail source","boundarySource":"drawn","areaKm2":79976.8,"clippedBySheetEdge":false,"positionToleranceKm":0.737,"sourceComponent":"sphere-3"},"geometry":{"type":"Polygon","coordinates":[[[-87.12978,34.68701],[-87.15726,34.65538],[-87.14627,34.46534],[-87.12429,34.42456],[-87.03089,34.37016],[-87.00891,34.32479],[-87.00891,34.25216],[-87.22319,34.13854],[-87.23967,34.09306],[-87.29462,34.10671],[-87.30011,34.12035],[-87.30561,34.10216],[-87.32758,34.10216],[-87.35506,34.0703],[-87.39352,34.05665],[-87.5144,34.0612],[-87.58582,34.12035],[-87.60231,34.12035],[-87.64077,34.09306],[-87.64626,33.92454],[-87.67373,33.88805],[-87.7067,33.80135],[-87.7067,33.61395],[-87.69571,33.54529],[-87.67923,33.51781],[-87.67373,33.39863],[-87.72318,33.35274],[-87.71769,33.20116],[-87.75066,33.10916],[-87.81109,33.06312],[-87.88802,32.95254],[-87.98692,32.91104],[-88.01439,32.88797],[-88.04735,32.84182],[-88.09131,32.8095],[-88.12428,32.74945],[-88.15175,32.73096],[-88.17922,32.68935],[-88.23417,32.65698],[-88.28362,32.59219],[-88.34405,32.54589],[-88.37153,32.53199],[-88.42098,32.53199],[-88.4924,32.58756],[-88.55284,32.58756],[-88.58031,32.56904],[-88.5968,32.51809],[-88.70669,32.47639],[-88.84405,32.40219],[-88.87701,32.34651],[-88.86603,32.24898],[-88.83855,32.22574],[-88.78361,32.20715],[-88.73416,32.20715],[-88.64625,32.23504],[-88.61328,32.23504],[-88.40999,32.13273],[-88.32757,32.05826],[-88.14625,32.01168],[-88.08582,31.98372],[-87.99791,31.96974],[-87.88252,31.96974],[-87.75066,31.94177],[-87.37703,31.92312],[-87.33857,31.90446],[-87.30011,31.84847],[-87.16825,31.83914],[-87.10781,31.80179],[-86.98693,31.75975],[-86.84957,31.75508],[-86.7232,31.72704],[-86.65177,31.72704],[-86.59133,31.74106],[-86.55836,31.7177],[-86.45397,31.68965],[-86.41551,31.66159],[-86.15727,31.66159],[-86.10233,31.70835],[-86.0309,31.7177],[-85.86057,31.68965],[-85.75068,31.699],[-85.66827,31.65692],[-85.58585,31.65224],[-85.54189,31.61482],[-85.48695,31.61014],[-85.45398,31.58674],[-85.37157,31.5961],[-85.3386,31.5727],[-85.27267,31.5727],[-85.22322,31.53524],[-85.21223,31.5446],[-85.10783,31.53992],[-85.07487,31.5727],[-85.03091,31.5727],[-84.99795,31.55865],[-84.91003,31.55865],[-84.89355,31.58674],[-84.86058,31.58674],[-84.8441,31.55865],[-84.80564,31.55865],[-84.80015,31.62885],[-84.76169,31.65692],[-84.77267,31.73639],[-84.7452,31.81113],[-84.7452,31.85314],[-84.76718,31.87647],[-84.76718,31.98372],[-84.7507,32.06291],[-84.77817,32.10481],[-84.77817,32.12808],[-84.75619,32.16995],[-84.76169,32.22109],[-84.73421,32.23504],[-84.70674,32.27686],[-84.71224,32.30472],[-84.77817,32.36043],[-84.79465,32.47639],[-84.76169,32.52736],[-84.71224,32.53199],[-84.71224,32.61071],[-84.75619,32.61071],[-84.77817,32.59219],[-84.8496,32.59219],[-84.91553,32.63385],[-84.97597,32.75407],[-85.08036,32.75869],[-85.12981,32.8649],[-85.17926,32.91104],[-85.19025,32.97559],[-85.21772,33.02167],[-85.2452,33.23793],[-85.28915,33.25631],[-85.41552,33.20116],[-85.45948,33.20116],[-85.58036,33.24252],[-85.60233,33.28847],[-85.62431,33.47199],[-85.70123,33.53613],[-85.70123,33.59107],[-85.64079,33.64597],[-85.56937,33.78308],[-85.51442,33.83787],[-85.45948,33.97467],[-85.38805,34.03388],[-85.37706,34.1158],[-85.28366,34.17492],[-85.27816,34.22036],[-85.3386,34.26124],[-85.41003,34.24762],[-85.51442,34.25216],[-85.51992,34.23399],[-85.54739,34.24308],[-85.55288,34.2567],[-85.60783,34.24308],[-85.64079,34.24762],[-85.62981,34.27032],[-85.66277,34.27032],[-85.66277,34.31118],[-85.6353,34.34294],[-85.61332,34.41096],[-85.62431,34.46081],[-85.61332,34.60113],[-85.71772,34.64182],[-85.7342,34.6599],[-85.80013,34.67798],[-85.84409,34.67798],[-85.92101,34.64182],[-85.96497,34.6373],[-85.99244,34.58756],[-86.04189,34.55137],[-86.07485,34.54684],[-86.08035,34.51968],[-86.14628,34.48799],[-86.18474,34.44722],[-86.20672,34.4155],[-86.21771,34.35655],[-86.27815,34.34748],[-86.31111,34.36109],[-86.33859,34.40643],[-86.34958,34.40643],[-86.36056,34.43816],[-86.36056,34.51515],[-86.34408,34.51968],[-86.3276,34.54684],[-86.31111,34.6147],[-86.34958,34.6147],[-86.39353,34.55589],[-86.43749,34.55589],[-86.48144,34.56042],[-86.5199,34.57851],[-86.55287,34.6373],[-86.55287,34.70508],[-86.5254,34.75475],[-86.37705,34.70057],[-86.38804,34.7367],[-86.43199,34.76378],[-86.44298,34.78635],[-86.44298,34.86753],[-86.41001,34.9081],[-86.48694,34.95764],[-86.54188,34.96215],[-86.75067,34.91711],[-86.81111,34.74573],[-86.88803,34.67798],[-86.97594,34.6825],[-87.05836,34.70508],[-87.10781,34.70508],[-87.12978,34.68701]]]}},{"type":"Feature","properties":{"channel":"influence","name":"Florida","nameConfidence":"printed","entityType":"tradingSphereOfInfluence","entityNote":"The author's own term. An internal division of one state for TRADE, not a province and not a sovereign state - a different claim about the same ink.","isPolity":false,"parentPolity":"The States of Savannah","holderLabel":"Trading sphere of influence","frontier":null,"era":2313,"eraRole":"detail source","boundarySource":"drawn","areaKm2":63156.7,"clippedBySheetEdge":false,"positionToleranceKm":0.737,"sourceComponent":"sphere-17"},"geometry":{"type":"MultiPolygon","coordinates":[[[[-88.23417,30.86789],[-88.25614,30.86789],[-88.28911,30.84431],[-88.34405,30.78297],[-88.32757,30.70741],[-88.33856,30.67906],[-88.42098,30.62707],[-88.45394,30.46618],[-88.54185,30.45198],[-88.5913,30.40934],[-88.5913,30.37142],[-88.56383,30.35246],[-88.50339,30.3572],[-88.4924,30.32401],[-88.47592,30.32401],[-88.45944,30.33349],[-88.48142,30.35246],[-88.47043,30.37142],[-88.41548,30.36194],[-88.41548,30.38564],[-88.38252,30.39038],[-88.36603,30.41881],[-88.33307,30.41881],[-88.30559,30.39512],[-88.26164,30.39986],[-88.21768,30.37616],[-88.17373,30.37142],[-88.17373,30.34298],[-88.12977,30.34772],[-88.11329,30.3809],[-88.11329,30.42355],[-88.12428,30.4046],[-88.14076,30.4046],[-88.14625,30.43776],[-88.10779,30.46618],[-88.10779,30.48513],[-88.11878,30.52773],[-88.13527,30.5372],[-88.0968,30.54666],[-88.0968,30.56559],[-88.12977,30.57978],[-88.12428,30.62234],[-88.08582,30.62707],[-88.06933,30.60815],[-88.07483,30.65543],[-88.06384,30.66961],[-88.03087,30.66961],[-88.03637,30.71686],[-88.01988,30.73103],[-87.96494,30.73103],[-87.95944,30.71213],[-87.94846,30.73575],[-87.92098,30.72158],[-87.9045,30.68851],[-87.88802,30.57032],[-87.88802,30.5372],[-87.91549,30.5088],[-87.89901,30.43303],[-87.85505,30.39038],[-87.83307,30.42829],[-87.8056,30.42355],[-87.78362,30.3809],[-87.81659,30.37616],[-87.81659,30.36668],[-87.77263,30.32875],[-87.77263,30.30978],[-87.74516,30.30029],[-87.75615,30.26233],[-87.65176,30.25759],[-87.57483,30.28131],[-87.58582,30.30503],[-87.62428,30.33349],[-87.62428,30.36194],[-87.61329,30.37616],[-87.59132,30.37616],[-87.58033,30.36194],[-87.55835,30.37142],[-87.55835,30.32875],[-87.52538,30.32875],[-87.52538,30.35246],[-87.49791,30.3809],[-87.47044,30.37142],[-87.45396,30.41881],[-87.40451,30.43303],[-87.45945,30.48039],[-87.45396,30.50406],[-87.42099,30.49459],[-87.40451,30.47092],[-87.36055,30.47092],[-87.32758,30.44724],[-87.33308,30.42355],[-87.38802,30.40934],[-87.42099,30.38564],[-87.40451,30.33823],[-87.44297,30.32401],[-87.43747,30.31452],[-87.40451,30.31452],[-87.39901,30.33349],[-87.38253,30.33823],[-87.33857,30.33823],[-87.30561,30.3572],[-87.27264,30.3572],[-87.32758,30.36194],[-87.33308,30.3809],[-87.22868,30.40934],[-87.15726,30.47092],[-87.15726,30.50406],[-87.18473,30.5372],[-87.20121,30.5372],[-87.22319,30.57032],[-87.2122,30.60343],[-87.15726,30.59397],[-87.12429,30.57032],[-87.08583,30.52773],[-87.08583,30.47566],[-87.06935,30.45198],[-87.03638,30.6318],[-87.0199,30.6318],[-86.97045,30.57978],[-86.99242,30.50406],[-86.921,30.46618],[-86.93748,30.43776],[-87.00341,30.39986],[-86.84407,30.41881],[-86.60781,30.40934],[-86.60781,30.45671],[-86.49243,30.47566],[-86.48694,30.49459],[-86.46496,30.49933],[-86.45397,30.51826],[-86.41551,30.51353],[-86.41551,30.49459],[-86.4265,30.49459],[-86.421,30.47092],[-86.35507,30.47092],[-86.33309,30.48986],[-86.28914,30.49459],[-86.2287,30.48986],[-86.20672,30.51353],[-86.19024,30.51353],[-86.17925,30.50406],[-86.17925,30.47092],[-86.11881,30.48513],[-86.1298,30.45671],[-86.09134,30.40934],[-86.09134,30.3809],[-86.10233,30.37142],[-86.14079,30.37616],[-86.28914,30.37142],[-86.23419,30.36668],[-86.10233,30.32875],[-86.01442,30.28606],[-85.97595,30.29555],[-85.94299,30.27657],[-85.932,30.25284],[-85.87705,30.22911],[-85.86607,30.22911],[-85.87156,30.27182],[-85.84409,30.30029],[-85.78914,30.29555],[-85.77815,30.30978],[-85.74519,30.30978],[-85.72321,30.28606],[-85.71772,30.25759],[-85.70673,30.25759],[-85.67926,30.28131],[-85.6353,30.27657],[-85.60233,30.29555],[-85.59684,30.34772],[-85.54189,30.3572],[-85.5364,30.34298],[-85.56387,30.31452],[-85.5364,30.27182],[-85.58036,30.27182],[-85.59134,30.26233],[-85.58585,30.2386],[-85.59684,30.23385],[-85.65728,30.24809],[-85.70673,30.21012],[-85.70673,30.19587],[-85.59684,30.13411],[-85.56937,30.13411],[-85.55838,30.14837],[-85.50893,30.14837],[-85.50893,30.1056],[-85.48146,30.10085],[-85.47047,30.03903],[-85.4375,30.06757],[-85.41003,30.06757],[-85.37157,30.03903],[-85.37157,30.01525],[-85.41552,30.02952],[-85.42102,30.01049],[-85.45398,30.00573],[-85.53091,30.04854],[-85.5364,30.07232],[-85.61882,30.09609],[-85.61332,30.08183],[-85.51442,30.02952],[-85.44299,29.95814],[-85.37706,29.93433],[-85.3386,29.89624],[-85.31662,29.84383],[-85.28915,29.81523],[-85.30014,29.69598],[-85.2452,29.69598],[-85.16827,29.72461],[-85.00893,29.72461],[-85.00893,29.75323],[-84.96498,29.74369],[-84.96498,29.76754],[-84.93751,29.76754],[-84.92652,29.79616],[-84.91003,29.79616],[-84.89905,29.81999],[-84.86608,29.81046],[-84.8441,29.82476],[-84.8441,29.79139],[-84.88256,29.74846],[-84.83311,29.758],[-84.71224,29.81523],[-84.68476,29.83906],[-84.69575,29.84859],[-84.69026,29.86289],[-84.63531,29.86289],[-84.61334,29.88194],[-84.57487,29.89147],[-84.53641,29.92481],[-84.49246,29.92005],[-84.47597,29.93433],[-84.41004,29.9391],[-84.36059,29.92957],[-84.3551,29.91052],[-84.34411,29.91052],[-84.33861,29.9391],[-84.3551,29.94862],[-84.4485,29.95338],[-84.4485,29.96766],[-84.48147,29.9867],[-84.47597,30.01525],[-84.43202,30.01525],[-84.41554,29.99621],[-84.36059,29.9867],[-84.37158,30.01049],[-84.39356,30.02],[-84.38806,30.03903],[-84.36609,30.03903],[-84.37158,30.06757],[-84.36059,30.07708],[-84.34411,30.07232],[-84.33312,30.09134],[-84.30565,30.09134],[-84.27818,30.07232],[-84.28367,30.10085],[-84.27268,30.11511],[-84.2507,30.11986],[-84.22873,30.1056],[-84.20675,30.13887],[-84.19026,30.13887],[-84.18477,30.11511],[-84.14631,30.13411],[-84.14081,30.11035],[-84.1518,30.09609],[-84.08038,30.10085],[-84.06389,30.11511],[-84.03093,30.11986],[-83.98148,30.11986],[-83.98148,30.09609],[-83.9595,30.09609],[-83.9595,30.13887],[-83.98148,30.16262],[-83.98148,30.27657],[-83.90455,30.27657],[-83.80016,30.30978],[-83.7617,30.35246],[-83.72873,30.46145],[-83.73972,30.56559],[-83.72324,30.62707],[-83.74522,30.71213],[-83.80016,30.73575],[-83.80565,30.7688],[-83.83862,30.78769],[-83.83313,30.82072],[-83.84961,30.83959],[-83.87708,30.86318],[-83.92653,30.87261],[-83.91554,30.91504],[-83.9595,30.94332],[-84.03093,30.90562],[-84.0584,30.92918],[-84.08038,30.91504],[-84.11334,30.91976],[-84.14631,30.94332],[-84.17378,30.99985],[-84.21774,31.02811],[-84.30565,31.01869],[-84.52542,31.05165],[-84.58037,31.10812],[-84.66279,31.15985],[-84.69026,31.22565],[-84.76718,31.29141],[-84.77817,31.31018],[-84.78366,31.43216],[-84.83311,31.4884],[-84.83311,31.51651],[-84.81114,31.54929],[-84.8496,31.54929],[-84.86608,31.57738],[-84.88806,31.57738],[-84.90454,31.54929],[-84.99795,31.54929],[-85.03091,31.56333],[-85.06937,31.56333],[-85.10234,31.53056],[-85.20673,31.53524],[-85.22322,31.52587],[-85.27816,31.56333],[-85.3386,31.56333],[-85.37706,31.58674],[-85.45398,31.57738],[-85.49794,31.60546],[-85.54189,31.60546],[-85.58585,31.64289],[-85.66827,31.64756],[-85.75068,31.68965],[-85.86057,31.6803],[-86.0309,31.70835],[-86.09683,31.699],[-86.1243,31.66627],[-86.15727,31.65224],[-86.41551,31.65224],[-86.46496,31.68497],[-86.55836,31.70835],[-86.59133,31.73172],[-86.64628,31.7177],[-86.7232,31.7177],[-86.84957,31.74574],[-86.98693,31.75041],[-87.10231,31.78778],[-87.16825,31.8298],[-87.30011,31.83914],[-87.32758,31.85781],[-87.34956,31.8998],[-87.37703,31.91379],[-87.69571,31.92778],[-87.88252,31.96042],[-88.04186,31.96508],[-88.15175,32.00236],[-88.16274,32.00236],[-88.15175,31.95576],[-88.15724,31.89513],[-88.21768,31.8438],[-88.25065,31.83447],[-88.25065,31.76442],[-88.20669,31.7177],[-88.1957,31.66159],[-88.17922,31.64289],[-88.17922,31.5961],[-88.08032,31.52119],[-88.04735,31.47903],[-88.06384,31.41809],[-88.06384,31.28201],[-88.03637,31.21155],[-88.03637,31.08459],[-88.05285,31.06577],[-88.05285,30.91976],[-88.11329,30.9009],[-88.15724,30.85846],[-88.21768,30.85846],[-88.23417,30.86789]]],[[[-88.08032,30.59397],[-88.07483,30.60815],[-88.0968,30.60343],[-88.09131,30.58924],[-88.08032,30.59397]]]]}},{"type":"Feature","properties":{"channel":"influence","name":"Georgia","nameConfidence":"printed","entityType":"tradingSphereOfInfluence","entityNote":"The author's own term. An internal division of one state for TRADE, not a province and not a sovereign state - a different claim about the same ink.","isPolity":false,"parentPolity":"The States of Savannah","holderLabel":"Trading sphere of influence","frontier":null,"era":2313,"eraRole":"detail source","boundarySource":"drawn","areaKm2":80949.0,"clippedBySheetEdge":false,"positionToleranceKm":0.737,"sourceComponent":"sphere-4"},"geometry":{"type":"MultiPolygon","coordinates":[[[[-83.8606,32.80488],[-83.94301,32.80488],[-83.954,32.76793],[-83.99796,32.74483],[-84.04191,32.74483],[-84.10235,32.78641],[-84.13532,32.79103],[-84.21774,32.76793],[-84.23422,32.75407],[-84.39356,32.75407],[-84.46499,32.72634],[-84.56938,32.72634],[-84.65729,32.70785],[-84.70125,32.62459],[-84.70125,32.52273],[-84.7452,32.52273],[-84.77817,32.49029],[-84.78366,32.43466],[-84.76718,32.36508],[-84.69575,32.30008],[-84.69575,32.27686],[-84.71773,32.23968],[-84.7507,32.21644],[-84.7452,32.16995],[-84.76718,32.12808],[-84.73971,32.06291],[-84.75619,31.98372],[-84.75619,31.87647],[-84.73421,31.85781],[-84.73421,31.81113],[-84.76169,31.73639],[-84.7507,31.65224],[-84.78916,31.62885],[-84.79465,31.54929],[-84.82212,31.51651],[-84.82212,31.49308],[-84.77267,31.43216],[-84.76718,31.31018],[-84.73421,31.26793],[-84.67927,31.23035],[-84.6518,31.15985],[-84.56389,31.10812],[-84.50894,31.05635],[-84.41554,31.05165],[-84.30565,31.02811],[-84.21224,31.03752],[-84.16279,30.99985],[-84.14081,30.95275],[-84.11334,30.92918],[-84.08587,30.92447],[-84.0529,30.93861],[-84.02543,30.91976],[-83.97049,30.95275],[-83.92104,30.9339],[-83.90455,30.91976],[-83.91554,30.87733],[-83.86609,30.86789],[-83.82214,30.82544],[-83.82214,30.78769],[-83.79467,30.77352],[-83.78917,30.7452],[-83.73972,30.72158],[-83.71774,30.62707],[-83.67928,30.59397],[-83.6573,30.58451],[-83.53093,30.58924],[-83.47599,30.56085],[-83.40456,30.55139],[-83.37709,30.523],[-83.30017,30.54193],[-83.25621,30.5372],[-83.19028,30.40934],[-83.16281,30.4046],[-83.12434,30.43303],[-83.0694,30.4425],[-82.98698,30.42355],[-82.89907,30.3809],[-82.86061,30.34772],[-82.79468,30.32401],[-82.72875,30.32875],[-82.6738,30.37142],[-82.5804,30.4046],[-82.52545,30.40934],[-82.31666,30.4046],[-82.23974,30.36194],[-82.06392,30.37616],[-81.89909,30.44724],[-81.77271,30.47566],[-81.67931,30.53246],[-81.61338,30.55612],[-81.5914,30.57978],[-81.56393,30.57032],[-81.56942,30.5372],[-81.53645,30.5372],[-81.54195,30.56559],[-81.50898,30.57505],[-81.487,30.61288],[-81.47052,30.61288],[-81.44854,30.58924],[-81.43755,30.69324],[-81.47602,30.66016],[-81.4925,30.66488],[-81.48151,30.6318],[-81.4925,30.6318],[-81.50349,30.65543],[-81.51448,30.63652],[-81.52547,30.64125],[-81.51997,30.66016],[-81.49799,30.66488],[-81.49799,30.67434],[-81.52547,30.67434],[-81.52547,30.68851],[-81.49799,30.69324],[-81.50898,30.71686],[-81.49799,30.77824],[-81.53645,30.80184],[-81.54195,30.84431],[-81.55843,30.86318],[-81.57492,30.86318],[-81.56942,30.84903],[-81.5859,30.84903],[-81.60788,30.85374],[-81.61338,30.86789],[-81.5859,30.85846],[-81.55843,30.88204],[-81.55294,30.86789],[-81.53096,30.87261],[-81.51448,30.84903],[-81.487,30.84431],[-81.51448,30.88676],[-81.49799,30.91033],[-81.45953,30.92447],[-81.47052,30.94803],[-81.45404,30.95275],[-81.45953,30.94332],[-81.45404,30.9339],[-81.44305,30.96217],[-81.46503,30.96688],[-81.48151,30.95275],[-81.51448,30.95275],[-81.52547,30.9763],[-81.58041,30.96688],[-81.63535,30.99985],[-81.59689,30.99985],[-81.60239,30.99044],[-81.5914,30.98572],[-81.57492,30.98572],[-81.56393,30.99985],[-81.55294,30.99044],[-81.52547,30.99985],[-81.487,30.98101],[-81.45404,31.00456],[-81.45404,31.01869],[-81.48151,31.01869],[-81.48151,31.00927],[-81.50349,31.01869],[-81.4925,31.03752],[-81.51997,31.06106],[-81.487,31.06577],[-81.51448,31.07047],[-81.50898,31.08459],[-81.48151,31.07518],[-81.45404,31.04223],[-81.43206,31.03752],[-81.43206,31.07518],[-81.42107,31.07518],[-81.41558,31.0234],[-81.40459,31.04223],[-81.40459,31.10812],[-81.44305,31.08459],[-81.46503,31.08459],[-81.47602,31.10341],[-81.50898,31.11282],[-81.50898,31.13163],[-81.45953,31.11282],[-81.43755,31.12223],[-81.44854,31.15515],[-81.42657,31.18805],[-81.44305,31.19746],[-81.45404,31.17395],[-81.46503,31.17865],[-81.43755,31.21625],[-81.41558,31.21625],[-81.40459,31.19746],[-81.40459,31.14574],[-81.3936,31.13634],[-81.31118,31.20215],[-81.31668,31.23035],[-81.33316,31.23035],[-81.31668,31.27732],[-81.35514,31.29141],[-81.34964,31.3008],[-81.30569,31.27732],[-81.31668,31.25384],[-81.30569,31.22095],[-81.2892,31.22565],[-81.27272,31.25384],[-81.27822,31.28201],[-81.33316,31.31018],[-81.38261,31.31018],[-81.38261,31.26793],[-81.3936,31.25853],[-81.40459,31.3008],[-81.37162,31.32427],[-81.43755,31.33835],[-81.43206,31.35242],[-81.41558,31.35242],[-81.41008,31.33835],[-81.28371,31.32427],[-81.28371,31.35242],[-81.31668,31.38526],[-81.32767,31.38057],[-81.32217,31.36181],[-81.34964,31.3665],[-81.38261,31.35242],[-81.41008,31.35712],[-81.34964,31.37119],[-81.32217,31.39464],[-81.31668,31.40871],[-81.34415,31.43216],[-81.34415,31.44622],[-81.31118,31.43684],[-81.32767,31.47434],[-81.30019,31.45559],[-81.2892,31.39933],[-81.26723,31.38526],[-81.25624,31.41809],[-81.18481,31.50714],[-81.18481,31.52119],[-81.20129,31.53056],[-81.2892,31.47903],[-81.34415,31.4884],[-81.30019,31.4884],[-81.26173,31.52587],[-81.27822,31.52587],[-81.31668,31.49777],[-81.2947,31.52587],[-81.34964,31.54929],[-81.34964,31.55865],[-81.32217,31.54929],[-81.30569,31.57738],[-81.30569,31.5446],[-81.2892,31.53992],[-81.28371,31.56333],[-81.25624,31.55397],[-81.26723,31.58206],[-81.25074,31.58206],[-81.24525,31.55397],[-81.23975,31.5727],[-81.20129,31.56801],[-81.20129,31.60546],[-81.22327,31.61014],[-81.21778,31.5961],[-81.22877,31.5961],[-81.23975,31.61014],[-81.23426,31.63353],[-81.30569,31.65224],[-81.33865,31.64289],[-81.33865,31.65692],[-81.30569,31.67095],[-81.32767,31.71302],[-81.30019,31.68965],[-81.27272,31.70367],[-81.25624,31.67562],[-81.1958,31.68497],[-81.1958,31.70367],[-81.22327,31.70835],[-81.21228,31.7177],[-81.22327,31.73172],[-81.27272,31.73172],[-81.27822,31.77844],[-81.30569,31.78311],[-81.2892,31.79245],[-81.2947,31.82046],[-81.28371,31.82046],[-81.27822,31.80179],[-81.27272,31.82513],[-81.26173,31.82513],[-81.26723,31.78778],[-81.25074,31.76442],[-81.17932,31.73172],[-81.16283,31.73172],[-81.17382,31.74574],[-81.16833,31.78311],[-81.1958,31.79712],[-81.1958,31.81113],[-81.18481,31.8298],[-81.16283,31.82046],[-81.15734,31.84847],[-81.14635,31.8438],[-81.15184,31.82046],[-81.18481,31.80179],[-81.15734,31.78778],[-81.16283,31.75041],[-81.14086,31.73172],[-81.06943,31.7691],[-81.03646,31.8158],[-81.04745,31.82046],[-81.06393,31.80646],[-81.05844,31.82513],[-81.09141,31.83914],[-81.13536,31.83914],[-81.16283,31.86247],[-81.16833,31.89047],[-81.21228,31.88114],[-81.27822,31.90913],[-81.36063,31.92312],[-81.34415,31.9977],[-81.3936,32.04429],[-81.49799,32.07223],[-81.55294,32.11412],[-81.53096,32.1653],[-81.47602,32.2025],[-81.56942,32.23504],[-81.5914,32.25827],[-81.62986,32.27221],[-81.71777,32.35115],[-81.83865,32.34651],[-81.87161,32.379],[-81.86063,32.43002],[-81.87161,32.49029],[-81.94854,32.60608],[-81.9815,32.68935],[-82.01996,32.73558],[-82.03095,32.78641],[-82.05293,32.80026],[-82.01996,32.90181],[-82.03645,32.92949],[-82.03645,32.99403],[-82.09689,33.08614],[-82.09689,33.18277],[-82.12436,33.22414],[-82.16282,33.20575],[-82.25073,33.21035],[-82.31117,33.27928],[-82.45402,33.32061],[-82.51446,33.3711],[-82.5804,33.36192],[-82.62985,33.38028],[-82.64633,33.36651],[-82.6793,33.36651],[-82.79468,33.45365],[-82.92105,33.45365],[-83.01446,33.41239],[-83.04193,33.38945],[-83.10237,33.38028],[-83.13533,33.36192],[-83.14632,33.34815],[-83.14083,33.32979],[-83.10237,33.32979],[-83.10237,33.31143],[-83.11336,33.30224],[-83.15731,33.30224],[-83.16281,33.27928],[-83.19577,33.27928],[-83.20127,33.2609],[-83.24522,33.24712],[-83.22874,33.20575],[-83.2672,33.19656],[-83.25621,33.15977],[-83.19577,33.13677],[-83.19577,33.10456],[-83.21226,33.09535],[-83.21226,33.07694],[-83.19028,33.06312],[-83.20127,33.0401],[-83.19028,33.02167],[-83.21775,32.99403],[-83.27819,32.96637],[-83.39357,32.96176],[-83.41006,32.95254],[-83.44852,32.90642],[-83.47049,32.90642],[-83.48148,32.87413],[-83.51445,32.87413],[-83.52544,32.85567],[-83.55291,32.85567],[-83.53093,32.82335],[-83.53093,32.80026],[-83.56939,32.79103],[-83.59687,32.81412],[-83.58038,32.78179],[-83.60785,32.78179],[-83.62434,32.76331],[-83.69577,32.76331],[-83.71774,32.78179],[-83.7562,32.77255],[-83.7562,32.80488],[-83.77269,32.82335],[-83.8606,32.80488]]],[[[-81.47602,31.04223],[-81.46503,31.03752],[-81.487,31.06106],[-81.487,31.05165],[-81.47602,31.04223]]],[[[-81.21228,31.71302],[-81.20679,31.71302],[-81.20679,31.7177],[-81.21228,31.7177],[-81.21228,31.71302]]]]}},{"type":"Feature","properties":{"channel":"influence","name":"Piedmont","nameConfidence":"printed","entityType":"tradingSphereOfInfluence","entityNote":"The author's own term. An internal division of one state for TRADE, not a province and not a sovereign state - a different claim about the same ink.","isPolity":false,"parentPolity":"The States of Savannah","holderLabel":"Trading sphere of influence","frontier":null,"era":2313,"eraRole":"detail source","boundarySource":"drawn","areaKm2":82808.3,"clippedBySheetEdge":false,"positionToleranceKm":0.737,"sourceComponent":"sphere-1"},"geometry":{"type":"Polygon","coordinates":[[[-84.98696,34.90359],[-85.00344,34.84048],[-84.99795,34.74121],[-85.00893,34.72315],[-84.99795,34.7096],[-84.99795,34.63278],[-85.05289,34.57399],[-85.03641,34.46081],[-85.09135,34.45175],[-85.1463,34.36562],[-85.19025,34.33387],[-85.20673,34.33387],[-85.25069,34.29302],[-85.32761,34.27032],[-85.31113,34.24762],[-85.26717,34.22491],[-85.27267,34.17037],[-85.37157,34.10671],[-85.38256,34.02022],[-85.44849,33.97011],[-85.49794,33.84243],[-85.56387,33.77395],[-85.62981,33.6414],[-85.69024,33.58649],[-85.69024,33.54071],[-85.66277,33.50865],[-85.61882,33.48574],[-85.59684,33.40321],[-85.59134,33.29306],[-85.56937,33.24712],[-85.45948,33.21035],[-85.41552,33.21035],[-85.28915,33.2655],[-85.23421,33.24252],[-85.21772,33.06773],[-85.17926,32.97559],[-85.17377,32.92949],[-85.11882,32.8649],[-85.07487,32.76793],[-84.97047,32.76331],[-84.91003,32.6431],[-84.8441,32.60145],[-84.78366,32.60145],[-84.76169,32.61996],[-84.70674,32.62459],[-84.66279,32.71709],[-84.57487,32.73558],[-84.46499,32.73558],[-84.39356,32.76331],[-84.23971,32.76331],[-84.13532,32.80026],[-84.08038,32.78641],[-84.03642,32.75407],[-83.99796,32.75407],[-83.96499,32.77255],[-83.94851,32.81412],[-83.8606,32.8095],[-83.83862,32.82335],[-83.78917,32.82797],[-83.77269,32.86028],[-83.72873,32.84644],[-83.73423,32.86951],[-83.72324,32.87874],[-83.69027,32.87874],[-83.67928,32.86028],[-83.62434,32.86028],[-83.59687,32.90642],[-83.57489,32.90181],[-83.55291,32.8649],[-83.53093,32.8649],[-83.52544,32.88336],[-83.48698,32.88336],[-83.48148,32.91104],[-83.45401,32.91565],[-83.40456,32.96637],[-83.2672,32.9802],[-83.20676,33.01706],[-83.21775,33.0401],[-83.20127,33.05391],[-83.22324,33.07233],[-83.20676,33.13217],[-83.25621,33.14597],[-83.2672,33.17357],[-83.27819,33.17357],[-83.27819,33.20116],[-83.23973,33.21035],[-83.25621,33.23333],[-83.25072,33.25631],[-83.21226,33.2655],[-83.20676,33.28387],[-83.1683,33.28847],[-83.15731,33.31143],[-83.11336,33.31602],[-83.15182,33.32979],[-83.14632,33.36651],[-83.10237,33.38945],[-83.03643,33.40321],[-82.95402,33.45365],[-82.92105,33.46282],[-82.79468,33.46282],[-82.70677,33.4078],[-82.6793,33.37569],[-82.60787,33.38945],[-82.59138,33.37569],[-82.55842,33.3711],[-82.53095,33.38486],[-82.53095,33.41697],[-82.49798,33.44907],[-82.49249,33.47199],[-82.49249,33.52697],[-82.53095,33.60022],[-82.49798,33.62768],[-82.43205,33.62768],[-82.39359,33.6597],[-82.36062,33.6597],[-82.33864,33.67799],[-82.30018,33.67341],[-82.29469,33.64597],[-82.27271,33.6414],[-82.25622,33.6414],[-82.24524,33.6597],[-82.1793,33.66884],[-82.1848,33.70542],[-82.15183,33.8333],[-82.12436,33.85156],[-82.05293,33.86981],[-82.02546,33.89262],[-82.03095,33.94733],[-81.99799,34.07485],[-81.9815,34.09306],[-81.94304,34.10216],[-81.82216,34.20219],[-81.81667,34.22036],[-81.74524,34.27032],[-81.74524,34.29302],[-81.72326,34.32479],[-81.71777,34.36109],[-81.6848,34.4019],[-81.6848,34.42456],[-81.60788,34.48799],[-81.52547,34.52421],[-81.45953,34.57851],[-81.33865,34.59661],[-81.27822,34.62826],[-81.26173,34.65086],[-81.1903,34.6825],[-81.16833,34.71412],[-81.03646,34.82695],[-80.78372,34.82695],[-80.68482,34.84499],[-80.54746,34.84499],[-80.53647,34.89007],[-80.48152,34.95764],[-80.4046,34.95764],[-80.35515,34.98016],[-80.23427,34.98016],[-80.20131,34.99816],[-80.12988,34.97566],[-80.08592,34.97566],[-80.08592,35.05216],[-80.04746,35.09263],[-80.08043,35.1151],[-80.08043,35.15554],[-80.06395,35.18698],[-80.10241,35.23187],[-80.10241,35.29916],[-80.06944,35.34848],[-80.06944,35.37536],[-80.09691,35.39776],[-80.11889,35.45596],[-80.16285,35.46939],[-80.19032,35.49176],[-80.21779,35.58118],[-80.24526,35.60799],[-80.29471,35.63032],[-80.33867,35.67943],[-80.33867,35.7062],[-80.45405,35.72851],[-80.49251,35.7731],[-80.509,35.76864],[-80.58592,35.80875],[-80.61888,35.87111],[-80.65185,35.88447],[-80.71778,35.94676],[-80.76174,35.95566],[-80.83317,36.03567],[-80.89361,36.05345],[-80.93207,36.08009],[-80.96503,36.08453],[-80.97602,36.08009],[-80.97053,36.04012],[-80.99251,36.02679],[-80.98701,36.00012],[-81.01448,35.99123],[-81.01998,35.95566],[-81.05844,35.95121],[-81.06393,36.00012],[-81.10239,36.01346],[-81.12437,36.00901],[-81.10789,35.969],[-81.12987,35.94676],[-81.15734,35.95566],[-81.17382,35.99123],[-81.25074,35.969],[-81.26723,35.95121],[-81.27272,35.91562],[-81.23426,35.89782],[-81.22877,35.8533],[-81.26173,35.84439],[-81.30569,35.88892],[-81.33865,35.88892],[-81.39909,35.86666],[-81.45404,35.86666],[-81.49799,35.88892],[-81.487,35.92452],[-81.37162,35.97789],[-81.37162,36.00012],[-81.44854,35.99123],[-81.4925,35.96011],[-81.54195,35.94676],[-81.58041,35.95121],[-81.5859,35.969],[-81.57492,35.97789],[-81.51448,36.00012],[-81.47052,36.03123],[-81.46503,36.05345],[-81.4925,36.05345],[-81.60788,35.99123],[-81.67931,35.969],[-81.70678,35.94232],[-81.71777,35.90227],[-81.74524,35.88001],[-81.80019,35.88001],[-81.85513,35.8533],[-81.85513,35.82657],[-81.8826,35.8043],[-81.97601,35.7731],[-82.01447,35.73743],[-82.05293,35.72851],[-82.10238,35.6705],[-82.14634,35.66157],[-82.17381,35.63925],[-82.1848,35.59458],[-82.14634,35.58565],[-82.04744,35.63925],[-81.99799,35.63478],[-81.95953,35.64372],[-81.95953,35.62585],[-81.99249,35.60799],[-81.99249,35.59012],[-82.02546,35.58118],[-82.02546,35.5633],[-82.00898,35.55883],[-81.94854,35.61245],[-81.94304,35.63032],[-81.92656,35.64372],[-81.90458,35.64372],[-81.89909,35.60799],[-81.92656,35.54989],[-81.87711,35.55436],[-81.87161,35.53648],[-81.91008,35.50518],[-81.94854,35.5007],[-82.00348,35.51412],[-82.04194,35.48281],[-82.06941,35.47834],[-82.06392,35.54095],[-82.0804,35.54989],[-82.10238,35.50965],[-82.12985,35.49623],[-82.13535,35.47386],[-82.1848,35.45149],[-82.19029,35.4291],[-82.20677,35.42463],[-82.19579,35.39328],[-82.25622,35.33055],[-82.24524,35.30365],[-82.19579,35.30365],[-82.17381,35.2902],[-82.17381,35.27674],[-82.23974,35.2588],[-82.25622,35.23636],[-82.25622,35.21841],[-82.21227,35.18249],[-82.22326,35.16453],[-82.24524,35.16003],[-82.2837,35.12409],[-82.33315,35.12858],[-82.43754,35.04316],[-82.51996,35.02966],[-82.52545,35.00266],[-82.5804,34.98466],[-82.59138,34.93963],[-82.62435,34.90359],[-82.66281,34.90359],[-82.66281,34.95764],[-82.6738,34.97115],[-82.69028,34.97115],[-82.70127,34.95764],[-82.76721,34.95764],[-82.80567,34.91711],[-82.82765,34.91711],[-82.84962,34.94864],[-82.93753,34.94413],[-82.99248,34.97115],[-83.05841,34.9126],[-83.06391,34.84499],[-83.10786,34.77732],[-83.17379,34.7367],[-83.22324,34.72767],[-83.22324,34.71412],[-83.24522,34.70508],[-83.24522,34.68701],[-83.26171,34.68701],[-83.28918,34.6373],[-83.31665,34.61922],[-83.34962,34.62374],[-83.33863,34.67798],[-83.37709,34.69153],[-83.37159,34.74121],[-83.38258,34.75024],[-83.47599,34.72767],[-83.62983,34.77732],[-83.76719,34.71412],[-83.77818,34.67346],[-83.80016,34.65538],[-83.88258,34.66442],[-83.91005,34.64182],[-83.99246,34.6147],[-84.10235,34.6147],[-84.16829,34.55137],[-84.2507,34.54684],[-84.27268,34.52874],[-84.27818,34.5061],[-84.26169,34.46987],[-84.28367,34.45175],[-84.34411,34.45175],[-84.49246,34.53326],[-84.61883,34.52421],[-84.64081,34.55589],[-84.67377,34.57399],[-84.70674,34.64182],[-84.71224,34.68701],[-84.73421,34.71412],[-84.73421,34.76378],[-84.70674,34.8044],[-84.70674,34.83597],[-84.73971,34.86303],[-84.7507,34.89458],[-84.90454,34.92612],[-84.96498,34.92161],[-84.98696,34.90359]]]}},{"type":"Feature","properties":{"channel":"influence","name":"Carolina","nameConfidence":"printed","entityType":"tradingSphereOfInfluence","entityNote":"The author's own term. An internal division of one state for TRADE, not a province and not a sovereign state - a different claim about the same ink.","isPolity":false,"parentPolity":"The States of Savannah","holderLabel":"Trading sphere of influence","frontier":null,"era":2313,"eraRole":"detail source","boundarySource":"drawn","areaKm2":61598.3,"clippedBySheetEdge":false,"positionToleranceKm":0.737,"sourceComponent":"sphere-2"},"geometry":{"type":"MultiPolygon","coordinates":[[[[-82.39359,33.64597],[-82.44304,33.61395],[-82.49249,33.61853],[-82.51446,33.60022],[-82.4815,33.52697],[-82.4815,33.46282],[-82.51996,33.41697],[-82.51996,33.38028],[-82.43205,33.32061],[-82.30018,33.28387],[-82.24524,33.21955],[-82.16831,33.21495],[-82.14084,33.23333],[-82.11337,33.23333],[-82.0859,33.18277],[-82.0804,33.07694],[-82.03645,33.00324],[-82.01996,32.99403],[-82.01996,32.92026],[-82.00348,32.90181],[-82.01447,32.85105],[-82.02546,32.85105],[-82.04194,32.8095],[-82.01447,32.77717],[-81.99799,32.72172],[-81.95953,32.67548],[-81.92656,32.58756],[-81.86612,32.50419],[-81.84964,32.46248],[-81.86063,32.38364],[-81.83315,32.35579],[-81.71228,32.36043],[-81.65184,32.31401],[-81.63535,32.28615],[-81.58041,32.26292],[-81.55843,32.23968],[-81.45953,32.2025],[-81.45953,32.1932],[-81.52547,32.15599],[-81.54195,32.11877],[-81.4925,32.08154],[-81.3881,32.0536],[-81.33865,32.00702],[-81.34415,31.92778],[-81.21778,31.90446],[-81.20679,31.92312],[-81.17932,31.92778],[-81.15734,31.94643],[-81.13536,31.92778],[-81.13536,31.90913],[-81.10239,31.8998],[-81.10789,31.91845],[-81.07492,31.93711],[-81.06943,31.91845],[-81.0969,31.90913],[-81.03646,31.87647],[-80.97053,31.87647],[-80.94306,31.90446],[-81.01448,31.93244],[-81.01998,31.97906],[-81.05294,31.96974],[-81.05844,31.98838],[-81.02547,32.00236],[-81.05294,32.021],[-81.04745,32.03497],[-81.01998,32.03497],[-80.98701,32.01168],[-80.98701,31.96042],[-80.97602,31.95109],[-80.95954,31.95576],[-80.97602,31.98372],[-80.94306,31.97906],[-80.93756,31.9977],[-80.84416,32.01168],[-80.88811,32.03031],[-80.93756,32.03031],[-80.98701,32.06291],[-81.03097,32.04429],[-81.03097,32.07223],[-81.06393,32.07223],[-81.08591,32.0955],[-81.05294,32.10016],[-81.02547,32.09085],[-80.998,32.10481],[-80.94306,32.07688],[-80.92108,32.04894],[-80.90459,32.04894],[-80.88811,32.07223],[-80.91558,32.07688],[-80.92657,32.10481],[-80.8991,32.10947],[-80.89361,32.09085],[-80.86613,32.09085],[-80.84416,32.11877],[-80.84965,32.13739],[-80.87163,32.11877],[-80.8991,32.11412],[-80.90459,32.16065],[-80.89361,32.16995],[-80.82767,32.1653],[-80.80569,32.1839],[-80.81119,32.1932],[-80.82767,32.1839],[-80.85514,32.1932],[-80.86613,32.1746],[-80.88262,32.1746],[-80.88811,32.1932],[-80.87712,32.2025],[-80.89361,32.21644],[-80.89361,32.23504],[-80.84416,32.23504],[-80.84416,32.22109],[-80.74526,32.23039],[-80.76723,32.2025],[-80.76723,32.16995],[-80.8002,32.14204],[-80.8002,32.12808],[-80.75624,32.14204],[-80.67932,32.21644],[-80.67932,32.24433],[-80.7068,32.26292],[-80.72328,32.25827],[-80.73427,32.23504],[-80.74526,32.23968],[-80.72877,32.26292],[-80.74526,32.2815],[-80.76174,32.26756],[-80.76174,32.24898],[-80.77273,32.24898],[-80.77822,32.27686],[-80.76174,32.29543],[-80.77822,32.31865],[-80.8002,32.28615],[-80.82767,32.2815],[-80.88262,32.30472],[-80.88811,32.34651],[-80.84416,32.30937],[-80.81668,32.30472],[-80.79471,32.33258],[-80.81119,32.34651],[-80.81119,32.35579],[-80.79471,32.35579],[-80.79471,32.36972],[-80.81119,32.39292],[-80.81668,32.35579],[-80.85514,32.379],[-80.85514,32.39756],[-80.83866,32.41147],[-80.84416,32.42539],[-80.82767,32.43466],[-80.84416,32.50419],[-80.86613,32.53663],[-80.91558,32.53199],[-80.91558,32.55052],[-80.8991,32.56441],[-80.87712,32.55978],[-80.87712,32.58293],[-80.86064,32.58756],[-80.83866,32.54126],[-80.80569,32.50883],[-80.78372,32.54126],[-80.74526,32.55052],[-80.66833,32.53663],[-80.65185,32.52273],[-80.61339,32.53199],[-80.57493,32.50419],[-80.58592,32.53199],[-80.62438,32.54126],[-80.65735,32.56441],[-80.65185,32.5783],[-80.61339,32.59682],[-80.58042,32.59682],[-80.56943,32.58756],[-80.57493,32.55978],[-80.55295,32.52736],[-80.55295,32.55978],[-80.53647,32.55978],[-80.47603,32.50419],[-80.39911,32.51346],[-80.39911,32.48566],[-80.38812,32.48566],[-80.37163,32.49493],[-80.37713,32.51346],[-80.42658,32.53663],[-80.42658,32.55978],[-80.39911,32.57367],[-80.4046,32.59682],[-80.42108,32.60145],[-80.4101,32.64773],[-80.42658,32.68935],[-80.4101,32.6986],[-80.39911,32.67085],[-80.37713,32.6616],[-80.37163,32.56904],[-80.38812,32.55052],[-80.36065,32.54589],[-80.34416,32.56441],[-80.28372,32.57367],[-80.28372,32.55515],[-80.33867,32.52736],[-80.33867,32.49493],[-80.31669,32.49029],[-80.28372,32.52273],[-80.23977,32.54126],[-80.23977,32.56441],[-80.2123,32.56904],[-80.23427,32.59219],[-80.26175,32.58756],[-80.26724,32.60608],[-80.3057,32.59219],[-80.33317,32.59682],[-80.32768,32.63385],[-80.27823,32.63847],[-80.27823,32.65235],[-80.3057,32.67085],[-80.33317,32.67085],[-80.33867,32.69398],[-80.30021,32.69398],[-80.28372,32.71247],[-80.26175,32.71247],[-80.27273,32.6801],[-80.25625,32.67085],[-80.24526,32.69398],[-80.22878,32.69398],[-80.23977,32.71247],[-80.19032,32.72634],[-80.1079,32.79565],[-80.07494,32.79565],[-80.06944,32.78641],[-80.04197,32.79565],[-79.99252,32.77255],[-79.97604,32.71709],[-79.98153,32.62922],[-79.94307,32.63385],[-79.96505,32.67548],[-79.94307,32.66623],[-79.93208,32.63847],[-79.90461,32.6431],[-79.88812,32.71709],[-79.9101,32.70322],[-79.94307,32.70322],[-79.94307,32.72634],[-79.89911,32.74483],[-79.94856,32.75869],[-79.93757,32.81874],[-79.97054,32.86028],[-79.96505,32.90181],[-79.93208,32.92949],[-79.9101,32.92949],[-79.92109,32.90181],[-79.94307,32.89258],[-79.94307,32.87413],[-79.9156,32.85105],[-79.9101,32.82797],[-79.89911,32.8649],[-79.85516,32.8972],[-79.84417,32.92487],[-79.82769,32.93871],[-79.77824,32.93871],[-79.77274,32.92026],[-79.8167,32.91565],[-79.82769,32.8649],[-79.87164,32.85105],[-79.89362,32.80488],[-79.89362,32.79565],[-79.87164,32.79565],[-79.82769,32.76331],[-79.80021,32.78641],[-79.73978,32.80488],[-79.80021,32.80488],[-79.80571,32.82797],[-79.78923,32.84644],[-79.76175,32.82797],[-79.76725,32.85567],[-79.73978,32.87413],[-79.7178,32.86951],[-79.69582,32.8972],[-79.66835,32.89258],[-79.66835,32.87413],[-79.69033,32.86951],[-79.68483,32.86028],[-79.57494,32.91565],[-79.57494,32.92487],[-79.6134,32.92487],[-79.62439,32.93871],[-79.63538,32.91104],[-79.66285,32.90181],[-79.65186,32.95715],[-79.6189,32.95715],[-79.59692,32.97559],[-79.58044,33.02167],[-79.53099,33.0401],[-79.49802,33.0401],[-79.47055,33.01706],[-79.43209,33.01706],[-79.37165,33.03549],[-79.37714,33.07233],[-79.31121,33.09995],[-79.28374,33.13217],[-79.34967,33.14137],[-79.39912,33.16897],[-79.40461,33.18736],[-79.38813,33.20116],[-79.36066,33.20116],[-79.34967,33.16897],[-79.25077,33.14137],[-79.24528,33.15057],[-79.26725,33.18736],[-79.24528,33.18736],[-79.2233,33.15517],[-79.20132,33.16437],[-79.20682,33.22414],[-79.28374,33.2655],[-79.29473,33.32979],[-79.2178,33.44448],[-79.19583,33.45365],[-79.19583,33.4399],[-79.2233,33.42156],[-79.25077,33.37569],[-79.18484,33.43531],[-79.18484,33.44907],[-79.14638,33.49032],[-79.14638,33.50865],[-79.10792,33.53155],[-79.1189,33.60022],[-79.16835,33.68256],[-79.21231,33.7237],[-79.27824,33.75568],[-79.39363,33.86981],[-79.47604,33.92909],[-79.52,34.02478],[-79.52549,34.134],[-79.56395,34.22491],[-79.59143,34.27032],[-79.64088,34.30664],[-79.67384,34.31118],[-79.70681,34.36109],[-79.76175,34.40643],[-79.84417,34.57399],[-79.84417,34.66894],[-79.8167,34.69605],[-79.8112,34.72767],[-79.84966,34.7683],[-79.88263,34.77281],[-79.90461,34.79086],[-79.90461,34.84499],[-79.86065,34.9126],[-79.86615,34.96665],[-79.88812,34.99366],[-79.94856,35.00716],[-80.06395,34.99816],[-80.08043,34.96665],[-80.12988,34.96665],[-80.2068,34.98466],[-80.23977,34.96665],[-80.35515,34.97115],[-80.39911,34.94864],[-80.47603,34.94864],[-80.52548,34.89007],[-80.54196,34.83597],[-80.65735,34.83597],[-80.77273,34.81793],[-81.03646,34.81793],[-81.05844,34.78635],[-81.15734,34.7096],[-81.16833,34.68701],[-81.25074,34.64634],[-81.26723,34.62374],[-81.33865,34.58756],[-81.46503,34.56494],[-81.51448,34.51968],[-81.59689,34.48346],[-81.66832,34.42909],[-81.67931,34.38829],[-81.70678,34.36109],[-81.73975,34.26124],[-81.81118,34.21128],[-81.81667,34.1931],[-81.93205,34.09761],[-81.97051,34.08851],[-81.99249,34.06575],[-82.01996,33.94733],[-82.01447,33.89262],[-82.04194,33.86525],[-82.14084,33.82874],[-82.17381,33.70542],[-82.16831,33.66427],[-82.20128,33.65055],[-82.23974,33.65055],[-82.25073,33.63225],[-82.30567,33.6414],[-82.30567,33.66427],[-82.39359,33.64597]]],[[[-80.83866,32.00236],[-80.83866,32.00702],[-80.84416,32.00702],[-80.84416,32.00236],[-80.83866,32.00236]]],[[[-80.54746,32.52273],[-80.54196,32.52273],[-80.54196,32.52736],[-80.54746,32.52736],[-80.54746,32.52273]]],[[[-79.88812,32.71709],[-79.88263,32.71709],[-79.88263,32.72172],[-79.88812,32.72172],[-79.88812,32.71709]]],[[[-79.73978,32.81412],[-79.73978,32.8095],[-79.72879,32.8095],[-79.72879,32.81412],[-79.73978,32.81412]]]]}}],"extraction":{"openingSurvivalPct":{"sea":99.2,"unclaimed":99.7,"sphere":99.6,"territory":99.3,"dissident":99.3,"mountainTribes":99.8,"floridaTribes":99.0,"hostileTribes":99.7,"defenceMarker":99.7,"ink":9.8,"_unassignedPx":1708},"survivalNote":"Percent of colour-matched pixels surviving an opening of radius 3. Every fill on this sheet survives 99%+; the ink survives 9.8%, because it is line work and lettering. A fill channel far below 90% is matching the boundary network rather than territory.","dissidentContainmentTest":[{"px":601126,"ringTerritoryPct":0.0,"ringUnclaimedPct":48.9,"verdict":"free"},{"px":102674,"ringTerritoryPct":73.8,"ringUnclaimedPct":0.0,"verdict":"occupied"},{"px":10179,"ringTerritoryPct":61.0,"ringUnclaimedPct":0.0,"verdict":"occupied"}],"simplifyPx":1.5,"minAreaPx":1500,"unnamedComponentsDropped":{}}}
